<?xml version="1.0" encoding="UTF-8"?>
<gpx version="1.1" creator="AlpHD" xmlns="http://www.topografix.com/GPX/1/1">
  <trk>
    <name>Arête des Cosmiques #2</name>
    <trkseg>
      <trkpt lat="45.879768" lon="6.889206"><ele>3694.4</ele></trkpt>
      <trkpt lat="45.879861" lon="6.889723"><ele>3678.8</ele></trkpt>
      <trkpt lat="45.879887" lon="6.890392"><ele>3652.2</ele></trkpt>
      <trkpt lat="45.879794" lon="6.890759"><ele>3647.6</ele></trkpt>
      <trkpt lat="45.879553" lon="6.891348"><ele>3638.6</ele></trkpt>
      <trkpt lat="45.879335" lon="6.891637"><ele>3629.2</ele></trkpt>
      <trkpt lat="45.879023" lon="6.891795"><ele>3614.6</ele></trkpt>
      <trkpt lat="45.878202" lon="6.891321"><ele>3579.8</ele></trkpt>
      <trkpt lat="45.877549" lon="6.890718"><ele>3569.2</ele></trkpt>
      <trkpt lat="45.875875" lon="6.888415"><ele>3544.6</ele></trkpt>
      <trkpt lat="45.874898" lon="6.888169"><ele>3523.0</ele></trkpt>
      <trkpt lat="45.874301" lon="6.888189"><ele>3520.4</ele></trkpt>
      <trkpt lat="45.873563" lon="6.888024"><ele>3515.8</ele></trkpt>
      <trkpt lat="45.872750" lon="6.887989"><ele>3516.0</ele></trkpt>
      <trkpt lat="45.872053" lon="6.887783"><ele>3513.8</ele></trkpt>
      <trkpt lat="45.871754" lon="6.887236"><ele>3519.4</ele></trkpt>
      <trkpt lat="45.871516" lon="6.886638"><ele>3516.4</ele></trkpt>
      <trkpt lat="45.871261" lon="6.885373"><ele>3524.4</ele></trkpt>
      <trkpt lat="45.871369" lon="6.884996"><ele>3540.0</ele></trkpt>
      <trkpt lat="45.871591" lon="6.884306"><ele>3571.0</ele></trkpt>
      <trkpt lat="45.871882" lon="6.884787"><ele>3581.4</ele></trkpt>
      <trkpt lat="45.872088" lon="6.884870"><ele>3582.0</ele></trkpt>
      <trkpt lat="45.872344" lon="6.885156"><ele>3591.8</ele></trkpt>
      <trkpt lat="45.872534" lon="6.885106"><ele>3579.6</ele></trkpt>
      <trkpt lat="45.872790" lon="6.885252"><ele>3582.2</ele></trkpt>
      <trkpt lat="45.872924" lon="6.885469"><ele>3580.8</ele></trkpt>
      <trkpt lat="45.873180" lon="6.885606"><ele>3588.2</ele></trkpt>
      <trkpt lat="45.873074" lon="6.885862"><ele>3588.0</ele></trkpt>
      <trkpt lat="45.873464" lon="6.885977"><ele>3587.8</ele></trkpt>
      <trkpt lat="45.873279" lon="6.885855"><ele>3586.8</ele></trkpt>
      <trkpt lat="45.873048" lon="6.885848"><ele>3585.6</ele></trkpt>
      <trkpt lat="45.873477" lon="6.885877"><ele>3585.4</ele></trkpt>
      <trkpt lat="45.873249" lon="6.885898"><ele>3585.6</ele></trkpt>
      <trkpt lat="45.873539" lon="6.885680"><ele>3565.6</ele></trkpt>
      <trkpt lat="45.874025" lon="6.885509"><ele>3555.4</ele></trkpt>
      <trkpt lat="45.874322" lon="6.885977"><ele>3545.2</ele></trkpt>
      <trkpt lat="45.874407" lon="6.886215"><ele>3544.6</ele></trkpt>
      <trkpt lat="45.874881" lon="6.886165"><ele>3553.6</ele></trkpt>
      <trkpt lat="45.874859" lon="6.885698"><ele>3565.0</ele></trkpt>
      <trkpt lat="45.875106" lon="6.884974"><ele>3591.6</ele></trkpt>
      <trkpt lat="45.875372" lon="6.885291"><ele>3604.2</ele></trkpt>
      <trkpt lat="45.875467" lon="6.885521"><ele>3633.6</ele></trkpt>
      <trkpt lat="45.875652" lon="6.885898"><ele>3667.0</ele></trkpt>
      <trkpt lat="45.875936" lon="6.886359"><ele>3699.2</ele></trkpt>
      <trkpt lat="45.876159" lon="6.886483"><ele>3717.6</ele></trkpt>
      <trkpt lat="45.876357" lon="6.886393"><ele>3718.8</ele></trkpt>
      <trkpt lat="45.876398" lon="6.886687"><ele>3707.0</ele></trkpt>
      <trkpt lat="45.876573" lon="6.886436"><ele>3691.0</ele></trkpt>
      <trkpt lat="45.876894" lon="6.886428"><ele>3701.4</ele></trkpt>
      <trkpt lat="45.876720" lon="6.886330"><ele>3715.4</ele></trkpt>
      <trkpt lat="45.877586" lon="6.885653"><ele>3718.4</ele></trkpt>
      <trkpt lat="45.877165" lon="6.886144"><ele>3718.4</ele></trkpt>
      <trkpt lat="45.876971" lon="6.886245"><ele>3722.4</ele></trkpt>
      <trkpt lat="45.877156" lon="6.886260"><ele>3723.0</ele></trkpt>
      <trkpt lat="45.876986" lon="6.886373"><ele>3723.8</ele></trkpt>
      <trkpt lat="45.877150" lon="6.886611"><ele>3722.4</ele></trkpt>
      <trkpt lat="45.877454" lon="6.886673"><ele>3735.6</ele></trkpt>
      <trkpt lat="45.877627" lon="6.886794"><ele>3741.0</ele></trkpt>
      <trkpt lat="45.877834" lon="6.886864"><ele>3756.4</ele></trkpt>
      <trkpt lat="45.877931" lon="6.887091"><ele>3776.8</ele></trkpt>
      <trkpt lat="45.878168" lon="6.887167"><ele>3784.4</ele></trkpt>
    </trkseg>
  </trk>
</gpx>