<?xml version="1.0" encoding="UTF-8"?>
<gpx version="1.1" creator="AlpHD" xmlns="http://www.topografix.com/GPX/1/1">
  <trk>
    <name>Arête des Cosmiques #3</name>
    <trkseg>
      <trkpt lat="45.879000" lon="6.891217"><ele>3619.8</ele></trkpt>
      <trkpt lat="45.878898" lon="6.890947"><ele>3615.0</ele></trkpt>
      <trkpt lat="45.878680" lon="6.890703"><ele>3608.0</ele></trkpt>
      <trkpt lat="45.877967" lon="6.890520"><ele>3592.6</ele></trkpt>
      <trkpt lat="45.877715" lon="6.890243"><ele>3586.0</ele></trkpt>
      <trkpt lat="45.877353" lon="6.889992"><ele>3578.2</ele></trkpt>
      <trkpt lat="45.876780" lon="6.889735"><ele>3568.8</ele></trkpt>
      <trkpt lat="45.876153" lon="6.889265"><ele>3562.4</ele></trkpt>
      <trkpt lat="45.875817" lon="6.888883"><ele>3558.8</ele></trkpt>
      <trkpt lat="45.875650" lon="6.888600"><ele>3555.8</ele></trkpt>
      <trkpt lat="45.874985" lon="6.888405"><ele>3543.6</ele></trkpt>
      <trkpt lat="45.873880" lon="6.887842"><ele>3534.8</ele></trkpt>
      <trkpt lat="45.873177" lon="6.887592"><ele>3532.2</ele></trkpt>
      <trkpt lat="45.872985" lon="6.887452"><ele>3534.2</ele></trkpt>
      <trkpt lat="45.872290" lon="6.886472"><ele>3539.8</ele></trkpt>
      <trkpt lat="45.872043" lon="6.885980"><ele>3540.6</ele></trkpt>
      <trkpt lat="45.871928" lon="6.885590"><ele>3541.4</ele></trkpt>
      <trkpt lat="45.871295" lon="6.885068"><ele>3538.2</ele></trkpt>
      <trkpt lat="45.871128" lon="6.884590"><ele>3532.8</ele></trkpt>
      <trkpt lat="45.871277" lon="6.884017"><ele>3557.0</ele></trkpt>
      <trkpt lat="45.871747" lon="6.884578"><ele>3594.0</ele></trkpt>
      <trkpt lat="45.872063" lon="6.884835"><ele>3604.0</ele></trkpt>
      <trkpt lat="45.872265" lon="6.885100"><ele>3603.2</ele></trkpt>
      <trkpt lat="45.872665" lon="6.885063"><ele>3601.6</ele></trkpt>
      <trkpt lat="45.872860" lon="6.885327"><ele>3607.8</ele></trkpt>
      <trkpt lat="45.873158" lon="6.885540"><ele>3609.2</ele></trkpt>
      <trkpt lat="45.873433" lon="6.885862"><ele>3612.6</ele></trkpt>
      <trkpt lat="45.873228" lon="6.885842"><ele>3612.6</ele></trkpt>
      <trkpt lat="45.873445" lon="6.885923"><ele>3612.4</ele></trkpt>
      <trkpt lat="45.873692" lon="6.885872"><ele>3593.6</ele></trkpt>
      <trkpt lat="45.874032" lon="6.885573"><ele>3582.6</ele></trkpt>
      <trkpt lat="45.874213" lon="6.885557"><ele>3574.8</ele></trkpt>
      <trkpt lat="45.874578" lon="6.885280"><ele>3584.0</ele></trkpt>
      <trkpt lat="45.874988" lon="6.885485"><ele>3588.6</ele></trkpt>
      <trkpt lat="45.875190" lon="6.885275"><ele>3599.8</ele></trkpt>
      <trkpt lat="45.875117" lon="6.884940"><ele>3605.8</ele></trkpt>
      <trkpt lat="45.875243" lon="6.885140"><ele>3613.2</ele></trkpt>
      <trkpt lat="45.875347" lon="6.885355"><ele>3634.6</ele></trkpt>
      <trkpt lat="45.875538" lon="6.885517"><ele>3655.2</ele></trkpt>
      <trkpt lat="45.875605" lon="6.885768"><ele>3674.4</ele></trkpt>
      <trkpt lat="45.875848" lon="6.886077"><ele>3697.6</ele></trkpt>
      <trkpt lat="45.876245" lon="6.886417"><ele>3724.2</ele></trkpt>
      <trkpt lat="45.876453" lon="6.886420"><ele>3722.2</ele></trkpt>
      <trkpt lat="45.876640" lon="6.886120"><ele>3704.8</ele></trkpt>
      <trkpt lat="45.876447" lon="6.886647"><ele>3702.0</ele></trkpt>
      <trkpt lat="45.876763" lon="6.886613"><ele>3709.2</ele></trkpt>
      <trkpt lat="45.876728" lon="6.886340"><ele>3723.6</ele></trkpt>
      <trkpt lat="45.877000" lon="6.886220"><ele>3731.6</ele></trkpt>
      <trkpt lat="45.877017" lon="6.886500"><ele>3731.8</ele></trkpt>
      <trkpt lat="45.877238" lon="6.886357"><ele>3732.8</ele></trkpt>
      <trkpt lat="45.876978" lon="6.886667"><ele>3727.6</ele></trkpt>
      <trkpt lat="45.877615" lon="6.886427"><ele>3728.6</ele></trkpt>
      <trkpt lat="45.877417" lon="6.886587"><ele>3735.8</ele></trkpt>
      <trkpt lat="45.877587" lon="6.886832"><ele>3738.2</ele></trkpt>
      <trkpt lat="45.877753" lon="6.886940"><ele>3753.0</ele></trkpt>
      <trkpt lat="45.877970" lon="6.887162"><ele>3762.0</ele></trkpt>
      <trkpt lat="45.877830" lon="6.886843"><ele>3762.6</ele></trkpt>
      <trkpt lat="45.877997" lon="6.886978"><ele>3771.2</ele></trkpt>
      <trkpt lat="45.877852" lon="6.887218"><ele>3771.0</ele></trkpt>
      <trkpt lat="45.877970" lon="6.886983"><ele>3772.0</ele></trkpt>
      <trkpt lat="45.878248" lon="6.887300"><ele>3788.0</ele></trkpt>
    </trkseg>
  </trk>
</gpx>