<?xml version="1.0" encoding="UTF-8"?>
<gpx version="1.1" creator="AlpHD" xmlns="http://www.topografix.com/GPX/1/1">
  <trk>
    <name>Aiguille du Tour — Arête de la Table (SW)</name>
    <trkseg>
      <trkpt lat="45.99671944" lon="6.98670387"><ele>2700.2</ele></trkpt>
      <trkpt lat="45.99665138" lon="6.98662869"><ele>2698.4</ele></trkpt>
      <trkpt lat="45.99655121" lon="6.98663380"><ele>2696.0</ele></trkpt>
      <trkpt lat="45.99645130" lon="6.98682365"><ele>2696.8</ele></trkpt>
      <trkpt lat="45.99659237" lon="6.98684184"><ele>2704.8</ele></trkpt>
      <trkpt lat="45.99644577" lon="6.98710746"><ele>2708.6</ele></trkpt>
      <trkpt lat="45.99651794" lon="6.98741189"><ele>2718.4</ele></trkpt>
      <trkpt lat="45.99642716" lon="6.98757316"><ele>2721.6</ele></trkpt>
      <trkpt lat="45.99649916" lon="6.98769260"><ele>2726.2</ele></trkpt>
      <trkpt lat="45.99648097" lon="6.98800818"><ele>2730.6</ele></trkpt>
      <trkpt lat="45.99620646" lon="6.98825050"><ele>2733.2</ele></trkpt>
      <trkpt lat="45.99601133" lon="6.98855016"><ele>2734.4</ele></trkpt>
      <trkpt lat="45.99591243" lon="6.98940980"><ele>2752.6</ele></trkpt>
      <trkpt lat="45.99575853" lon="6.98969655"><ele>2756.8</ele></trkpt>
      <trkpt lat="45.99561051" lon="6.99041194"><ele>2759.6</ele></trkpt>
      <trkpt lat="45.99551538" lon="6.99053323"><ele>2760.6</ele></trkpt>
      <trkpt lat="45.99560028" lon="6.99072400"><ele>2761.6</ele></trkpt>
      <trkpt lat="45.99548612" lon="6.99090949"><ele>2764.8</ele></trkpt>
      <trkpt lat="45.99543592" lon="6.99153688"><ele>2756.2</ele></trkpt>
      <trkpt lat="45.99553289" lon="6.99241522"><ele>2756.2</ele></trkpt>
      <trkpt lat="45.99543726" lon="6.99265511"><ele>2757.8</ele></trkpt>
      <trkpt lat="45.99536048" lon="6.99338459"><ele>2769.8</ele></trkpt>
      <trkpt lat="45.99499939" lon="6.99392312"><ele>2769.4</ele></trkpt>
      <trkpt lat="45.99501439" lon="6.99402019"><ele>2770.2</ele></trkpt>
      <trkpt lat="45.99496452" lon="6.99409168"><ele>2772.2</ele></trkpt>
      <trkpt lat="45.99519024" lon="6.99463810"><ele>2783.0</ele></trkpt>
      <trkpt lat="45.99524523" lon="6.99463382"><ele>2785.0</ele></trkpt>
      <trkpt lat="45.99528404" lon="6.99478118"><ele>2787.4</ele></trkpt>
      <trkpt lat="45.99533366" lon="6.99478478"><ele>2789.6</ele></trkpt>
      <trkpt lat="45.99533835" lon="6.99493197"><ele>2793.0</ele></trkpt>
      <trkpt lat="45.99541668" lon="6.99505726"><ele>2797.4</ele></trkpt>
      <trkpt lat="45.99541870" lon="6.99559382"><ele>2840.1</ele></trkpt>
      <trkpt lat="45.99513649" lon="6.99629547"><ele>2847.7</ele></trkpt>
      <trkpt lat="45.99525973" lon="6.99681010"><ele>2863.1</ele></trkpt>
      <trkpt lat="45.99517767" lon="6.99680918"><ele>2862.4</ele></trkpt>
      <trkpt lat="45.99516610" lon="6.99687313"><ele>2865.2</ele></trkpt>
      <trkpt lat="45.99486938" lon="6.99705787"><ele>2878.6</ele></trkpt>
      <trkpt lat="45.99488321" lon="6.99714538"><ele>2881.2</ele></trkpt>
      <trkpt lat="45.99481993" lon="6.99715292"><ele>2883.6</ele></trkpt>
      <trkpt lat="45.99484709" lon="6.99729131"><ele>2888.0</ele></trkpt>
      <trkpt lat="45.99468926" lon="6.99725568"><ele>2895.4</ele></trkpt>
      <trkpt lat="45.99464450" lon="6.99743564"><ele>2902.6</ele></trkpt>
      <trkpt lat="45.99400965" lon="6.99729256"><ele>2921.0</ele></trkpt>
      <trkpt lat="45.99387110" lon="6.99740186"><ele>2913.0</ele></trkpt>
      <trkpt lat="45.99390572" lon="6.99740036"><ele>2910.6</ele></trkpt>
      <trkpt lat="45.99388199" lon="6.99744755"><ele>2908.4</ele></trkpt>
      <trkpt lat="45.99386221" lon="6.99740002"><ele>2907.8</ele></trkpt>
      <trkpt lat="45.99390094" lon="6.99739893"><ele>2907.6</ele></trkpt>
      <trkpt lat="45.99380865" lon="6.99768207"><ele>2902.8</ele></trkpt>
      <trkpt lat="45.99380907" lon="6.99789271"><ele>2899.8</ele></trkpt>
      <trkpt lat="45.99371704" lon="6.99809630"><ele>2897.8</ele></trkpt>
      <trkpt lat="45.99278665" lon="6.99937002"><ele>2928.6</ele></trkpt>
      <trkpt lat="45.99234894" lon="6.99977193"><ele>2945.2</ele></trkpt>
      <trkpt lat="45.99194946" lon="7.00033117"><ele>2968.6</ele></trkpt>
      <trkpt lat="45.99085051" lon="7.00247317"><ele>3034.4</ele></trkpt>
      <trkpt lat="45.99015597" lon="7.00313632"><ele>3063.2</ele></trkpt>
      <trkpt lat="45.98971369" lon="7.00376393"><ele>3083.4</ele></trkpt>
      <trkpt lat="45.98940295" lon="7.00456085"><ele>3116.8</ele></trkpt>
      <trkpt lat="45.98927450" lon="7.00461858"><ele>3123.1</ele></trkpt>
      <trkpt lat="45.98918805" lon="7.00475818"><ele>3126.5</ele></trkpt>
      <trkpt lat="45.98916323" lon="7.00497257"><ele>3124.4</ele></trkpt>
      <trkpt lat="45.98939558" lon="7.00572233"><ele>3145.6</ele></trkpt>
      <trkpt lat="45.98991040" lon="7.00685497"><ele>3174.0</ele></trkpt>
      <trkpt lat="45.99026043" lon="7.00712169"><ele>3182.8</ele></trkpt>
      <trkpt lat="45.99075521" lon="7.00776676"><ele>3195.2</ele></trkpt>
      <trkpt lat="45.99135468" lon="7.00810027"><ele>3208.2</ele></trkpt>
      <trkpt lat="45.99141503" lon="7.00821712"><ele>3212.2</ele></trkpt>
      <trkpt lat="45.99138192" lon="7.00824277"><ele>3212.8</ele></trkpt>
      <trkpt lat="45.99180253" lon="7.00906654"><ele>3239.8</ele></trkpt>
      <trkpt lat="45.99232640" lon="7.00895690"><ele>3265.6</ele></trkpt>
      <trkpt lat="45.99258171" lon="7.00846078"><ele>3293.4</ele></trkpt>
      <trkpt lat="45.99290374" lon="7.00817906"><ele>3327.8</ele></trkpt>
      <trkpt lat="45.99285303" lon="7.00816834"><ele>3327.6</ele></trkpt>
      <trkpt lat="45.99290257" lon="7.00817202"><ele>3327.8</ele></trkpt>
      <trkpt lat="45.99287424" lon="7.00797748"><ele>3342.6</ele></trkpt>
      <trkpt lat="45.99294993" lon="7.00788586"><ele>3345.0</ele></trkpt>
      <trkpt lat="45.99289704" lon="7.00785888"><ele>3347.8</ele></trkpt>
      <trkpt lat="45.99307415" lon="7.00756450"><ele>3363.2</ele></trkpt>
      <trkpt lat="45.99311421" lon="7.00764606"><ele>3369.4</ele></trkpt>
      <trkpt lat="45.99317842" lon="7.00764002"><ele>3366.0</ele></trkpt>
      <trkpt lat="45.99317657" lon="7.00771655"><ele>3367.4</ele></trkpt>
      <trkpt lat="45.99321639" lon="7.00768805"><ele>3368.4</ele></trkpt>
      <trkpt lat="45.99323592" lon="7.00782694"><ele>3369.8</ele></trkpt>
      <trkpt lat="45.99325318" lon="7.00774279"><ele>3368.6</ele></trkpt>
      <trkpt lat="45.99327632" lon="7.00783348"><ele>3367.6</ele></trkpt>
      <trkpt lat="45.99331119" lon="7.00772636"><ele>3371.8</ele></trkpt>
      <trkpt lat="45.99336835" lon="7.00771395"><ele>3371.2</ele></trkpt>
      <trkpt lat="45.99352258" lon="7.00785418"><ele>3380.0</ele></trkpt>
      <trkpt lat="45.99359491" lon="7.00782535"><ele>3386.8</ele></trkpt>
      <trkpt lat="45.99361872" lon="7.00789634"><ele>3394.6</ele></trkpt>
      <trkpt lat="45.99368343" lon="7.00786064"><ele>3400.6</ele></trkpt>
      <trkpt lat="45.99364588" lon="7.00782434"><ele>3401.2</ele></trkpt>
      <trkpt lat="45.99373548" lon="7.00780884"><ele>3405.6</ele></trkpt>
      <trkpt lat="45.99376976" lon="7.00788595"><ele>3410.8</ele></trkpt>
      <trkpt lat="45.99382634" lon="7.00785200"><ele>3414.4</ele></trkpt>
      <trkpt lat="45.99380538" lon="7.00794420"><ele>3417.0</ele></trkpt>
      <trkpt lat="45.99401904" lon="7.00791621"><ele>3427.6</ele></trkpt>
      <trkpt lat="45.99399339" lon="7.00795879"><ele>3427.6</ele></trkpt>
      <trkpt lat="45.99405332" lon="7.00795527"><ele>3430.2</ele></trkpt>
      <trkpt lat="45.99402914" lon="7.00807250"><ele>3402.2</ele></trkpt>
      <trkpt lat="45.99413152" lon="7.00815861"><ele>3406.9</ele></trkpt>
      <trkpt lat="45.99429941" lon="7.00860285"><ele>3406.8</ele></trkpt>
      <trkpt lat="45.99445666" lon="7.00876035"><ele>3427.2</ele></trkpt>
      <trkpt lat="45.99439572" lon="7.00892279"><ele>3439.6</ele></trkpt>
      <trkpt lat="45.99433470" lon="7.00891818"><ele>3444.8</ele></trkpt>
      <trkpt lat="45.99439287" lon="7.00937323"><ele>3463.2</ele></trkpt>
      <trkpt lat="45.99433001" lon="7.00948672"><ele>3471.6</ele></trkpt>
      <trkpt lat="45.99444978" lon="7.00985695"><ele>3475.6</ele></trkpt>
      <trkpt lat="45.99437250" lon="7.00993382"><ele>3478.4</ele></trkpt>
      <trkpt lat="45.99443260" lon="7.01016138"><ele>3481.8</ele></trkpt>
      <trkpt lat="45.99441718" lon="7.01027848"><ele>3482.6</ele></trkpt>
      <trkpt lat="45.99435549" lon="7.01030580"><ele>3483.6</ele></trkpt>
    </trkseg>
  </trk>
</gpx>