<?xml version="1.0" encoding="UTF-8"?>
<gpx version="1.1" creator="AlpHD-batch" xmlns="http://www.topografix.com/GPX/1/1">
  <trk>
    <name>Arête Ryan</name>
    <trkseg>
      <trkpt lat="45.8848386" lon="6.9295743"><ele>2517.2</ele></trkpt>
      <trkpt lat="45.8848973" lon="6.9295482"><ele>2515.6</ele></trkpt>
      <trkpt lat="45.8851550" lon="6.9294335"><ele>2514.3</ele></trkpt>
      <trkpt lat="45.8851809" lon="6.9292667"><ele>2513.3</ele></trkpt>
      <trkpt lat="45.8852224" lon="6.9292049"><ele>2512.4</ele></trkpt>
      <trkpt lat="45.8854099" lon="6.9289261"><ele>2510.0</ele></trkpt>
      <trkpt lat="45.8854262" lon="6.9288987"><ele>2507.7</ele></trkpt>
      <trkpt lat="45.8856017" lon="6.9286043"><ele>2506.0</ele></trkpt>
      <trkpt lat="45.8857106" lon="6.9284808"><ele>2504.0</ele></trkpt>
      <trkpt lat="45.8858490" lon="6.9284362"><ele>2500.8</ele></trkpt>
      <trkpt lat="45.8859763" lon="6.9286379"><ele>2497.5</ele></trkpt>
      <trkpt lat="45.8860685" lon="6.9285705"><ele>2493.8</ele></trkpt>
      <trkpt lat="45.8861950" lon="6.9285430"><ele>2488.7</ele></trkpt>
      <trkpt lat="45.8864241" lon="6.9284292"><ele>2483.0</ele></trkpt>
      <trkpt lat="45.8864123" lon="6.9284917"><ele>2476.8</ele></trkpt>
      <trkpt lat="45.8864458" lon="6.9285497"><ele>2471.2</ele></trkpt>
      <trkpt lat="45.8865960" lon="6.9285225"><ele>2466.2</ele></trkpt>
      <trkpt lat="45.8867176" lon="6.9285158"><ele>2462.9</ele></trkpt>
      <trkpt lat="45.8868844" lon="6.9285589"><ele>2461.2</ele></trkpt>
      <trkpt lat="45.8883975" lon="6.9273548"><ele>2459.5</ele></trkpt>
      <trkpt lat="45.8883998" lon="6.9273500"><ele>2458.1</ele></trkpt>
      <trkpt lat="45.8885539" lon="6.9270318"><ele>2459.1</ele></trkpt>
      <trkpt lat="45.8885657" lon="6.9268984"><ele>2461.8</ele></trkpt>
      <trkpt lat="45.8886567" lon="6.9267270"><ele>2465.1</ele></trkpt>
      <trkpt lat="45.8888202" lon="6.9264187"><ele>2468.8</ele></trkpt>
      <trkpt lat="45.8890000" lon="6.9262567"><ele>2472.3</ele></trkpt>
      <trkpt lat="45.8892286" lon="6.9260508"><ele>2474.8</ele></trkpt>
      <trkpt lat="45.8892638" lon="6.9260078"><ele>2478.1</ele></trkpt>
      <trkpt lat="45.8894693" lon="6.9257566"><ele>2481.6</ele></trkpt>
      <trkpt lat="45.8894727" lon="6.9256412"><ele>2485.4</ele></trkpt>
      <trkpt lat="45.8894741" lon="6.9256372"><ele>2489.4</ele></trkpt>
      <trkpt lat="45.8895917" lon="6.9252883"><ele>2493.3</ele></trkpt>
      <trkpt lat="45.8895948" lon="6.9252206"><ele>2497.7</ele></trkpt>
      <trkpt lat="45.8895944" lon="6.9251688"><ele>2502.1</ele></trkpt>
      <trkpt lat="45.8895921" lon="6.9247812"><ele>2507.2</ele></trkpt>
      <trkpt lat="45.8897687" lon="6.9245842"><ele>2512.7</ele></trkpt>
      <trkpt lat="45.8898778" lon="6.9244209"><ele>2518.7</ele></trkpt>
      <trkpt lat="45.8899285" lon="6.9242590"><ele>2525.7</ele></trkpt>
      <trkpt lat="45.8899818" lon="6.9241884"><ele>2533.0</ele></trkpt>
      <trkpt lat="45.8900040" lon="6.9241266"><ele>2541.8</ele></trkpt>
      <trkpt lat="45.8900479" lon="6.9240098"><ele>2550.9</ele></trkpt>
      <trkpt lat="45.8901602" lon="6.9239500"><ele>2559.7</ele></trkpt>
      <trkpt lat="45.8901939" lon="6.9239265"><ele>2568.5</ele></trkpt>
      <trkpt lat="45.8904366" lon="6.9237574"><ele>2577.4</ele></trkpt>
      <trkpt lat="45.8905360" lon="6.9236641"><ele>2586.0</ele></trkpt>
      <trkpt lat="45.8905715" lon="6.9235530"><ele>2595.2</ele></trkpt>
      <trkpt lat="45.8905537" lon="6.9233530"><ele>2604.7</ele></trkpt>
      <trkpt lat="45.8905490" lon="6.9231054"><ele>2614.8</ele></trkpt>
      <trkpt lat="45.8905547" lon="6.9230936"><ele>2622.7</ele></trkpt>
      <trkpt lat="45.8907097" lon="6.9227763"><ele>2629.7</ele></trkpt>
      <trkpt lat="45.8909302" lon="6.9226760"><ele>2636.9</ele></trkpt>
      <trkpt lat="45.8910576" lon="6.9224897"><ele>2643.6</ele></trkpt>
      <trkpt lat="45.8911551" lon="6.9223893"><ele>2649.8</ele></trkpt>
      <trkpt lat="45.8912100" lon="6.9222402"><ele>2656.3</ele></trkpt>
      <trkpt lat="45.8913361" lon="6.9218975"><ele>2661.6</ele></trkpt>
      <trkpt lat="45.8913394" lon="6.9218851"><ele>2665.8</ele></trkpt>
      <trkpt lat="45.8914360" lon="6.9215232"><ele>2669.2</ele></trkpt>
      <trkpt lat="45.8914533" lon="6.9214142"><ele>2672.2</ele></trkpt>
      <trkpt lat="45.8915131" lon="6.9210362"><ele>2674.6</ele></trkpt>
      <trkpt lat="45.8916149" lon="6.9207152"><ele>2676.5</ele></trkpt>
      <trkpt lat="45.8917591" lon="6.9206766"><ele>2678.6</ele></trkpt>
      <trkpt lat="45.8917548" lon="6.9205122"><ele>2680.4</ele></trkpt>
      <trkpt lat="45.8917446" lon="6.9201248"><ele>2681.7</ele></trkpt>
      <trkpt lat="45.8917915" lon="6.9197717"><ele>2681.7</ele></trkpt>
      <trkpt lat="45.8917712" lon="6.9196931"><ele>2681.9</ele></trkpt>
      <trkpt lat="45.8916774" lon="6.9193296"><ele>2682.6</ele></trkpt>
      <trkpt lat="45.8915396" lon="6.9191592"><ele>2683.7</ele></trkpt>
      <trkpt lat="45.8913352" lon="6.9189063"><ele>2685.8</ele></trkpt>
      <trkpt lat="45.8912972" lon="6.9186875"><ele>2688.7</ele></trkpt>
      <trkpt lat="45.8911280" lon="6.9184483"><ele>2694.1</ele></trkpt>
      <trkpt lat="45.8910646" lon="6.9184418"><ele>2702.3</ele></trkpt>
      <trkpt lat="45.8909764" lon="6.9183240"><ele>2711.7</ele></trkpt>
      <trkpt lat="45.8908550" lon="6.9181545"><ele>2721.9</ele></trkpt>
      <trkpt lat="45.8908450" lon="6.9180986"><ele>2731.9</ele></trkpt>
      <trkpt lat="45.8909686" lon="6.9178679"><ele>2741.2</ele></trkpt>
      <trkpt lat="45.8910164" lon="6.9176301"><ele>2750.3</ele></trkpt>
      <trkpt lat="45.8910619" lon="6.9174978"><ele>2758.9</ele></trkpt>
      <trkpt lat="45.8911433" lon="6.9174035"><ele>2766.5</ele></trkpt>
      <trkpt lat="45.8911564" lon="6.9173816"><ele>2772.0</ele></trkpt>
      <trkpt lat="45.8913322" lon="6.9170876"><ele>2775.0</ele></trkpt>
      <trkpt lat="45.8915109" lon="6.9168238"><ele>2777.1</ele></trkpt>
      <trkpt lat="45.8916265" lon="6.9165259"><ele>2779.9</ele></trkpt>
      <trkpt lat="45.8917047" lon="6.9164727"><ele>2783.5</ele></trkpt>
      <trkpt lat="45.8919486" lon="6.9163069"><ele>2788.2</ele></trkpt>
      <trkpt lat="45.8919552" lon="6.9163030"><ele>2794.0</ele></trkpt>
      <trkpt lat="45.8922042" lon="6.9161538"><ele>2800.1</ele></trkpt>
      <trkpt lat="45.8924532" lon="6.9160046"><ele>2806.6</ele></trkpt>
      <trkpt lat="45.8927022" lon="6.9158554"><ele>2813.2</ele></trkpt>
      <trkpt lat="45.8929536" lon="6.9158522"><ele>2820.2</ele></trkpt>
      <trkpt lat="45.8930309" lon="6.9159539"><ele>2827.4</ele></trkpt>
      <trkpt lat="45.8930618" lon="6.9159939"><ele>2833.5</ele></trkpt>
      <trkpt lat="45.8931225" lon="6.9158756"><ele>2838.3</ele></trkpt>
      <trkpt lat="45.8932827" lon="6.9155637"><ele>2842.0</ele></trkpt>
      <trkpt lat="45.8933685" lon="6.9154300"><ele>2844.8</ele></trkpt>
      <trkpt lat="45.8933685" lon="6.9154300"><ele>2847.4</ele></trkpt>
      <trkpt lat="45.8935439" lon="6.9153387"><ele>2850.0</ele></trkpt>
      <trkpt lat="45.8936446" lon="6.9152305"><ele>2854.0</ele></trkpt>
      <trkpt lat="45.8937255" lon="6.9152451"><ele>2857.1</ele></trkpt>
      <trkpt lat="45.8937356" lon="6.9151265"><ele>2860.8</ele></trkpt>
      <trkpt lat="45.8937340" lon="6.9149983"><ele>2864.8</ele></trkpt>
      <trkpt lat="45.8937290" lon="6.9146107"><ele>2871.3</ele></trkpt>
      <trkpt lat="45.8937215" lon="6.9145760"><ele>2878.2</ele></trkpt>
      <trkpt lat="45.8936570" lon="6.9144727"><ele>2885.0</ele></trkpt>
      <trkpt lat="45.8936691" lon="6.9144030"><ele>2892.5</ele></trkpt>
      <trkpt lat="45.8937344" lon="6.9140268"><ele>2900.2</ele></trkpt>
      <trkpt lat="45.8937219" lon="6.9139044"><ele>2906.0</ele></trkpt>
      <trkpt lat="45.8937306" lon="6.9138771"><ele>2914.1</ele></trkpt>
      <trkpt lat="45.8938425" lon="6.9135244"><ele>2921.3</ele></trkpt>
      <trkpt lat="45.8937253" lon="6.9134553"><ele>2927.7</ele></trkpt>
      <trkpt lat="45.8937472" lon="6.9132761"><ele>2931.7</ele></trkpt>
      <trkpt lat="45.8936223" lon="6.9130346"><ele>2935.3</ele></trkpt>
      <trkpt lat="45.8936397" lon="6.9130196"><ele>2939.1</ele></trkpt>
      <trkpt lat="45.8936643" lon="6.9131621"><ele>2942.4</ele></trkpt>
      <trkpt lat="45.8937387" lon="6.9130878"><ele>2945.7</ele></trkpt>
      <trkpt lat="45.8937888" lon="6.9131076"><ele>2949.5</ele></trkpt>
      <trkpt lat="45.8937609" lon="6.9131057"><ele>2951.4</ele></trkpt>
      <trkpt lat="45.8937012" lon="6.9130724"><ele>2953.4</ele></trkpt>
      <trkpt lat="45.8935778" lon="6.9130529"><ele>2955.8</ele></trkpt>
      <trkpt lat="45.8936336" lon="6.9128968"><ele>2958.5</ele></trkpt>
      <trkpt lat="45.8935289" lon="6.9126409"><ele>2961.2</ele></trkpt>
      <trkpt lat="45.8934762" lon="6.9125146"><ele>2966.1</ele></trkpt>
      <trkpt lat="45.8934662" lon="6.9124048"><ele>2971.3</ele></trkpt>
      <trkpt lat="45.8934407" lon="6.9122132"><ele>2975.9</ele></trkpt>
      <trkpt lat="45.8934349" lon="6.9122117"><ele>2980.1</ele></trkpt>
      <trkpt lat="45.8932861" lon="6.9120864"><ele>2984.0</ele></trkpt>
      <trkpt lat="45.8932597" lon="6.9122744"><ele>2988.1</ele></trkpt>
      <trkpt lat="45.8932252" lon="6.9123393"><ele>2991.5</ele></trkpt>
      <trkpt lat="45.8931378" lon="6.9124341"><ele>2994.4</ele></trkpt>
      <trkpt lat="45.8931764" lon="6.9123718"><ele>2997.0</ele></trkpt>
      <trkpt lat="45.8932429" lon="6.9121225"><ele>2996.9</ele></trkpt>
      <trkpt lat="45.8932382" lon="6.9120142"><ele>2995.6</ele></trkpt>
      <trkpt lat="45.8932142" lon="6.9119279"><ele>2994.5</ele></trkpt>
      <trkpt lat="45.8931995" lon="6.9118428"><ele>2993.4</ele></trkpt>
      <trkpt lat="45.8931637" lon="6.9117683"><ele>2992.9</ele></trkpt>
      <trkpt lat="45.8931146" lon="6.9116333"><ele>2992.7</ele></trkpt>
      <trkpt lat="45.8930077" lon="6.9115017"><ele>2997.3</ele></trkpt>
      <trkpt lat="45.8929295" lon="6.9112890"><ele>2997.8</ele></trkpt>
      <trkpt lat="45.8927286" lon="6.9113109"><ele>2998.8</ele></trkpt>
      <trkpt lat="45.8926188" lon="6.9111999"><ele>3000.4</ele></trkpt>
      <trkpt lat="45.8926397" lon="6.9109751"><ele>3003.3</ele></trkpt>
    </trkseg>
  </trk>
</gpx>