<?xml version="1.0" encoding="UTF-8"?>
<gpx version="1.1" creator="AlpHD-batch" xmlns="http://www.topografix.com/GPX/1/1">
  <trk>
    <name>Arête du Diable</name>
    <trkseg>
      <trkpt lat="45.8478563" lon="6.9246045"><ele>3391.7</ele></trkpt>
      <trkpt lat="45.8478691" lon="6.9243482"><ele>3394.3</ele></trkpt>
      <trkpt lat="45.8478884" lon="6.9239618"><ele>3398.6</ele></trkpt>
      <trkpt lat="45.8479411" lon="6.9237281"><ele>3402.5</ele></trkpt>
      <trkpt lat="45.8479479" lon="6.9235824"><ele>3405.7</ele></trkpt>
      <trkpt lat="45.8479298" lon="6.9235375"><ele>3413.0</ele></trkpt>
      <trkpt lat="45.8477946" lon="6.9232023"><ele>3420.3</ele></trkpt>
      <trkpt lat="45.8476712" lon="6.9231612"><ele>3426.6</ele></trkpt>
      <trkpt lat="45.8476303" lon="6.9231428"><ele>3432.7</ele></trkpt>
      <trkpt lat="45.8473729" lon="6.9230267"><ele>3441.1</ele></trkpt>
      <trkpt lat="45.8473921" lon="6.9228997"><ele>3450.6</ele></trkpt>
      <trkpt lat="45.8474210" lon="6.9228310"><ele>3459.8</ele></trkpt>
      <trkpt lat="45.8474281" lon="6.9228033"><ele>3469.5</ele></trkpt>
      <trkpt lat="45.8475217" lon="6.9224400"><ele>3479.1</ele></trkpt>
      <trkpt lat="45.8475088" lon="6.9222621"><ele>3485.9</ele></trkpt>
      <trkpt lat="45.8475370" lon="6.9220716"><ele>3490.0</ele></trkpt>
      <trkpt lat="45.8476149" lon="6.9219384"><ele>3491.7</ele></trkpt>
      <trkpt lat="45.8476153" lon="6.9219429"><ele>3491.5</ele></trkpt>
      <trkpt lat="45.8476485" lon="6.9223273"><ele>3487.0</ele></trkpt>
      <trkpt lat="45.8476818" lon="6.9227116"><ele>3482.0</ele></trkpt>
      <trkpt lat="45.8477150" lon="6.9230960"><ele>3475.9</ele></trkpt>
      <trkpt lat="45.8477483" lon="6.9234804"><ele>3469.1</ele></trkpt>
      <trkpt lat="45.8480802" lon="6.8966664"><ele>3463.1</ele></trkpt>
      <trkpt lat="45.8481527" lon="6.8963009"><ele>3459.8</ele></trkpt>
      <trkpt lat="45.8481751" lon="6.8960214"><ele>3459.2</ele></trkpt>
      <trkpt lat="45.8482467" lon="6.8958561"><ele>3461.1</ele></trkpt>
      <trkpt lat="45.8483918" lon="6.8955396"><ele>3464.7</ele></trkpt>
      <trkpt lat="45.8485370" lon="6.8952195"><ele>3470.8</ele></trkpt>
      <trkpt lat="45.8486826" lon="6.8948945"><ele>3476.8</ele></trkpt>
      <trkpt lat="45.8488380" lon="6.8946591"><ele>3482.5</ele></trkpt>
      <trkpt lat="45.8488447" lon="6.8946521"><ele>3488.4</ele></trkpt>
      <trkpt lat="45.8490553" lon="6.8944135"><ele>3494.0</ele></trkpt>
      <trkpt lat="45.8492582" lon="6.8941685"><ele>3499.2</ele></trkpt>
      <trkpt lat="45.8493247" lon="6.8940375"><ele>3504.3</ele></trkpt>
      <trkpt lat="45.8494836" lon="6.8937230"><ele>3509.5</ele></trkpt>
      <trkpt lat="45.8496477" lon="6.8934070"><ele>3515.4</ele></trkpt>
      <trkpt lat="45.8497413" lon="6.8932542"><ele>3520.5</ele></trkpt>
      <trkpt lat="45.8499319" lon="6.8929576"><ele>3525.6</ele></trkpt>
      <trkpt lat="45.8501041" lon="6.8926705"><ele>3531.1</ele></trkpt>
      <trkpt lat="45.8502911" lon="6.8923829"><ele>3536.2</ele></trkpt>
      <trkpt lat="45.8503329" lon="6.8923000"><ele>3541.2</ele></trkpt>
      <trkpt lat="45.8504762" lon="6.8919749"><ele>3546.8</ele></trkpt>
      <trkpt lat="45.8506273" lon="6.8916352"><ele>3552.0</ele></trkpt>
      <trkpt lat="45.8506718" lon="6.8915567"><ele>3556.8</ele></trkpt>
      <trkpt lat="45.8508379" lon="6.8912433"><ele>3561.1</ele></trkpt>
      <trkpt lat="45.8510011" lon="6.8909463"><ele>3566.0</ele></trkpt>
      <trkpt lat="45.8510658" lon="6.8906422"><ele>3570.9</ele></trkpt>
      <trkpt lat="45.8511679" lon="6.8904274"><ele>3576.4</ele></trkpt>
      <trkpt lat="45.8512482" lon="6.8903770"><ele>3581.9</ele></trkpt>
      <trkpt lat="45.8515033" lon="6.8902283"><ele>3588.4</ele></trkpt>
      <trkpt lat="45.8517504" lon="6.8900748"><ele>3594.6</ele></trkpt>
      <trkpt lat="45.8519315" lon="6.8903102"><ele>3600.5</ele></trkpt>
      <trkpt lat="45.8519354" lon="6.8903247"><ele>3606.7</ele></trkpt>
      <trkpt lat="45.8520088" lon="6.8904423"><ele>3613.5</ele></trkpt>
      <trkpt lat="45.8520590" lon="6.8904800"><ele>3621.1</ele></trkpt>
      <trkpt lat="45.8520820" lon="6.8904928"><ele>3630.0</ele></trkpt>
      <trkpt lat="45.8521777" lon="6.8904481"><ele>3638.9</ele></trkpt>
      <trkpt lat="45.8522670" lon="6.8904856"><ele>3648.1</ele></trkpt>
      <trkpt lat="45.8525247" lon="6.8905831"><ele>3656.4</ele></trkpt>
      <trkpt lat="45.8525006" lon="6.8908356"><ele>3664.6</ele></trkpt>
      <trkpt lat="45.8525645" lon="6.8910229"><ele>3674.5</ele></trkpt>
      <trkpt lat="45.8525913" lon="6.8911200"><ele>3683.9</ele></trkpt>
      <trkpt lat="45.8525877" lon="6.8912691"><ele>3693.8</ele></trkpt>
      <trkpt lat="45.8525973" lon="6.8913621"><ele>3704.1</ele></trkpt>
      <trkpt lat="45.8526336" lon="6.8917520"><ele>3712.8</ele></trkpt>
      <trkpt lat="45.8526390" lon="6.8917797"><ele>3722.0</ele></trkpt>
      <trkpt lat="45.8526491" lon="6.8919534"><ele>3733.3</ele></trkpt>
      <trkpt lat="45.8526536" lon="6.8923364"><ele>3747.4</ele></trkpt>
      <trkpt lat="45.8526653" lon="6.8924307"><ele>3761.3</ele></trkpt>
      <trkpt lat="45.8527228" lon="6.8927972"><ele>3775.1</ele></trkpt>
      <trkpt lat="45.8529773" lon="6.8928729"><ele>3789.2</ele></trkpt>
      <trkpt lat="45.8531210" lon="6.8930925"><ele>3804.7</ele></trkpt>
      <trkpt lat="45.8532152" lon="6.8931823"><ele>3820.1</ele></trkpt>
      <trkpt lat="45.8532856" lon="6.8932946"><ele>3838.3</ele></trkpt>
      <trkpt lat="45.8533336" lon="6.8933364"><ele>3855.0</ele></trkpt>
      <trkpt lat="45.8535630" lon="6.8935425"><ele>3870.2</ele></trkpt>
      <trkpt lat="45.8536674" lon="6.8936614"><ele>3885.1</ele></trkpt>
      <trkpt lat="45.8538011" lon="6.8938841"><ele>3902.2</ele></trkpt>
      <trkpt lat="45.8538764" lon="6.8939851"><ele>3918.7</ele></trkpt>
      <trkpt lat="45.8539077" lon="6.8939280"><ele>3935.7</ele></trkpt>
      <trkpt lat="45.8540985" lon="6.8936659"><ele>3953.5</ele></trkpt>
      <trkpt lat="45.8542751" lon="6.8933651"><ele>3970.3</ele></trkpt>
      <trkpt lat="45.8542468" lon="6.8932643"><ele>3983.8</ele></trkpt>
      <trkpt lat="45.8542284" lon="6.8931775"><ele>3997.5</ele></trkpt>
      <trkpt lat="45.8542803" lon="6.8930295"><ele>4009.1</ele></trkpt>
      <trkpt lat="45.8542971" lon="6.8929791"><ele>4017.9</ele></trkpt>
      <trkpt lat="45.8543042" lon="6.8928844"><ele>4026.9</ele></trkpt>
      <trkpt lat="45.8543235" lon="6.8928375"><ele>4035.6</ele></trkpt>
      <trkpt lat="45.8544374" lon="6.8925047"><ele>4042.7</ele></trkpt>
      <trkpt lat="45.8544685" lon="6.8923979"><ele>4047.2</ele></trkpt>
      <trkpt lat="45.8544864" lon="6.8922929"><ele>4051.0</ele></trkpt>
      <trkpt lat="45.8544897" lon="6.8921475"><ele>4055.3</ele></trkpt>
      <trkpt lat="45.8545028" lon="6.8920421"><ele>4057.5</ele></trkpt>
      <trkpt lat="45.8545583" lon="6.8918817"><ele>4061.1</ele></trkpt>
      <trkpt lat="45.8545542" lon="6.8918616"><ele>4063.8</ele></trkpt>
      <trkpt lat="45.8545447" lon="6.8917273"><ele>4066.4</ele></trkpt>
      <trkpt lat="45.8546829" lon="6.8914485"><ele>4069.9</ele></trkpt>
      <trkpt lat="45.8547066" lon="6.8913099"><ele>4075.1</ele></trkpt>
      <trkpt lat="45.8547626" lon="6.8911976"><ele>4079.9</ele></trkpt>
      <trkpt lat="45.8547744" lon="6.8910177"><ele>4084.6</ele></trkpt>
      <trkpt lat="45.8548520" lon="6.8907333"><ele>4089.4</ele></trkpt>
      <trkpt lat="45.8549109" lon="6.8906153"><ele>4096.6</ele></trkpt>
      <trkpt lat="45.8549438" lon="6.8905791"><ele>4104.0</ele></trkpt>
      <trkpt lat="45.8549476" lon="6.8905711"><ele>4111.4</ele></trkpt>
      <trkpt lat="45.8551052" lon="6.8902827"><ele>4117.4</ele></trkpt>
      <trkpt lat="45.8551235" lon="6.8902377"><ele>4122.8</ele></trkpt>
      <trkpt lat="45.8552475" lon="6.8901208"><ele>4128.0</ele></trkpt>
      <trkpt lat="45.8552746" lon="6.8900635"><ele>4133.4</ele></trkpt>
      <trkpt lat="45.8553890" lon="6.8899478"><ele>4139.1</ele></trkpt>
      <trkpt lat="45.8554611" lon="6.8898199"><ele>4147.0</ele></trkpt>
      <trkpt lat="45.8555953" lon="6.8897265"><ele>4155.8</ele></trkpt>
      <trkpt lat="45.8556265" lon="6.8897314"><ele>4164.6</ele></trkpt>
      <trkpt lat="45.8556572" lon="6.8897408"><ele>4174.4</ele></trkpt>
      <trkpt lat="45.8559375" lon="6.8897836"><ele>4183.5</ele></trkpt>
      <trkpt lat="45.8560289" lon="6.8897602"><ele>4191.8</ele></trkpt>
      <trkpt lat="45.8561226" lon="6.8897196"><ele>4197.3</ele></trkpt>
      <trkpt lat="45.8561649" lon="6.8896437"><ele>4205.3</ele></trkpt>
      <trkpt lat="45.8563333" lon="6.8893267"><ele>4213.2</ele></trkpt>
      <trkpt lat="45.8564837" lon="6.8889935"><ele>4216.3</ele></trkpt>
      <trkpt lat="45.8566218" lon="6.8886773"><ele>4218.4</ele></trkpt>
      <trkpt lat="45.8566021" lon="6.8884660"><ele>4219.9</ele></trkpt>
      <trkpt lat="45.8565781" lon="6.8880864"><ele>4221.0</ele></trkpt>
    </trkseg>
  </trk>
</gpx>