<?xml version="1.0" encoding="UTF-8"?>
<gpx version="1.1" creator="AlpHD" xmlns="http://www.topografix.com/GPX/1/1">
  <trk>
    <name>Aiguille du Moine — Arête S Classique</name>
    <trkseg>
      <trkpt lat="45.931540" lon="6.917640"><ele>1908.7</ele></trkpt>
      <trkpt lat="45.930639" lon="6.917673"><ele>1895.7</ele></trkpt>
      <trkpt lat="45.930306" lon="6.917776"><ele>1889.0</ele></trkpt>
      <trkpt lat="45.929624" lon="6.918153"><ele>1874.5</ele></trkpt>
      <trkpt lat="45.929529" lon="6.918453"><ele>1870.5</ele></trkpt>
      <trkpt lat="45.929412" lon="6.918788"><ele>1859.7</ele></trkpt>
      <trkpt lat="45.930048" lon="6.918973"><ele>1845.1</ele></trkpt>
      <trkpt lat="45.930358" lon="6.918961"><ele>1837.9</ele></trkpt>
      <trkpt lat="45.930103" lon="6.919077"><ele>1832.1</ele></trkpt>
      <trkpt lat="45.929822" lon="6.919340"><ele>1825.6</ele></trkpt>
      <trkpt lat="45.929596" lon="6.919271"><ele>1833.7</ele></trkpt>
      <trkpt lat="45.929273" lon="6.919553"><ele>1821.0</ele></trkpt>
      <trkpt lat="45.929237" lon="6.919820"><ele>1808.3</ele></trkpt>
      <trkpt lat="45.929093" lon="6.920023"><ele>1802.6</ele></trkpt>
      <trkpt lat="45.928419" lon="6.920326"><ele>1798.4</ele></trkpt>
      <trkpt lat="45.928288" lon="6.920002"><ele>1814.7</ele></trkpt>
      <trkpt lat="45.928055" lon="6.920028"><ele>1811.8</ele></trkpt>
      <trkpt lat="45.927841" lon="6.919908"><ele>1819.3</ele></trkpt>
      <trkpt lat="45.927340" lon="6.919815"><ele>1826.3</ele></trkpt>
      <trkpt lat="45.927238" lon="6.920206"><ele>1807.9</ele></trkpt>
      <trkpt lat="45.927274" lon="6.920478"><ele>1799.0</ele></trkpt>
      <trkpt lat="45.927168" lon="6.920721"><ele>1790.9</ele></trkpt>
      <trkpt lat="45.927351" lon="6.920920"><ele>1787.1</ele></trkpt>
      <trkpt lat="45.927319" lon="6.921206"><ele>1784.1</ele></trkpt>
      <trkpt lat="45.927045" lon="6.921183"><ele>1784.8</ele></trkpt>
      <trkpt lat="45.926933" lon="6.921403"><ele>1785.3</ele></trkpt>
      <trkpt lat="45.926805" lon="6.921587"><ele>1787.1</ele></trkpt>
      <trkpt lat="45.926623" lon="6.921543"><ele>1789.8</ele></trkpt>
      <trkpt lat="45.926817" lon="6.921752"><ele>1789.5</ele></trkpt>
      <trkpt lat="45.926536" lon="6.921722"><ele>1792.4</ele></trkpt>
      <trkpt lat="45.926169" lon="6.921986"><ele>1799.1</ele></trkpt>
      <trkpt lat="45.925657" lon="6.921820"><ele>1808.0</ele></trkpt>
      <trkpt lat="45.925472" lon="6.921682"><ele>1811.4</ele></trkpt>
      <trkpt lat="45.924879" lon="6.921532"><ele>1818.5</ele></trkpt>
      <trkpt lat="45.924625" lon="6.921843"><ele>1823.0</ele></trkpt>
      <trkpt lat="45.924371" lon="6.921871"><ele>1825.9</ele></trkpt>
      <trkpt lat="45.924021" lon="6.922206"><ele>1827.4</ele></trkpt>
      <trkpt lat="45.923821" lon="6.922287"><ele>1829.0</ele></trkpt>
      <trkpt lat="45.923429" lon="6.922284"><ele>1832.5</ele></trkpt>
      <trkpt lat="45.923202" lon="6.922512"><ele>1834.5</ele></trkpt>
      <trkpt lat="45.923051" lon="6.922789"><ele>1836.7</ele></trkpt>
      <trkpt lat="45.922701" lon="6.922841"><ele>1840.5</ele></trkpt>
      <trkpt lat="45.922564" lon="6.923009"><ele>1842.9</ele></trkpt>
      <trkpt lat="45.922333" lon="6.923104"><ele>1846.3</ele></trkpt>
      <trkpt lat="45.921899" lon="6.923743"><ele>1856.6</ele></trkpt>
      <trkpt lat="45.921742" lon="6.924174"><ele>1861.8</ele></trkpt>
      <trkpt lat="45.921702" lon="6.924557"><ele>1866.4</ele></trkpt>
      <trkpt lat="45.921463" lon="6.925092"><ele>1873.9</ele></trkpt>
      <trkpt lat="45.921388" lon="6.925470"><ele>1877.9</ele></trkpt>
      <trkpt lat="45.921235" lon="6.925640"><ele>1881.6</ele></trkpt>
      <trkpt lat="45.920981" lon="6.926064"><ele>1886.0</ele></trkpt>
      <trkpt lat="45.920677" lon="6.926394"><ele>1889.5</ele></trkpt>
      <trkpt lat="45.920563" lon="6.926653"><ele>1891.8</ele></trkpt>
      <trkpt lat="45.920284" lon="6.926999"><ele>1894.9</ele></trkpt>
      <trkpt lat="45.920054" lon="6.927530"><ele>1898.6</ele></trkpt>
      <trkpt lat="45.919758" lon="6.928305"><ele>1903.9</ele></trkpt>
      <trkpt lat="45.919560" lon="6.929055"><ele>1910.4</ele></trkpt>
      <trkpt lat="45.919468" lon="6.929358"><ele>1912.9</ele></trkpt>
      <trkpt lat="45.919171" lon="6.930056"><ele>1921.2</ele></trkpt>
      <trkpt lat="45.918977" lon="6.930352"><ele>1923.4</ele></trkpt>
      <trkpt lat="45.918860" lon="6.930953"><ele>1927.5</ele></trkpt>
      <trkpt lat="45.918645" lon="6.931342"><ele>1930.0</ele></trkpt>
      <trkpt lat="45.918742" lon="6.931671"><ele>1932.4</ele></trkpt>
      <trkpt lat="45.918632" lon="6.932212"><ele>1936.7</ele></trkpt>
      <trkpt lat="45.918575" lon="6.932625"><ele>1939.3</ele></trkpt>
      <trkpt lat="45.918498" lon="6.932941"><ele>1941.2</ele></trkpt>
      <trkpt lat="45.918393" lon="6.933224"><ele>1942.6</ele></trkpt>
      <trkpt lat="45.918307" lon="6.933520"><ele>1944.2</ele></trkpt>
      <trkpt lat="45.918027" lon="6.933978"><ele>1948.1</ele></trkpt>
      <trkpt lat="45.917923" lon="6.934328"><ele>1950.1</ele></trkpt>
      <trkpt lat="45.917485" lon="6.934959"><ele>1955.4</ele></trkpt>
      <trkpt lat="45.917396" lon="6.935216"><ele>1956.2</ele></trkpt>
      <trkpt lat="45.917219" lon="6.935343"><ele>1957.6</ele></trkpt>
      <trkpt lat="45.916789" lon="6.935930"><ele>1962.9</ele></trkpt>
      <trkpt lat="45.916627" lon="6.936547"><ele>1964.6</ele></trkpt>
      <trkpt lat="45.916414" lon="6.937255"><ele>1968.0</ele></trkpt>
      <trkpt lat="45.916137" lon="6.937454"><ele>1971.1</ele></trkpt>
      <trkpt lat="45.916060" lon="6.937743"><ele>1971.9</ele></trkpt>
      <trkpt lat="45.915837" lon="6.937862"><ele>1974.2</ele></trkpt>
      <trkpt lat="45.915748" lon="6.938111"><ele>1975.6</ele></trkpt>
      <trkpt lat="45.915486" lon="6.938228"><ele>1977.8</ele></trkpt>
      <trkpt lat="45.915292" lon="6.938184"><ele>1979.3</ele></trkpt>
      <trkpt lat="45.915061" lon="6.938250"><ele>1981.3</ele></trkpt>
      <trkpt lat="45.914679" lon="6.938323"><ele>1984.1</ele></trkpt>
      <trkpt lat="45.914083" lon="6.938589"><ele>1988.7</ele></trkpt>
      <trkpt lat="45.913931" lon="6.938734"><ele>1990.1</ele></trkpt>
      <trkpt lat="45.913663" lon="6.939020"><ele>1992.6</ele></trkpt>
      <trkpt lat="45.913448" lon="6.939468"><ele>1995.9</ele></trkpt>
      <trkpt lat="45.913218" lon="6.939589"><ele>1997.7</ele></trkpt>
      <trkpt lat="45.912771" lon="6.939921"><ele>2001.9</ele></trkpt>
      <trkpt lat="45.912164" lon="6.940669"><ele>2006.8</ele></trkpt>
      <trkpt lat="45.911893" lon="6.940891"><ele>2009.2</ele></trkpt>
      <trkpt lat="45.911694" lon="6.940943"><ele>2009.2</ele></trkpt>
      <trkpt lat="45.911371" lon="6.941240"><ele>2011.5</ele></trkpt>
      <trkpt lat="45.911072" lon="6.941385"><ele>2012.5</ele></trkpt>
      <trkpt lat="45.910789" lon="6.941632"><ele>2014.2</ele></trkpt>
      <trkpt lat="45.910728" lon="6.942280"><ele>2015.3</ele></trkpt>
      <trkpt lat="45.910433" lon="6.942786"><ele>2018.0</ele></trkpt>
      <trkpt lat="45.910382" lon="6.943105"><ele>2018.3</ele></trkpt>
      <trkpt lat="45.910235" lon="6.943331"><ele>2018.2</ele></trkpt>
      <trkpt lat="45.910130" lon="6.943657"><ele>2018.3</ele></trkpt>
      <trkpt lat="45.910103" lon="6.944172"><ele>2021.5</ele></trkpt>
      <trkpt lat="45.909966" lon="6.944381"><ele>2023.9</ele></trkpt>
      <trkpt lat="45.909832" lon="6.944728"><ele>2028.3</ele></trkpt>
      <trkpt lat="45.909764" lon="6.945009"><ele>2031.9</ele></trkpt>
      <trkpt lat="45.909778" lon="6.945438"><ele>2037.3</ele></trkpt>
      <trkpt lat="45.909599" lon="6.945596"><ele>2040.9</ele></trkpt>
      <trkpt lat="45.909413" lon="6.945952"><ele>2050.0</ele></trkpt>
      <trkpt lat="45.909560" lon="6.946227"><ele>2055.5</ele></trkpt>
      <trkpt lat="45.909344" lon="6.946648"><ele>2065.5</ele></trkpt>
      <trkpt lat="45.909250" lon="6.947015"><ele>2076.7</ele></trkpt>
      <trkpt lat="45.909355" lon="6.947242"><ele>2077.8</ele></trkpt>
      <trkpt lat="45.909640" lon="6.947210"><ele>2076.4</ele></trkpt>
      <trkpt lat="45.909850" lon="6.947817"><ele>2106.8</ele></trkpt>
      <trkpt lat="45.909999" lon="6.947967"><ele>2118.1</ele></trkpt>
      <trkpt lat="45.910224" lon="6.948314"><ele>2151.0</ele></trkpt>
      <trkpt lat="45.909895" lon="6.948519"><ele>2161.1</ele></trkpt>
      <trkpt lat="45.910203" lon="6.948663"><ele>2173.1</ele></trkpt>
      <trkpt lat="45.910023" lon="6.948910"><ele>2183.2</ele></trkpt>
      <trkpt lat="45.909891" lon="6.949109"><ele>2197.8</ele></trkpt>
      <trkpt lat="45.910357" lon="6.949032"><ele>2210.4</ele></trkpt>
      <trkpt lat="45.910764" lon="6.948917"><ele>2209.8</ele></trkpt>
      <trkpt lat="45.911027" lon="6.948905"><ele>2216.3</ele></trkpt>
      <trkpt lat="45.911292" lon="6.948966"><ele>2232.6</ele></trkpt>
      <trkpt lat="45.911197" lon="6.949291"><ele>2245.3</ele></trkpt>
      <trkpt lat="45.911432" lon="6.949242"><ele>2257.1</ele></trkpt>
      <trkpt lat="45.911827" lon="6.949168"><ele>2274.7</ele></trkpt>
      <trkpt lat="45.912133" lon="6.948973"><ele>2277.0</ele></trkpt>
      <trkpt lat="45.912091" lon="6.949522"><ele>2310.7</ele></trkpt>
      <trkpt lat="45.911824" lon="6.949825"><ele>2321.5</ele></trkpt>
      <trkpt lat="45.911942" lon="6.950056"><ele>2343.3</ele></trkpt>
      <trkpt lat="45.911901" lon="6.950450"><ele>2362.1</ele></trkpt>
      <trkpt lat="45.911663" lon="6.950929"><ele>2372.4</ele></trkpt>
      <trkpt lat="45.911412" lon="6.951200"><ele>2376.8</ele></trkpt>
      <trkpt lat="45.911161" lon="6.951317"><ele>2374.7</ele></trkpt>
      <trkpt lat="45.910949" lon="6.951424"><ele>2369.2</ele></trkpt>
      <trkpt lat="45.910741" lon="6.951475"><ele>2372.0</ele></trkpt>
      <trkpt lat="45.910467" lon="6.951614"><ele>2372.4</ele></trkpt>
      <trkpt lat="45.910242" lon="6.951683"><ele>2374.5</ele></trkpt>
      <trkpt lat="45.909886" lon="6.951998"><ele>2379.3</ele></trkpt>
      <trkpt lat="45.909572" lon="6.952024"><ele>2378.8</ele></trkpt>
      <trkpt lat="45.909173" lon="6.952246"><ele>2378.1</ele></trkpt>
      <trkpt lat="45.908829" lon="6.952266"><ele>2376.9</ele></trkpt>
      <trkpt lat="45.908315" lon="6.952596"><ele>2380.7</ele></trkpt>
      <trkpt lat="45.908173" lon="6.952850"><ele>2383.7</ele></trkpt>
      <trkpt lat="45.907728" lon="6.953237"><ele>2396.5</ele></trkpt>
      <trkpt lat="45.907490" lon="6.953678"><ele>2404.8</ele></trkpt>
      <trkpt lat="45.907144" lon="6.954047"><ele>2412.4</ele></trkpt>
      <trkpt lat="45.907146" lon="6.954310"><ele>2417.0</ele></trkpt>
      <trkpt lat="45.907129" lon="6.954633"><ele>2425.7</ele></trkpt>
      <trkpt lat="45.907144" lon="6.954922"><ele>2435.1</ele></trkpt>
      <trkpt lat="45.907251" lon="6.955130"><ele>2443.8</ele></trkpt>
      <trkpt lat="45.907361" lon="6.955419"><ele>2456.3</ele></trkpt>
      <trkpt lat="45.907504" lon="6.956045"><ele>2459.2</ele></trkpt>
      <trkpt lat="45.907315" lon="6.956060"><ele>2460.4</ele></trkpt>
      <trkpt lat="45.907228" lon="6.956385"><ele>2468.9</ele></trkpt>
      <trkpt lat="45.906917" lon="6.956512"><ele>2481.3</ele></trkpt>
      <trkpt lat="45.906601" lon="6.956732"><ele>2506.6</ele></trkpt>
      <trkpt lat="45.906466" lon="6.957063"><ele>2536.6</ele></trkpt>
      <trkpt lat="45.906625" lon="6.957231"><ele>2556.9</ele></trkpt>
      <trkpt lat="45.907019" lon="6.957477"><ele>2582.6</ele></trkpt>
      <trkpt lat="45.907040" lon="6.957831"><ele>2589.2</ele></trkpt>
      <trkpt lat="45.907144" lon="6.958233"><ele>2604.1</ele></trkpt>
      <trkpt lat="45.907210" lon="6.958627"><ele>2616.9</ele></trkpt>
      <trkpt lat="45.907132" lon="6.958941"><ele>2627.3</ele></trkpt>
      <trkpt lat="45.907385" lon="6.959093"><ele>2650.7</ele></trkpt>
      <trkpt lat="45.907619" lon="6.959330"><ele>2658.5</ele></trkpt>
      <trkpt lat="45.907923" lon="6.959377"><ele>2661.9</ele></trkpt>
      <trkpt lat="45.908112" lon="6.959498"><ele>2664.1</ele></trkpt>
      <trkpt lat="45.908349" lon="6.959842"><ele>2667.1</ele></trkpt>
      <trkpt lat="45.908627" lon="6.960099"><ele>2669.4</ele></trkpt>
      <trkpt lat="45.908758" lon="6.960481"><ele>2672.3</ele></trkpt>
      <trkpt lat="45.908991" lon="6.960561"><ele>2688.6</ele></trkpt>
      <trkpt lat="45.909126" lon="6.960756"><ele>2694.6</ele></trkpt>
      <trkpt lat="45.909354" lon="6.960734"><ele>2706.7</ele></trkpt>
      <trkpt lat="45.909600" lon="6.960786"><ele>2719.6</ele></trkpt>
      <trkpt lat="45.909859" lon="6.960694"><ele>2733.1</ele></trkpt>
      <trkpt lat="45.910085" lon="6.960730"><ele>2744.6</ele></trkpt>
      <trkpt lat="45.910449" lon="6.960977"><ele>2757.9</ele></trkpt>
      <trkpt lat="45.910846" lon="6.960787"><ele>2774.8</ele></trkpt>
      <trkpt lat="45.911271" lon="6.960948"><ele>2789.4</ele></trkpt>
      <trkpt lat="45.911420" lon="6.960434"><ele>2798.2</ele></trkpt>
      <trkpt lat="45.911612" lon="6.960538"><ele>2809.3</ele></trkpt>
      <trkpt lat="45.911623" lon="6.960252"><ele>2810.3</ele></trkpt>
      <trkpt lat="45.911807" lon="6.960483"><ele>2822.2</ele></trkpt>
      <trkpt lat="45.912178" lon="6.960793"><ele>2853.2</ele></trkpt>
      <trkpt lat="45.912245" lon="6.961054"><ele>2857.8</ele></trkpt>
      <trkpt lat="45.912401" lon="6.961206"><ele>2871.3</ele></trkpt>
      <trkpt lat="45.912636" lon="6.961664"><ele>2892.7</ele></trkpt>
      <trkpt lat="45.912838" lon="6.962117"><ele>2906.4</ele></trkpt>
      <trkpt lat="45.912938" lon="6.961796"><ele>2919.6</ele></trkpt>
      <trkpt lat="45.913135" lon="6.961620"><ele>2941.4</ele></trkpt>
      <trkpt lat="45.913330" lon="6.961587"><ele>2957.8</ele></trkpt>
      <trkpt lat="45.913357" lon="6.961936"><ele>2956.2</ele></trkpt>
      <trkpt lat="45.913573" lon="6.961770"><ele>2981.6</ele></trkpt>
      <trkpt lat="45.913684" lon="6.961527"><ele>2994.6</ele></trkpt>
      <trkpt lat="45.913723" lon="6.961112"><ele>3005.9</ele></trkpt>
      <trkpt lat="45.913599" lon="6.960907"><ele>2991.3</ele></trkpt>
      <trkpt lat="45.913827" lon="6.960724"><ele>3048.4</ele></trkpt>
      <trkpt lat="45.913758" lon="6.960417"><ele>3041.8</ele></trkpt>
      <trkpt lat="45.913945" lon="6.960291"><ele>3061.0</ele></trkpt>
      <trkpt lat="45.914131" lon="6.960417"><ele>3081.6</ele></trkpt>
      <trkpt lat="45.914393" lon="6.960431"><ele>3113.7</ele></trkpt>
      <trkpt lat="45.914658" lon="6.960314"><ele>3145.8</ele></trkpt>
      <trkpt lat="45.914577" lon="6.960568"><ele>3135.9</ele></trkpt>
      <trkpt lat="45.914716" lon="6.960367"><ele>3153.4</ele></trkpt>
      <trkpt lat="45.914659" lon="6.960061"><ele>3143.6</ele></trkpt>
      <trkpt lat="45.914904" lon="6.959938"><ele>3168.0</ele></trkpt>
      <trkpt lat="45.915086" lon="6.959661"><ele>3178.2</ele></trkpt>
      <trkpt lat="45.915055" lon="6.960053"><ele>3187.0</ele></trkpt>
      <trkpt lat="45.915210" lon="6.960467"><ele>3206.2</ele></trkpt>
      <trkpt lat="45.915325" lon="6.960775"><ele>3217.6</ele></trkpt>
      <trkpt lat="45.915225" lon="6.960541"><ele>3209.2</ele></trkpt>
      <trkpt lat="45.915243" lon="6.960819"><ele>3207.3</ele></trkpt>
      <trkpt lat="45.915368" lon="6.960535"><ele>3225.5</ele></trkpt>
      <trkpt lat="45.915516" lon="6.960689"><ele>3238.7</ele></trkpt>
      <trkpt lat="45.915275" lon="6.961366"><ele>3197.8</ele></trkpt>
      <trkpt lat="45.915510" lon="6.960790"><ele>3234.4</ele></trkpt>
      <trkpt lat="45.915632" lon="6.960600"><ele>3250.7</ele></trkpt>
      <trkpt lat="45.915644" lon="6.960891"><ele>3246.9</ele></trkpt>
      <trkpt lat="45.915818" lon="6.960729"><ele>3262.5</ele></trkpt>
      <trkpt lat="45.915907" lon="6.960954"><ele>3264.0</ele></trkpt>
      <trkpt lat="45.915778" lon="6.960735"><ele>3258.0</ele></trkpt>
      <trkpt lat="45.915953" lon="6.960670"><ele>3270.4</ele></trkpt>
      <trkpt lat="45.915852" lon="6.960915"><ele>3260.4</ele></trkpt>
      <trkpt lat="45.915969" lon="6.960713"><ele>3271.6</ele></trkpt>
      <trkpt lat="45.916148" lon="6.960777"><ele>3280.9</ele></trkpt>
      <trkpt lat="45.916400" lon="6.961082"><ele>3281.3</ele></trkpt>
    </trkseg>
  </trk>
</gpx>