After dedup: 270 pts, 1116m -> 4030m
<?xml version="1.0" encoding="UTF-8"?>
<gpx version="1.1" creator="AlpHD">
<trk><trkseg>
  <trkpt lat="45.845885" lon="6.739037"><ele>1116</ele></trkpt>
  <trkpt lat="45.845645" lon="6.738623"><ele>1121</ele></trkpt>
  <trkpt lat="45.845437" lon="6.739625"><ele>1147</ele></trkpt>
  <trkpt lat="45.845446" lon="6.740077"><ele>1156</ele></trkpt>
  <trkpt lat="45.845110" lon="6.739895"><ele>1165</ele></trkpt>
  <trkpt lat="45.844957" lon="6.739598"><ele>1174</ele></trkpt>
  <trkpt lat="45.844941" lon="6.739905"><ele>1184</ele></trkpt>
  <trkpt lat="45.844858" lon="6.740218"><ele>1202</ele></trkpt>
  <trkpt lat="45.844752" lon="6.740474"><ele>1210</ele></trkpt>
  <trkpt lat="45.844739" lon="6.740798"><ele>1214</ele></trkpt>
  <trkpt lat="45.844614" lon="6.741017"><ele>1218</ele></trkpt>
  <trkpt lat="45.844374" lon="6.741502"><ele>1234</ele></trkpt>
  <trkpt lat="45.844163" lon="6.741783"><ele>1245</ele></trkpt>
  <trkpt lat="45.843933" lon="6.741763"><ele>1250</ele></trkpt>
  <trkpt lat="45.843971" lon="6.742047"><ele>1258</ele></trkpt>
  <trkpt lat="45.843779" lon="6.742443"><ele>1267</ele></trkpt>
  <trkpt lat="45.843878" lon="6.742815"><ele>1274</ele></trkpt>
  <trkpt lat="45.843878" lon="6.743077"><ele>1278</ele></trkpt>
  <trkpt lat="45.843712" lon="6.743348"><ele>1283</ele></trkpt>
  <trkpt lat="45.843680" lon="6.743903"><ele>1294</ele></trkpt>
  <trkpt lat="45.843658" lon="6.744195"><ele>1300</ele></trkpt>
  <trkpt lat="45.843578" lon="6.744726"><ele>1314</ele></trkpt>
  <trkpt lat="45.843459" lon="6.745057"><ele>1324</ele></trkpt>
  <trkpt lat="45.843421" lon="6.745366"><ele>1330</ele></trkpt>
  <trkpt lat="45.843472" lon="6.745678"><ele>1341</ele></trkpt>
  <trkpt lat="45.843434" lon="6.745977"><ele>1352</ele></trkpt>
  <trkpt lat="45.843446" lon="6.746370"><ele>1366</ele></trkpt>
  <trkpt lat="45.843616" lon="6.747086"><ele>1391</ele></trkpt>
  <trkpt lat="45.843766" lon="6.747323"><ele>1403</ele></trkpt>
  <trkpt lat="45.843827" lon="6.747926"><ele>1434</ele></trkpt>
  <trkpt lat="45.844077" lon="6.748468"><ele>1451</ele></trkpt>
  <trkpt lat="45.844109" lon="6.748825"><ele>1462</ele></trkpt>
  <trkpt lat="45.843978" lon="6.749026"><ele>1470</ele></trkpt>
  <trkpt lat="45.843990" lon="6.749532"><ele>1480</ele></trkpt>
  <trkpt lat="45.844035" lon="6.749998"><ele>1484</ele></trkpt>
  <trkpt lat="45.843811" lon="6.749711"><ele>1494</ele></trkpt>
  <trkpt lat="45.843626" lon="6.749585"><ele>1496</ele></trkpt>
  <trkpt lat="45.843526" lon="6.749817"><ele>1500</ele></trkpt>
  <trkpt lat="45.843341" lon="6.749806"><ele>1502</ele></trkpt>
  <trkpt lat="45.843101" lon="6.749666"><ele>1502</ele></trkpt>
  <trkpt lat="45.842739" lon="6.748986"><ele>1509</ele></trkpt>
  <trkpt lat="45.842330" lon="6.748470"><ele>1514</ele></trkpt>
  <trkpt lat="45.842064" lon="6.748203"><ele>1516</ele></trkpt>
  <trkpt lat="45.841878" lon="6.747742"><ele>1520</ele></trkpt>
  <trkpt lat="45.841706" lon="6.747546"><ele>1521</ele></trkpt>
  <trkpt lat="45.841520" lon="6.747105"><ele>1526</ele></trkpt>
  <trkpt lat="45.841667" lon="6.747685"><ele>1530</ele></trkpt>
  <trkpt lat="45.841907" lon="6.748093"><ele>1531</ele></trkpt>
  <trkpt lat="45.842285" lon="6.748812"><ele>1533</ele></trkpt>
  <trkpt lat="45.842499" lon="6.749230"><ele>1536</ele></trkpt>
  <trkpt lat="45.842576" lon="6.749515"><ele>1538</ele></trkpt>
  <trkpt lat="45.842618" lon="6.749823"><ele>1540</ele></trkpt>
  <trkpt lat="45.842586" lon="6.750430"><ele>1547</ele></trkpt>
  <trkpt lat="45.842717" lon="6.750837"><ele>1551</ele></trkpt>
  <trkpt lat="45.842803" lon="6.751213"><ele>1557</ele></trkpt>
  <trkpt lat="45.842736" lon="6.751547"><ele>1565</ele></trkpt>
  <trkpt lat="45.842653" lon="6.751993"><ele>1574</ele></trkpt>
  <trkpt lat="45.842675" lon="6.752490"><ele>1580</ele></trkpt>
  <trkpt lat="45.842621" lon="6.753057"><ele>1585</ele></trkpt>
  <trkpt lat="45.842218" lon="6.754215"><ele>1585</ele></trkpt>
  <trkpt lat="45.842112" lon="6.754494"><ele>1583</ele></trkpt>
  <trkpt lat="45.841430" lon="6.755374"><ele>1578</ele></trkpt>
  <trkpt lat="45.841197" lon="6.755497"><ele>1577</ele></trkpt>
  <trkpt lat="45.840973" lon="6.755974"><ele>1575</ele></trkpt>
  <trkpt lat="45.840819" lon="6.756140"><ele>1574</ele></trkpt>
  <trkpt lat="45.840237" lon="6.756982"><ele>1562</ele></trkpt>
  <trkpt lat="45.839706" lon="6.757306"><ele>1557</ele></trkpt>
  <trkpt lat="45.839462" lon="6.757582"><ele>1553</ele></trkpt>
  <trkpt lat="45.839130" lon="6.757760"><ele>1554</ele></trkpt>
  <trkpt lat="45.839011" lon="6.758250"><ele>1552</ele></trkpt>
  <trkpt lat="45.838467" lon="6.758491"><ele>1555</ele></trkpt>
  <trkpt lat="45.838160" lon="6.759715"><ele>1559</ele></trkpt>
  <trkpt lat="45.839046" lon="6.760585"><ele>1561</ele></trkpt>
  <trkpt lat="45.839030" lon="6.761245"><ele>1561</ele></trkpt>
  <trkpt lat="45.838845" lon="6.761562"><ele>1562</ele></trkpt>
  <trkpt lat="45.838534" lon="6.761863"><ele>1564</ele></trkpt>
  <trkpt lat="45.838397" lon="6.762128"><ele>1566</ele></trkpt>
  <trkpt lat="45.837859" lon="6.762530"><ele>1569</ele></trkpt>
  <trkpt lat="45.837728" lon="6.762748"><ele>1570</ele></trkpt>
  <trkpt lat="45.837651" lon="6.763063"><ele>1573</ele></trkpt>
  <trkpt lat="45.836938" lon="6.763682"><ele>1578</ele></trkpt>
  <trkpt lat="45.836739" lon="6.763760"><ele>1580</ele></trkpt>
  <trkpt lat="45.836522" lon="6.763975"><ele>1582</ele></trkpt>
  <trkpt lat="45.836029" lon="6.764515"><ele>1588</ele></trkpt>
  <trkpt lat="45.835466" lon="6.764665"><ele>1593</ele></trkpt>
  <trkpt lat="45.835146" lon="6.764897"><ele>1597</ele></trkpt>
  <trkpt lat="45.834989" lon="6.765151"><ele>1600</ele></trkpt>
  <trkpt lat="45.834736" lon="6.765315"><ele>1602</ele></trkpt>
  <trkpt lat="45.834506" lon="6.765518"><ele>1605</ele></trkpt>
  <trkpt lat="45.834288" lon="6.765802"><ele>1608</ele></trkpt>
  <trkpt lat="45.833997" lon="6.766343"><ele>1614</ele></trkpt>
  <trkpt lat="45.833629" lon="6.766820"><ele>1621</ele></trkpt>
  <trkpt lat="45.833472" lon="6.767105"><ele>1625</ele></trkpt>
  <trkpt lat="45.833066" lon="6.767327"><ele>1634</ele></trkpt>
  <trkpt lat="45.832627" lon="6.767457"><ele>1644</ele></trkpt>
  <trkpt lat="45.832381" lon="6.767768"><ele>1651</ele></trkpt>
  <trkpt lat="45.832182" lon="6.768120"><ele>1659</ele></trkpt>
  <trkpt lat="45.831990" lon="6.768392"><ele>1667</ele></trkpt>
  <trkpt lat="45.831562" lon="6.768563"><ele>1678</ele></trkpt>
  <trkpt lat="45.831440" lon="6.768758"><ele>1685</ele></trkpt>
  <trkpt lat="45.831306" lon="6.768960"><ele>1690</ele></trkpt>
  <trkpt lat="45.831136" lon="6.769250"><ele>1699</ele></trkpt>
  <trkpt lat="45.830928" lon="6.769458"><ele>1707</ele></trkpt>
  <trkpt lat="45.830614" lon="6.769362"><ele>1717</ele></trkpt>
  <trkpt lat="45.830352" lon="6.769098"><ele>1730</ele></trkpt>
  <trkpt lat="45.830192" lon="6.769348"><ele>1745</ele></trkpt>
  <trkpt lat="45.830006" lon="6.769802"><ele>1759</ele></trkpt>
  <trkpt lat="45.829949" lon="6.770192"><ele>1770</ele></trkpt>
  <trkpt lat="45.829875" lon="6.770517"><ele>1781</ele></trkpt>
  <trkpt lat="45.829725" lon="6.770878"><ele>1795</ele></trkpt>
  <trkpt lat="45.829757" lon="6.771205"><ele>1800</ele></trkpt>
  <trkpt lat="45.829597" lon="6.771722"><ele>1812</ele></trkpt>
  <trkpt lat="45.829437" lon="6.772308"><ele>1825</ele></trkpt>
  <trkpt lat="45.829402" lon="6.772622"><ele>1832</ele></trkpt>
  <trkpt lat="45.829222" lon="6.773115"><ele>1848</ele></trkpt>
  <trkpt lat="45.829248" lon="6.773614"><ele>1866</ele></trkpt>
  <trkpt lat="45.829293" lon="6.773946"><ele>1874</ele></trkpt>
  <trkpt lat="45.829210" lon="6.774248"><ele>1884</ele></trkpt>
  <trkpt lat="45.828963" lon="6.774898"><ele>1903</ele></trkpt>
  <trkpt lat="45.828803" lon="6.775526"><ele>1923</ele></trkpt>
  <trkpt lat="45.828774" lon="6.776346"><ele>1958</ele></trkpt>
  <trkpt lat="45.828762" lon="6.776742"><ele>1969</ele></trkpt>
  <trkpt lat="45.828877" lon="6.777317"><ele>1993</ele></trkpt>
  <trkpt lat="45.828899" lon="6.777732"><ele>2003</ele></trkpt>
  <trkpt lat="45.828912" lon="6.778002"><ele>2011</ele></trkpt>
  <trkpt lat="45.828851" lon="6.778615"><ele>2033</ele></trkpt>
  <trkpt lat="45.828922" lon="6.778866"><ele>2038</ele></trkpt>
  <trkpt lat="45.829069" lon="6.779103"><ele>2049</ele></trkpt>
  <trkpt lat="45.829002" lon="6.779485"><ele>2070</ele></trkpt>
  <trkpt lat="45.829043" lon="6.779755"><ele>2076</ele></trkpt>
  <trkpt lat="45.829034" lon="6.780075"><ele>2088</ele></trkpt>
  <trkpt lat="45.829062" lon="6.780755"><ele>2100</ele></trkpt>
  <trkpt lat="45.829168" lon="6.781074"><ele>2104</ele></trkpt>
  <trkpt lat="45.829514" lon="6.781383"><ele>2113</ele></trkpt>
  <trkpt lat="45.829734" lon="6.781457"><ele>2116</ele></trkpt>
  <trkpt lat="45.829955" lon="6.781348"><ele>2118</ele></trkpt>
  <trkpt lat="45.830272" lon="6.781432"><ele>2119</ele></trkpt>
  <trkpt lat="45.830662" lon="6.781529"><ele>2121</ele></trkpt>
  <trkpt lat="45.830829" lon="6.781412"><ele>2130</ele></trkpt>
  <trkpt lat="45.830995" lon="6.781243"><ele>2148</ele></trkpt>
  <trkpt lat="45.831197" lon="6.781682"><ele>2165</ele></trkpt>
  <trkpt lat="45.831341" lon="6.781923"><ele>2176</ele></trkpt>
  <trkpt lat="45.831600" lon="6.782283"><ele>2198</ele></trkpt>
  <trkpt lat="45.831706" lon="6.783185"><ele>2237</ele></trkpt>
  <trkpt lat="45.831814" lon="6.783592"><ele>2258</ele></trkpt>
  <trkpt lat="45.831971" lon="6.783918"><ele>2279</ele></trkpt>
  <trkpt lat="45.832054" lon="6.784177"><ele>2287</ele></trkpt>
  <trkpt lat="45.832195" lon="6.784534"><ele>2305</ele></trkpt>
  <trkpt lat="45.832138" lon="6.784811"><ele>2317</ele></trkpt>
  <trkpt lat="45.832211" lon="6.785049"><ele>2328</ele></trkpt>
  <trkpt lat="45.832301" lon="6.785454"><ele>2345</ele></trkpt>
  <trkpt lat="45.832294" lon="6.785745"><ele>2357</ele></trkpt>
  <trkpt lat="45.832282" lon="6.786163"><ele>2376</ele></trkpt>
  <trkpt lat="45.832189" lon="6.786472"><ele>2392</ele></trkpt>
  <trkpt lat="45.832208" lon="6.786752"><ele>2407</ele></trkpt>
  <trkpt lat="45.832301" lon="6.787109"><ele>2419</ele></trkpt>
  <trkpt lat="45.832170" lon="6.787357"><ele>2434</ele></trkpt>
  <trkpt lat="45.832333" lon="6.787546"><ele>2442</ele></trkpt>
  <trkpt lat="45.832298" lon="6.787885"><ele>2461</ele></trkpt>
  <trkpt lat="45.832349" lon="6.788192"><ele>2481</ele></trkpt>
  <trkpt lat="45.832512" lon="6.788383"><ele>2492</ele></trkpt>
  <trkpt lat="45.832538" lon="6.788838"><ele>2518</ele></trkpt>
  <trkpt lat="45.832586" lon="6.789188"><ele>2533</ele></trkpt>
  <trkpt lat="45.832669" lon="6.789448"><ele>2549</ele></trkpt>
  <trkpt lat="45.832784" lon="6.789690"><ele>2560</ele></trkpt>
  <trkpt lat="45.832746" lon="6.789989"><ele>2571</ele></trkpt>
  <trkpt lat="45.832774" lon="6.790553"><ele>2586</ele></trkpt>
  <trkpt lat="45.832566" lon="6.791595"><ele>2592</ele></trkpt>
  <trkpt lat="45.832374" lon="6.791975"><ele>2594</ele></trkpt>
  <trkpt lat="45.832218" lon="6.792237"><ele>2598</ele></trkpt>
  <trkpt lat="45.832042" lon="6.792429"><ele>2605</ele></trkpt>
  <trkpt lat="45.831971" lon="6.792977"><ele>2618</ele></trkpt>
  <trkpt lat="45.831798" lon="6.793098"><ele>2624</ele></trkpt>
  <trkpt lat="45.831562" lon="6.793380"><ele>2631</ele></trkpt>
  <trkpt lat="45.832070" lon="6.794742"><ele>2662</ele></trkpt>
  <trkpt lat="45.832288" lon="6.795080"><ele>2670</ele></trkpt>
  <trkpt lat="45.832506" lon="6.795602"><ele>2681</ele></trkpt>
  <trkpt lat="45.832333" lon="6.796658"><ele>2689</ele></trkpt>
  <trkpt lat="45.831939" lon="6.796848"><ele>2676</ele></trkpt>
  <trkpt lat="45.831984" lon="6.797245"><ele>2696</ele></trkpt>
  <trkpt lat="45.832035" lon="6.797662"><ele>2721</ele></trkpt>
  <trkpt lat="45.831680" lon="6.798078"><ele>2732</ele></trkpt>
  <trkpt lat="45.831475" lon="6.798072"><ele>2737</ele></trkpt>
  <trkpt lat="45.831286" lon="6.798227"><ele>2745</ele></trkpt>
  <trkpt lat="45.831446" lon="6.798390"><ele>2755</ele></trkpt>
  <trkpt lat="45.831622" lon="6.798463"><ele>2764</ele></trkpt>
  <trkpt lat="45.831850" lon="6.798927"><ele>2777</ele></trkpt>
  <trkpt lat="45.831731" lon="6.799397"><ele>2786</ele></trkpt>
  <trkpt lat="45.831754" lon="6.799905"><ele>2786</ele></trkpt>
  <trkpt lat="45.831565" lon="6.800280"><ele>2790</ele></trkpt>
  <trkpt lat="45.831357" lon="6.800475"><ele>2792</ele></trkpt>
  <trkpt lat="45.831357" lon="6.800757"><ele>2794</ele></trkpt>
  <trkpt lat="45.830976" lon="6.800845"><ele>2792</ele></trkpt>
  <trkpt lat="45.830627" lon="6.801117"><ele>2792</ele></trkpt>
  <trkpt lat="45.829984" lon="6.800910"><ele>2806</ele></trkpt>
  <trkpt lat="45.829818" lon="6.800671"><ele>2805</ele></trkpt>
  <trkpt lat="45.829610" lon="6.800622"><ele>2786</ele></trkpt>
  <trkpt lat="45.829770" lon="6.800783"><ele>2791</ele></trkpt>
  <trkpt lat="45.829795" lon="6.801190"><ele>2796</ele></trkpt>
  <trkpt lat="45.829462" lon="6.801222"><ele>2777</ele></trkpt>
  <trkpt lat="45.829392" lon="6.801835"><ele>2765</ele></trkpt>
  <trkpt lat="45.829299" lon="6.802145"><ele>2769</ele></trkpt>
  <trkpt lat="45.829098" lon="6.802343"><ele>2773</ele></trkpt>
  <trkpt lat="45.828986" lon="6.802550"><ele>2775</ele></trkpt>
  <trkpt lat="45.828522" lon="6.802950"><ele>2782</ele></trkpt>
  <trkpt lat="45.828163" lon="6.803108"><ele>2786</ele></trkpt>
  <trkpt lat="45.827648" lon="6.803803"><ele>2785</ele></trkpt>
  <trkpt lat="45.827056" lon="6.804040"><ele>2796</ele></trkpt>
  <trkpt lat="45.826739" lon="6.804346"><ele>2810</ele></trkpt>
  <trkpt lat="45.826474" lon="6.804451"><ele>2809</ele></trkpt>
  <trkpt lat="45.826240" lon="6.804737"><ele>2816</ele></trkpt>
  <trkpt lat="45.825984" lon="6.804822"><ele>2821</ele></trkpt>
  <trkpt lat="45.825674" lon="6.804718"><ele>2848</ele></trkpt>
  <trkpt lat="45.825581" lon="6.805065"><ele>2885</ele></trkpt>
  <trkpt lat="45.825565" lon="6.805415"><ele>2902</ele></trkpt>
  <trkpt lat="45.825501" lon="6.805810"><ele>2928</ele></trkpt>
  <trkpt lat="45.825530" lon="6.806190"><ele>2951</ele></trkpt>
  <trkpt lat="45.825565" lon="6.806683"><ele>2982</ele></trkpt>
  <trkpt lat="45.825642" lon="6.806966"><ele>3006</ele></trkpt>
  <trkpt lat="45.825574" lon="6.807445"><ele>3033</ele></trkpt>
  <trkpt lat="45.825606" lon="6.807818"><ele>3056</ele></trkpt>
  <trkpt lat="45.825658" lon="6.808145"><ele>3078</ele></trkpt>
  <trkpt lat="45.825594" lon="6.808875"><ele>3123</ele></trkpt>
  <trkpt lat="45.825578" lon="6.809230"><ele>3149</ele></trkpt>
  <trkpt lat="45.825469" lon="6.809497"><ele>3166</ele></trkpt>
  <trkpt lat="45.825443" lon="6.809838"><ele>3192</ele></trkpt>
  <trkpt lat="45.825536" lon="6.810117"><ele>3212</ele></trkpt>
  <trkpt lat="45.825478" lon="6.810567"><ele>3259</ele></trkpt>
  <trkpt lat="45.825530" lon="6.810908"><ele>3279</ele></trkpt>
  <trkpt lat="45.825427" lon="6.811122"><ele>3298</ele></trkpt>
  <trkpt lat="45.825286" lon="6.811482"><ele>3332</ele></trkpt>
  <trkpt lat="45.825386" lon="6.811760"><ele>3345</ele></trkpt>
  <trkpt lat="45.825446" lon="6.812130"><ele>3359</ele></trkpt>
  <trkpt lat="45.825437" lon="6.812438"><ele>3367</ele></trkpt>
  <trkpt lat="45.825350" lon="6.812735"><ele>3378</ele></trkpt>
  <trkpt lat="45.825597" lon="6.813083"><ele>3406</ele></trkpt>
  <trkpt lat="45.825875" lon="6.813217"><ele>3414</ele></trkpt>
  <trkpt lat="45.825843" lon="6.813737"><ele>3427</ele></trkpt>
  <trkpt lat="45.826118" lon="6.813928"><ele>3454</ele></trkpt>
  <trkpt lat="45.826608" lon="6.813963"><ele>3472</ele></trkpt>
  <trkpt lat="45.826557" lon="6.814222"><ele>3479</ele></trkpt>
  <trkpt lat="45.826746" lon="6.814503"><ele>3499</ele></trkpt>
  <trkpt lat="45.826973" lon="6.814383"><ele>3510</ele></trkpt>
  <trkpt lat="45.827155" lon="6.814532"><ele>3532</ele></trkpt>
  <trkpt lat="45.827782" lon="6.814754"><ele>3572</ele></trkpt>
  <trkpt lat="45.828963" lon="6.815278"><ele>3608</ele></trkpt>
  <trkpt lat="45.829805" lon="6.815885"><ele>3647</ele></trkpt>
  <trkpt lat="45.830294" lon="6.816578"><ele>3680</ele></trkpt>
  <trkpt lat="45.830566" lon="6.816720"><ele>3691</ele></trkpt>
  <trkpt lat="45.830627" lon="6.817263"><ele>3721</ele></trkpt>
  <trkpt lat="45.830928" lon="6.817326"><ele>3734</ele></trkpt>
  <trkpt lat="45.831130" lon="6.817527"><ele>3748</ele></trkpt>
  <trkpt lat="45.831546" lon="6.817623"><ele>3775</ele></trkpt>
  <trkpt lat="45.831798" lon="6.817842"><ele>3794</ele></trkpt>
  <trkpt lat="45.832208" lon="6.818046"><ele>3798</ele></trkpt>
  <trkpt lat="45.832707" lon="6.818018"><ele>3792</ele></trkpt>
  <trkpt lat="45.833005" lon="6.817840"><ele>3795</ele></trkpt>
  <trkpt lat="45.833322" lon="6.817895"><ele>3798</ele></trkpt>
  <trkpt lat="45.833552" lon="6.817803"><ele>3813</ele></trkpt>
  <trkpt lat="45.833728" lon="6.817895"><ele>3837</ele></trkpt>
  <trkpt lat="45.833926" lon="6.817915"><ele>3854</ele></trkpt>
  <trkpt lat="45.833882" lon="6.818272"><ele>3861</ele></trkpt>
  <trkpt lat="45.834019" lon="6.818078"><ele>3862</ele></trkpt>
  <trkpt lat="45.833901" lon="6.817786"><ele>3863</ele></trkpt>
  <trkpt lat="45.834106" lon="6.817867"><ele>3891</ele></trkpt>
  <trkpt lat="45.834461" lon="6.818055"><ele>3929</ele></trkpt>
  <trkpt lat="45.835334" lon="6.818583"><ele>3979</ele></trkpt>
  <trkpt lat="45.835568" lon="6.818626"><ele>3999</ele></trkpt>
  <trkpt lat="45.835827" lon="6.818562"><ele>4016</ele></trkpt>
  <trkpt lat="45.836019" lon="6.818262"><ele>4030</ele></trkpt>
</trkseg></trk>
</gpx>
