<?xml version="1.0" encoding="UTF-8"?>
<gpx version="1.1" creator="AlpHD" xmlns="http://www.topografix.com/GPX/1/1">
  <trk>
    <name>Traversée Rochefort — Grandes Jorasses</name>
    <trkseg>
      <trkpt lat="45.847407" lon="6.934300"><ele>3281.0</ele></trkpt>
      <trkpt lat="45.847768" lon="6.934622"><ele>3342.0</ele></trkpt>
      <trkpt lat="45.848388" lon="6.934993"><ele>3345.0</ele></trkpt>
      <trkpt lat="45.848752" lon="6.935570"><ele>3340.0</ele></trkpt>
      <trkpt lat="45.848980" lon="6.935792"><ele>3338.0</ele></trkpt>
      <trkpt lat="45.850423" lon="6.936465"><ele>3318.0</ele></trkpt>
      <trkpt lat="45.852880" lon="6.937882"><ele>3311.0</ele></trkpt>
      <trkpt lat="45.853117" lon="6.938135"><ele>3318.0</ele></trkpt>
      <trkpt lat="45.853412" lon="6.938882"><ele>3339.0</ele></trkpt>
      <trkpt lat="45.853505" lon="6.939428"><ele>3351.0</ele></trkpt>
      <trkpt lat="45.853492" lon="6.939990"><ele>3359.0</ele></trkpt>
      <trkpt lat="45.853542" lon="6.940282"><ele>3365.0</ele></trkpt>
      <trkpt lat="45.853978" lon="6.941272"><ele>3373.0</ele></trkpt>
      <trkpt lat="45.854317" lon="6.942260"><ele>3372.0</ele></trkpt>
      <trkpt lat="45.854613" lon="6.943423"><ele>3375.0</ele></trkpt>
      <trkpt lat="45.854813" lon="6.943932"><ele>3377.0</ele></trkpt>
      <trkpt lat="45.856298" lon="6.946028"><ele>3421.0</ele></trkpt>
      <trkpt lat="45.857502" lon="6.947332"><ele>3469.0</ele></trkpt>
      <trkpt lat="45.858037" lon="6.948125"><ele>3494.0</ele></trkpt>
      <trkpt lat="45.858322" lon="6.948155"><ele>3513.0</ele></trkpt>
      <trkpt lat="45.858570" lon="6.947848"><ele>3525.0</ele></trkpt>
      <trkpt lat="45.859063" lon="6.947745"><ele>3539.0</ele></trkpt>
      <trkpt lat="45.859572" lon="6.948175"><ele>3578.0</ele></trkpt>
      <trkpt lat="45.859675" lon="6.948523"><ele>3599.0</ele></trkpt>
      <trkpt lat="45.860177" lon="6.948700"><ele>3644.0</ele></trkpt>
      <trkpt lat="45.860202" lon="6.949108"><ele>3669.0</ele></trkpt>
      <trkpt lat="45.860120" lon="6.949432"><ele>3681.0</ele></trkpt>
      <trkpt lat="45.860210" lon="6.949905"><ele>3716.0</ele></trkpt>
      <trkpt lat="45.860345" lon="6.950142"><ele>3748.0</ele></trkpt>
      <trkpt lat="45.860313" lon="6.950437"><ele>3779.0</ele></trkpt>
      <trkpt lat="45.860523" lon="6.950550"><ele>3790.0</ele></trkpt>
      <trkpt lat="45.860405" lon="6.950832"><ele>3809.0</ele></trkpt>
      <trkpt lat="45.860602" lon="6.951205"><ele>3841.0</ele></trkpt>
      <trkpt lat="45.860827" lon="6.951065"><ele>3844.0</ele></trkpt>
      <trkpt lat="45.861005" lon="6.950943"><ele>3848.0</ele></trkpt>
      <trkpt lat="45.861323" lon="6.950997"><ele>3854.0</ele></trkpt>
      <trkpt lat="45.861587" lon="6.951318"><ele>3872.0</ele></trkpt>
      <trkpt lat="45.861473" lon="6.951610"><ele>3874.0</ele></trkpt>
      <trkpt lat="45.861283" lon="6.951858"><ele>3881.0</ele></trkpt>
      <trkpt lat="45.861640" lon="6.952290"><ele>3891.0</ele></trkpt>
      <trkpt lat="45.861372" lon="6.952878"><ele>3888.0</ele></trkpt>
      <trkpt lat="45.861257" lon="6.953698"><ele>3870.0</ele></trkpt>
      <trkpt lat="45.861193" lon="6.954128"><ele>3876.0</ele></trkpt>
      <trkpt lat="45.861282" lon="6.954367"><ele>3871.0</ele></trkpt>
      <trkpt lat="45.861215" lon="6.955557"><ele>3879.0</ele></trkpt>
      <trkpt lat="45.861125" lon="6.956048"><ele>3890.0</ele></trkpt>
      <trkpt lat="45.861170" lon="6.956320"><ele>3890.0</ele></trkpt>
      <trkpt lat="45.861015" lon="6.956502"><ele>3893.0</ele></trkpt>
      <trkpt lat="45.860970" lon="6.956788"><ele>3901.0</ele></trkpt>
      <trkpt lat="45.861045" lon="6.957147"><ele>3918.0</ele></trkpt>
      <trkpt lat="45.861002" lon="6.957512"><ele>3933.0</ele></trkpt>
      <trkpt lat="45.861115" lon="6.957755"><ele>3920.0</ele></trkpt>
      <trkpt lat="45.861315" lon="6.957732"><ele>3914.0</ele></trkpt>
      <trkpt lat="45.861583" lon="6.958327"><ele>3908.0</ele></trkpt>
      <trkpt lat="45.861648" lon="6.958570"><ele>3914.0</ele></trkpt>
      <trkpt lat="45.861830" lon="6.958972"><ele>3933.0</ele></trkpt>
      <trkpt lat="45.861930" lon="6.959385"><ele>3940.0</ele></trkpt>
      <trkpt lat="45.861952" lon="6.959750"><ele>3961.0</ele></trkpt>
      <trkpt lat="45.861975" lon="6.960022"><ele>3998.0</ele></trkpt>
      <trkpt lat="45.862278" lon="6.960048"><ele>3978.0</ele></trkpt>
      <trkpt lat="45.862583" lon="6.960088"><ele>3970.0</ele></trkpt>
      <trkpt lat="45.863122" lon="6.960323"><ele>3951.0</ele></trkpt>
      <trkpt lat="45.863470" lon="6.960392"><ele>3948.0</ele></trkpt>
      <trkpt lat="45.863862" lon="6.960640"><ele>3939.0</ele></trkpt>
      <trkpt lat="45.864098" lon="6.960900"><ele>3927.0</ele></trkpt>
      <trkpt lat="45.864108" lon="6.961190"><ele>3922.0</ele></trkpt>
      <trkpt lat="45.863872" lon="6.961780"><ele>3912.0</ele></trkpt>
      <trkpt lat="45.863760" lon="6.962448"><ele>3902.0</ele></trkpt>
      <trkpt lat="45.863810" lon="6.963260"><ele>3899.0</ele></trkpt>
      <trkpt lat="45.863900" lon="6.963650"><ele>3909.0</ele></trkpt>
      <trkpt lat="45.863762" lon="6.963968"><ele>3922.0</ele></trkpt>
      <trkpt lat="45.863992" lon="6.964602"><ele>3922.0</ele></trkpt>
      <trkpt lat="45.864020" lon="6.964887"><ele>3924.0</ele></trkpt>
      <trkpt lat="45.864220" lon="6.965260"><ele>3910.0</ele></trkpt>
      <trkpt lat="45.864333" lon="6.966092"><ele>3910.0</ele></trkpt>
      <trkpt lat="45.864403" lon="6.966377"><ele>3912.0</ele></trkpt>
      <trkpt lat="45.864408" lon="6.966695"><ele>3927.0</ele></trkpt>
      <trkpt lat="45.864357" lon="6.967013"><ele>3946.0</ele></trkpt>
      <trkpt lat="45.864202" lon="6.967193"><ele>3978.0</ele></trkpt>
      <trkpt lat="45.864372" lon="6.967388"><ele>3987.0</ele></trkpt>
      <trkpt lat="45.864548" lon="6.967892"><ele>4007.0</ele></trkpt>
      <trkpt lat="45.864807" lon="6.968113"><ele>3974.0</ele></trkpt>
      <trkpt lat="45.865165" lon="6.968478"><ele>3949.0</ele></trkpt>
      <trkpt lat="45.865242" lon="6.968835"><ele>3953.0</ele></trkpt>
      <trkpt lat="45.865473" lon="6.969038"><ele>3956.0</ele></trkpt>
      <trkpt lat="45.865727" lon="6.969158"><ele>3950.0</ele></trkpt>
      <trkpt lat="45.866278" lon="6.969350"><ele>3963.0</ele></trkpt>
      <trkpt lat="45.866922" lon="6.969845"><ele>3962.0</ele></trkpt>
      <trkpt lat="45.866880" lon="6.970327"><ele>3968.0</ele></trkpt>
      <trkpt lat="45.866835" lon="6.970877"><ele>3967.0</ele></trkpt>
      <trkpt lat="45.867050" lon="6.971147"><ele>3968.0</ele></trkpt>
      <trkpt lat="45.867133" lon="6.971397"><ele>3949.0</ele></trkpt>
      <trkpt lat="45.867253" lon="6.971593"><ele>3949.0</ele></trkpt>
      <trkpt lat="45.867187" lon="6.971332"><ele>3932.0</ele></trkpt>
      <trkpt lat="45.867300" lon="6.971653"><ele>3950.0</ele></trkpt>
      <trkpt lat="45.867310" lon="6.972125"><ele>3943.0</ele></trkpt>
      <trkpt lat="45.867173" lon="6.972340"><ele>3945.0</ele></trkpt>
      <trkpt lat="45.867372" lon="6.972537"><ele>3907.0</ele></trkpt>
      <trkpt lat="45.867547" lon="6.972708"><ele>3878.0</ele></trkpt>
      <trkpt lat="45.867858" lon="6.973320"><ele>3820.0</ele></trkpt>
      <trkpt lat="45.867818" lon="6.973957"><ele>3820.0</ele></trkpt>
      <trkpt lat="45.867453" lon="6.974287"><ele>3837.0</ele></trkpt>
      <trkpt lat="45.867698" lon="6.974598"><ele>3830.0</ele></trkpt>
      <trkpt lat="45.868103" lon="6.974672"><ele>3841.0</ele></trkpt>
      <trkpt lat="45.868163" lon="6.974920"><ele>3858.0</ele></trkpt>
      <trkpt lat="45.868310" lon="6.975398"><ele>3920.0</ele></trkpt>
      <trkpt lat="45.868262" lon="6.975678"><ele>3946.0</ele></trkpt>
      <trkpt lat="45.868298" lon="6.976037"><ele>3981.0</ele></trkpt>
      <trkpt lat="45.868495" lon="6.976210"><ele>3997.0</ele></trkpt>
      <trkpt lat="45.868647" lon="6.976570"><ele>3983.0</ele></trkpt>
      <trkpt lat="45.868633" lon="6.976850"><ele>3989.0</ele></trkpt>
      <trkpt lat="45.868567" lon="6.977327"><ele>3987.0</ele></trkpt>
      <trkpt lat="45.868418" lon="6.977492"><ele>4030.0</ele></trkpt>
      <trkpt lat="45.868600" lon="6.977670"><ele>4044.0</ele></trkpt>
      <trkpt lat="45.868610" lon="6.978225"><ele>4057.0</ele></trkpt>
      <trkpt lat="45.868880" lon="6.979010"><ele>4012.0</ele></trkpt>
      <trkpt lat="45.868740" lon="6.979315"><ele>4038.0</ele></trkpt>
      <trkpt lat="45.868738" lon="6.979668"><ele>4026.0</ele></trkpt>
      <trkpt lat="45.868703" lon="6.980047"><ele>4035.0</ele></trkpt>
      <trkpt lat="45.868897" lon="6.980722"><ele>4057.0</ele></trkpt>
      <trkpt lat="45.869047" lon="6.981500"><ele>4076.0</ele></trkpt>
      <trkpt lat="45.869127" lon="6.981863"><ele>4082.0</ele></trkpt>
      <trkpt lat="45.869255" lon="6.982280"><ele>4105.0</ele></trkpt>
      <trkpt lat="45.869155" lon="6.982703"><ele>4110.0</ele></trkpt>
      <trkpt lat="45.869025" lon="6.983022"><ele>4104.0</ele></trkpt>
      <trkpt lat="45.868973" lon="6.983757"><ele>4119.0</ele></trkpt>
      <trkpt lat="45.868820" lon="6.984167"><ele>4129.0</ele></trkpt>
      <trkpt lat="45.868845" lon="6.984465"><ele>4145.0</ele></trkpt>
      <trkpt lat="45.868852" lon="6.984902"><ele>4180.0</ele></trkpt>
      <trkpt lat="45.868783" lon="6.985567"><ele>4178.0</ele></trkpt>
      <trkpt lat="45.868728" lon="6.985880"><ele>4167.0</ele></trkpt>
      <trkpt lat="45.868540" lon="6.985928"><ele>4158.0</ele></trkpt>
      <trkpt lat="45.868353" lon="6.986345"><ele>4140.0</ele></trkpt>
      <trkpt lat="45.868183" lon="6.987473"><ele>4158.0</ele></trkpt>
      <trkpt lat="45.868190" lon="6.987757"><ele>4165.0</ele></trkpt>
      <trkpt lat="45.868108" lon="6.988117"><ele>4176.0</ele></trkpt>
      <trkpt lat="45.868198" lon="6.988533"><ele>4194.0</ele></trkpt>
      <trkpt lat="45.868180" lon="6.988920"><ele>4202.0</ele></trkpt>
      <trkpt lat="45.867822" lon="6.989553"><ele>4186.0</ele></trkpt>
      <trkpt lat="45.867792" lon="6.988360"><ele>4165.0</ele></trkpt>
      <trkpt lat="45.867593" lon="6.988220"><ele>4147.0</ele></trkpt>
      <trkpt lat="45.867505" lon="6.987717"><ele>4128.0</ele></trkpt>
      <trkpt lat="45.867280" lon="6.987767"><ele>4105.0</ele></trkpt>
      <trkpt lat="45.867090" lon="6.987690"><ele>4100.0</ele></trkpt>
      <trkpt lat="45.866925" lon="6.987888"><ele>4083.0</ele></trkpt>
      <trkpt lat="45.866550" lon="6.987888"><ele>4041.0</ele></trkpt>
      <trkpt lat="45.866500" lon="6.988262"><ele>4033.0</ele></trkpt>
      <trkpt lat="45.865938" lon="6.988340"><ele>3984.0</ele></trkpt>
      <trkpt lat="45.865650" lon="6.988238"><ele>3977.0</ele></trkpt>
      <trkpt lat="45.866090" lon="6.986515"><ele>3921.0</ele></trkpt>
      <trkpt lat="45.866145" lon="6.985780"><ele>3903.0</ele></trkpt>
      <trkpt lat="45.866105" lon="6.984930"><ele>3879.0</ele></trkpt>
      <trkpt lat="45.866137" lon="6.984468"><ele>3869.0</ele></trkpt>
      <trkpt lat="45.866318" lon="6.984078"><ele>3884.0</ele></trkpt>
      <trkpt lat="45.866287" lon="6.983380"><ele>3885.0</ele></trkpt>
      <trkpt lat="45.865847" lon="6.982870"><ele>3844.0</ele></trkpt>
      <trkpt lat="45.865685" lon="6.982672"><ele>3827.0</ele></trkpt>
      <trkpt lat="45.865578" lon="6.982343"><ele>3806.0</ele></trkpt>
      <trkpt lat="45.865653" lon="6.981950"><ele>3738.0</ele></trkpt>
      <trkpt lat="45.865920" lon="6.981498"><ele>3724.0</ele></trkpt>
      <trkpt lat="45.865887" lon="6.980905"><ele>3713.0</ele></trkpt>
      <trkpt lat="45.865692" lon="6.980573"><ele>3702.0</ele></trkpt>
      <trkpt lat="45.865703" lon="6.980212"><ele>3708.0</ele></trkpt>
      <trkpt lat="45.865415" lon="6.979858"><ele>3711.0</ele></trkpt>
      <trkpt lat="45.865235" lon="6.979617"><ele>3699.0</ele></trkpt>
      <trkpt lat="45.865053" lon="6.979552"><ele>3684.0</ele></trkpt>
      <trkpt lat="45.864778" lon="6.979317"><ele>3658.0</ele></trkpt>
      <trkpt lat="45.864592" lon="6.979082"><ele>3634.0</ele></trkpt>
      <trkpt lat="45.864448" lon="6.978903"><ele>3613.0</ele></trkpt>
      <trkpt lat="45.864113" lon="6.978638"><ele>3593.0</ele></trkpt>
      <trkpt lat="45.863980" lon="6.978460"><ele>3571.0</ele></trkpt>
      <trkpt lat="45.863792" lon="6.978577"><ele>3547.0</ele></trkpt>
      <trkpt lat="45.863708" lon="6.978345"><ele>3523.0</ele></trkpt>
      <trkpt lat="45.863548" lon="6.978152"><ele>3475.0</ele></trkpt>
      <trkpt lat="45.863287" lon="6.978022"><ele>3441.0</ele></trkpt>
      <trkpt lat="45.863073" lon="6.978008"><ele>3424.0</ele></trkpt>
      <trkpt lat="45.862760" lon="6.977587"><ele>3389.0</ele></trkpt>
      <trkpt lat="45.862565" lon="6.977442"><ele>3375.0</ele></trkpt>
      <trkpt lat="45.862103" lon="6.977365"><ele>3337.0</ele></trkpt>
      <trkpt lat="45.862015" lon="6.977132"><ele>3327.0</ele></trkpt>
      <trkpt lat="45.861775" lon="6.977182"><ele>3311.0</ele></trkpt>
      <trkpt lat="45.861152" lon="6.977525"><ele>3291.0</ele></trkpt>
      <trkpt lat="45.860978" lon="6.977695"><ele>3293.0</ele></trkpt>
      <trkpt lat="45.860658" lon="6.977670"><ele>3272.0</ele></trkpt>
      <trkpt lat="45.860430" lon="6.977742"><ele>3268.0</ele></trkpt>
      <trkpt lat="45.860098" lon="6.977468"><ele>3232.0</ele></trkpt>
      <trkpt lat="45.859698" lon="6.977348"><ele>3230.0</ele></trkpt>
      <trkpt lat="45.859497" lon="6.977057"><ele>3214.0</ele></trkpt>
      <trkpt lat="45.859212" lon="6.976923"><ele>3191.0</ele></trkpt>
      <trkpt lat="45.858873" lon="6.976933"><ele>3186.0</ele></trkpt>
      <trkpt lat="45.857923" lon="6.976547"><ele>3140.0</ele></trkpt>
      <trkpt lat="45.857652" lon="6.976347"><ele>3106.0</ele></trkpt>
      <trkpt lat="45.857030" lon="6.976332"><ele>3035.0</ele></trkpt>
      <trkpt lat="45.856733" lon="6.976340"><ele>3022.0</ele></trkpt>
      <trkpt lat="45.856388" lon="6.976242"><ele>3012.0</ele></trkpt>
      <trkpt lat="45.856098" lon="6.976067"><ele>3005.0</ele></trkpt>
      <trkpt lat="45.855890" lon="6.975949"><ele>2967.6</ele></trkpt>
      <trkpt lat="45.855665" lon="6.976160"><ele>2959.0</ele></trkpt>
      <trkpt lat="45.855461" lon="6.976222"><ele>2948.5</ele></trkpt>
      <trkpt lat="45.855546" lon="6.976632"><ele>2936.9</ele></trkpt>
      <trkpt lat="45.855372" lon="6.976454"><ele>2930.8</ele></trkpt>
      <trkpt lat="45.854971" lon="6.976406"><ele>2912.7</ele></trkpt>
      <trkpt lat="45.854934" lon="6.976888"><ele>2901.9</ele></trkpt>
      <trkpt lat="45.854948" lon="6.977193"><ele>2887.3</ele></trkpt>
      <trkpt lat="45.854879" lon="6.977472"><ele>2868.9</ele></trkpt>
      <trkpt lat="45.854718" lon="6.977615"><ele>2859.4</ele></trkpt>
      <trkpt lat="45.854566" lon="6.977455"><ele>2852.8</ele></trkpt>
      <trkpt lat="45.854349" lon="6.977555"><ele>2844.1</ele></trkpt>
      <trkpt lat="45.854275" lon="6.977141"><ele>2836.0</ele></trkpt>
      <trkpt lat="45.854117" lon="6.977324"><ele>2828.9</ele></trkpt>
      <trkpt lat="45.853907" lon="6.977073"><ele>2821.6</ele></trkpt>
      <trkpt lat="45.853713" lon="6.976992"><ele>2815.5</ele></trkpt>
      <trkpt lat="45.853507" lon="6.977171"><ele>2808.8</ele></trkpt>
      <trkpt lat="45.853401" lon="6.977404"><ele>2803.2</ele></trkpt>
      <trkpt lat="45.853218" lon="6.977281"><ele>2792.6</ele></trkpt>
      <trkpt lat="45.853116" lon="6.977712"><ele>2752.1</ele></trkpt>
      <trkpt lat="45.853086" lon="6.978116"><ele>2733.1</ele></trkpt>
      <trkpt lat="45.853175" lon="6.978532"><ele>2714.4</ele></trkpt>
      <trkpt lat="45.852991" lon="6.978474"><ele>2707.2</ele></trkpt>
      <trkpt lat="45.853143" lon="6.978962"><ele>2695.7</ele></trkpt>
      <trkpt lat="45.853267" lon="6.979245"><ele>2692.9</ele></trkpt>
      <trkpt lat="45.853065" lon="6.979600"><ele>2684.8</ele></trkpt>
      <trkpt lat="45.853193" lon="6.979790"><ele>2682.1</ele></trkpt>
      <trkpt lat="45.853132" lon="6.980056"><ele>2675.8</ele></trkpt>
      <trkpt lat="45.852924" lon="6.980307"><ele>2663.9</ele></trkpt>
      <trkpt lat="45.852988" lon="6.980549"><ele>2654.5</ele></trkpt>
      <trkpt lat="45.852719" lon="6.980671"><ele>2647.1</ele></trkpt>
      <trkpt lat="45.852452" lon="6.980774"><ele>2642.1</ele></trkpt>
      <trkpt lat="45.852247" lon="6.980782"><ele>2636.7</ele></trkpt>
      <trkpt lat="45.852014" lon="6.981138"><ele>2631.5</ele></trkpt>
      <trkpt lat="45.851732" lon="6.981229"><ele>2607.1</ele></trkpt>
      <trkpt lat="45.851634" lon="6.981459"><ele>2590.0</ele></trkpt>
      <trkpt lat="45.851454" lon="6.981690"><ele>2578.3</ele></trkpt>
      <trkpt lat="45.851248" lon="6.981773"><ele>2574.8</ele></trkpt>
      <trkpt lat="45.851106" lon="6.982029"><ele>2569.3</ele></trkpt>
      <trkpt lat="45.850919" lon="6.982116"><ele>2560.2</ele></trkpt>
      <trkpt lat="45.850430" lon="6.982250"><ele>2542.8</ele></trkpt>
      <trkpt lat="45.850320" lon="6.982487"><ele>2535.6</ele></trkpt>
      <trkpt lat="45.850089" lon="6.982483"><ele>2524.7</ele></trkpt>
      <trkpt lat="45.849919" lon="6.982674"><ele>2513.4</ele></trkpt>
      <trkpt lat="45.849748" lon="6.982755"><ele>2507.2</ele></trkpt>
      <trkpt lat="45.849377" lon="6.982924"><ele>2490.4</ele></trkpt>
      <trkpt lat="45.849153" lon="6.983060"><ele>2478.9</ele></trkpt>
      <trkpt lat="45.848975" lon="6.983309"><ele>2468.3</ele></trkpt>
      <trkpt lat="45.848677" lon="6.983452"><ele>2455.9</ele></trkpt>
      <trkpt lat="45.848499" lon="6.983550"><ele>2447.9</ele></trkpt>
      <trkpt lat="45.848358" lon="6.983800"><ele>2437.8</ele></trkpt>
      <trkpt lat="45.848240" lon="6.983524"><ele>2431.2</ele></trkpt>
      <trkpt lat="45.848048" lon="6.983612"><ele>2419.8</ele></trkpt>
      <trkpt lat="45.847869" lon="6.983442"><ele>2404.5</ele></trkpt>
      <trkpt lat="45.847720" lon="6.983610"><ele>2398.0</ele></trkpt>
      <trkpt lat="45.847507" lon="6.984127"><ele>2384.0</ele></trkpt>
      <trkpt lat="45.847294" lon="6.984284"><ele>2376.3</ele></trkpt>
      <trkpt lat="45.847100" lon="6.984219"><ele>2365.7</ele></trkpt>
      <trkpt lat="45.846911" lon="6.984213"><ele>2353.6</ele></trkpt>
      <trkpt lat="45.846748" lon="6.984329"><ele>2344.6</ele></trkpt>
      <trkpt lat="45.846593" lon="6.984525"><ele>2332.3</ele></trkpt>
      <trkpt lat="45.846442" lon="6.984690"><ele>2319.6</ele></trkpt>
      <trkpt lat="45.846259" lon="6.984791"><ele>2306.2</ele></trkpt>
      <trkpt lat="45.846189" lon="6.985033"><ele>2269.3</ele></trkpt>
      <trkpt lat="45.845977" lon="6.985140"><ele>2243.9</ele></trkpt>
      <trkpt lat="45.845778" lon="6.984975"><ele>2219.2</ele></trkpt>
      <trkpt lat="45.845592" lon="6.984838"><ele>2193.8</ele></trkpt>
      <trkpt lat="45.845675" lon="6.984419"><ele>2170.9</ele></trkpt>
      <trkpt lat="45.845484" lon="6.984473"><ele>2156.9</ele></trkpt>
      <trkpt lat="45.845175" lon="6.984665"><ele>2133.0</ele></trkpt>
      <trkpt lat="45.844592" lon="6.984541"><ele>2076.6</ele></trkpt>
      <trkpt lat="45.844191" lon="6.984162"><ele>2059.2</ele></trkpt>
      <trkpt lat="45.844178" lon="6.983888"><ele>2051.3</ele></trkpt>
      <trkpt lat="45.843915" lon="6.983660"><ele>2045.3</ele></trkpt>
      <trkpt lat="45.843660" lon="6.983672"><ele>2036.5</ele></trkpt>
      <trkpt lat="45.843359" lon="6.983600"><ele>2025.3</ele></trkpt>
      <trkpt lat="45.843244" lon="6.983820"><ele>2018.9</ele></trkpt>
      <trkpt lat="45.843030" lon="6.984113"><ele>2008.5</ele></trkpt>
      <trkpt lat="45.843037" lon="6.984574"><ele>2002.1</ele></trkpt>
      <trkpt lat="45.842864" lon="6.984776"><ele>1995.9</ele></trkpt>
      <trkpt lat="45.842593" lon="6.985102"><ele>1985.1</ele></trkpt>
      <trkpt lat="45.842529" lon="6.985373"><ele>1980.0</ele></trkpt>
      <trkpt lat="45.842149" lon="6.985475"><ele>1967.8</ele></trkpt>
      <trkpt lat="45.841884" lon="6.985519"><ele>1959.1</ele></trkpt>
      <trkpt lat="45.841525" lon="6.985386"><ele>1949.5</ele></trkpt>
      <trkpt lat="45.841089" lon="6.985586"><ele>1935.8</ele></trkpt>
      <trkpt lat="45.840713" lon="6.985577"><ele>1924.4</ele></trkpt>
      <trkpt lat="45.840402" lon="6.985747"><ele>1914.2</ele></trkpt>
      <trkpt lat="45.840140" lon="6.985646"><ele>1906.0</ele></trkpt>
      <trkpt lat="45.839864" lon="6.985537"><ele>1898.4</ele></trkpt>
      <trkpt lat="45.839695" lon="6.985688"><ele>1892.2</ele></trkpt>
      <trkpt lat="45.839434" lon="6.985599"><ele>1885.7</ele></trkpt>
      <trkpt lat="45.839318" lon="6.985947"><ele>1878.4</ele></trkpt>
      <trkpt lat="45.839168" lon="6.986118"><ele>1872.9</ele></trkpt>
      <trkpt lat="45.839166" lon="6.986391"><ele>1867.8</ele></trkpt>
      <trkpt lat="45.838982" lon="6.986533"><ele>1861.0</ele></trkpt>
      <trkpt lat="45.838830" lon="6.986715"><ele>1854.5</ele></trkpt>
      <trkpt lat="45.838772" lon="6.986988"><ele>1849.2</ele></trkpt>
      <trkpt lat="45.838677" lon="6.987286"><ele>1840.9</ele></trkpt>
      <trkpt lat="45.838390" lon="6.986846"><ele>1828.7</ele></trkpt>
      <trkpt lat="45.838206" lon="6.987008"><ele>1822.5</ele></trkpt>
      <trkpt lat="45.838074" lon="6.987229"><ele>1812.5</ele></trkpt>
      <trkpt lat="45.837851" lon="6.986963"><ele>1798.8</ele></trkpt>
      <trkpt lat="45.837638" lon="6.986869"><ele>1785.4</ele></trkpt>
      <trkpt lat="45.837591" lon="6.986612"><ele>1769.5</ele></trkpt>
      <trkpt lat="45.837551" lon="6.987062"><ele>1753.4</ele></trkpt>
      <trkpt lat="45.837521" lon="6.987553"><ele>1741.2</ele></trkpt>
      <trkpt lat="45.837239" lon="6.987649"><ele>1731.0</ele></trkpt>
      <trkpt lat="45.836936" lon="6.987633"><ele>1725.8</ele></trkpt>
      <trkpt lat="45.836658" lon="6.987548"><ele>1721.1</ele></trkpt>
      <trkpt lat="45.836427" lon="6.987248"><ele>1714.9</ele></trkpt>
      <trkpt lat="45.835940" lon="6.987072"><ele>1705.9</ele></trkpt>
      <trkpt lat="45.835781" lon="6.986816"><ele>1702.4</ele></trkpt>
      <trkpt lat="45.835523" lon="6.986477"><ele>1696.8</ele></trkpt>
      <trkpt lat="45.835084" lon="6.985684"><ele>1681.9</ele></trkpt>
      <trkpt lat="45.834554" lon="6.984926"><ele>1668.7</ele></trkpt>
      <trkpt lat="45.834349" lon="6.984534"><ele>1662.2</ele></trkpt>
      <trkpt lat="45.834275" lon="6.984237"><ele>1658.8</ele></trkpt>
      <trkpt lat="45.834126" lon="6.984465"><ele>1656.1</ele></trkpt>
      <trkpt lat="45.833958" lon="6.984304"><ele>1652.6</ele></trkpt>
      <trkpt lat="45.833735" lon="6.984355"><ele>1648.3</ele></trkpt>
      <trkpt lat="45.833510" lon="6.984555"><ele>1643.9</ele></trkpt>
      <trkpt lat="45.833293" lon="6.984555"><ele>1637.4</ele></trkpt>
      <trkpt lat="45.833121" lon="6.984375"><ele>1630.7</ele></trkpt>
      <trkpt lat="45.832935" lon="6.984551"><ele>1622.9</ele></trkpt>
      <trkpt lat="45.832800" lon="6.984888"><ele>1616.4</ele></trkpt>
      <trkpt lat="45.832623" lon="6.985170"><ele>1611.3</ele></trkpt>
      <trkpt lat="45.832359" lon="6.984957"><ele>1609.1</ele></trkpt>
    </trkseg>
  </trk>
</gpx>