<?xml version="1.0" encoding="UTF-8"?>
<gpx version="1.1" creator="AlpHD-fetch-route" xmlns="http://www.topografix.com/GPX/1/1">
  <trk>
    <name>Voie normale versant S</name>
    <trkseg>
      <trkpt lat="46.00360039999795" lon="6.945370000001092"><ele>1465.4</ele></trkpt>
      <trkpt lat="46.003975599999386" lon="6.946265700001959"><ele>1479.8</ele></trkpt>
      <trkpt lat="46.00394569999928" lon="6.946531599996551"><ele>1480.3</ele></trkpt>
      <trkpt lat="46.003810399997235" lon="6.9467083999968"><ele>1480.1</ele></trkpt>
      <trkpt lat="46.00374030000173" lon="6.946958099998137"><ele>1479.5</ele></trkpt>
      <trkpt lat="46.00376010000197" lon="6.947227900001588"><ele>1481.0</ele></trkpt>
      <trkpt lat="46.00341399999952" lon="6.947427099996504"><ele>1483.2</ele></trkpt>
      <trkpt lat="46.003305699998776" lon="6.947634200000605"><ele>1486.5</ele></trkpt>
      <trkpt lat="46.00265709999705" lon="6.948141400003028"><ele>1486.0</ele></trkpt>
      <trkpt lat="46.002471799998744" lon="6.948181499997809"><ele>1486.0</ele></trkpt>
      <trkpt lat="46.002451399997184" lon="6.948443500001513"><ele>1488.1</ele></trkpt>
      <trkpt lat="46.00333939999913" lon="6.950777100004071"><ele>1519.3</ele></trkpt>
      <trkpt lat="46.00401789999717" lon="6.952380599999697"><ele>1546.6</ele></trkpt>
      <trkpt lat="46.00441919999741" lon="6.953580600000128"><ele>1563.3</ele></trkpt>
      <trkpt lat="46.00453120000141" lon="6.954075700001101"><ele>1573.8</ele></trkpt>
      <trkpt lat="46.00462539999969" lon="6.954867000000519"><ele>1584.5</ele></trkpt>
      <trkpt lat="46.00459020000275" lon="6.955937200000098"><ele>1588.5</ele></trkpt>
      <trkpt lat="46.00468349999941" lon="6.956170900000112"><ele>1589.3</ele></trkpt>
      <trkpt lat="46.004651900001925" lon="6.9566968999987004"><ele>1597.7</ele></trkpt>
      <trkpt lat="46.00475289999859" lon="6.956924599998218"><ele>1599.2</ele></trkpt>
      <trkpt lat="46.004728499999636" lon="6.957447400000134"><ele>1614.5</ele></trkpt>
      <trkpt lat="46.00491300000159" lon="6.9574818999962496"><ele>1627.7</ele></trkpt>
      <trkpt lat="46.00497450000277" lon="6.9580030999998295"><ele>1662.5</ele></trkpt>
      <trkpt lat="46.00484379999767" lon="6.958496200000637"><ele>1689.0</ele></trkpt>
      <trkpt lat="46.00477599999863" lon="6.959281700000474"><ele>1705.0</ele></trkpt>
      <trkpt lat="46.00458090000305" lon="6.959724100002926"><ele>1708.0</ele></trkpt>
      <trkpt lat="46.00440690000272" lon="6.959807299997232"><ele>1713.5</ele></trkpt>
      <trkpt lat="46.004260199998335" lon="6.959974900000313"><ele>1716.2</ele></trkpt>
      <trkpt lat="46.00440400000297" lon="6.960140700004145"><ele>1726.7</ele></trkpt>
      <trkpt lat="46.00438250000091" lon="6.960398599998076"><ele>1736.3</ele></trkpt>
      <trkpt lat="46.00423840000213" lon="6.960880400001092"><ele>1753.8</ele></trkpt>
      <trkpt lat="46.00436490000285" lon="6.961639399996491"><ele>1802.3</ele></trkpt>
      <trkpt lat="46.004506900002156" lon="6.96180049999679"><ele>1813.9</ele></trkpt>
      <trkpt lat="46.00447300000001" lon="6.962055599995879"><ele>1825.5</ele></trkpt>
      <trkpt lat="46.004518399999775" lon="6.962575200001123"><ele>1849.9</ele></trkpt>
      <trkpt lat="46.004411699998535" lon="6.962790299996905"><ele>1862.7</ele></trkpt>
      <trkpt lat="46.00445080000303" lon="6.963044500000861"><ele>1877.3</ele></trkpt>
      <trkpt lat="46.00409999999837" lon="6.963147300003973"><ele>1911.9</ele></trkpt>
      <trkpt lat="46.004186299997244" lon="6.963377699997876"><ele>1920.9</ele></trkpt>
      <trkpt lat="46.0040007000022" lon="6.963360900001876"><ele>1929.4</ele></trkpt>
      <trkpt lat="46.00382949999895" lon="6.96345259999913"><ele>1935.4</ele></trkpt>
      <trkpt lat="46.003330600000226" lon="6.964216199997605"><ele>1966.2</ele></trkpt>
      <trkpt lat="46.00321379999963" lon="6.964423400002166"><ele>1970.1</ele></trkpt>
      <trkpt lat="46.003095699999356" lon="6.965197300002839"><ele>1972.2</ele></trkpt>
      <trkpt lat="46.00284799999825" lon="6.9655655999987145"><ele>1970.8</ele></trkpt>
      <trkpt lat="46.00281709999937" lon="6.965822799998428"><ele>1972.1</ele></trkpt>
      <trkpt lat="46.00251519999955" lon="6.966114500003238"><ele>1977.2</ele></trkpt>
      <trkpt lat="46.002278799999466" lon="6.966513100002968"><ele>1985.7</ele></trkpt>
      <trkpt lat="46.00227679999697" lon="6.966772500003759"><ele>1992.3</ele></trkpt>
      <trkpt lat="46.00201839999995" lon="6.967144900000423"><ele>2010.4</ele></trkpt>
      <trkpt lat="46.00185100000247" lon="6.967249400002328"><ele>2022.2</ele></trkpt>
      <trkpt lat="46.00189889999807" lon="6.967509999999627"><ele>2035.4</ele></trkpt>
      <trkpt lat="46.001846900001404" lon="6.967763600000839"><ele>2044.9</ele></trkpt>
      <trkpt lat="46.001733699997295" lon="6.967972400003734"><ele>2054.7</ele></trkpt>
      <trkpt lat="46.00177119999962" lon="6.968491599998166"><ele>2077.4</ele></trkpt>
      <trkpt lat="46.001710299997995" lon="6.968741199999046"><ele>2088.9</ele></trkpt>
      <trkpt lat="46.00183080000162" lon="6.96923260000106"><ele>2113.3</ele></trkpt>
      <trkpt lat="46.00165009999902" lon="6.970531400004273"><ele>2161.0</ele></trkpt>
      <trkpt lat="46.001651500001046" lon="6.971059000001197"><ele>2188.1</ele></trkpt>
      <trkpt lat="46.00157710000117" lon="6.971595800004271"><ele>2206.9</ele></trkpt>
      <trkpt lat="46.00160370000007" lon="6.972134499998068"><ele>2226.5</ele></trkpt>
      <trkpt lat="46.00141890000298" lon="6.9731440999989225"><ele>2260.5</ele></trkpt>
      <trkpt lat="46.00139669999726" lon="6.973933199997261"><ele>2287.9</ele></trkpt>
      <trkpt lat="46.00125919999876" lon="6.97549570000297"><ele>2335.2</ele></trkpt>
      <trkpt lat="46.001033699997805" lon="6.976763499999128"><ele>2383.0</ele></trkpt>
      <trkpt lat="46.0003521000019" lon="6.979209300002882"><ele>2454.6</ele></trkpt>
      <trkpt lat="45.999698800002484" lon="6.980776600003597"><ele>2499.3</ele></trkpt>
      <trkpt lat="45.99906510000166" lon="6.981759900000928"><ele>2539.5</ele></trkpt>
      <trkpt lat="45.99846410000125" lon="6.983397700000738"><ele>2584.8</ele></trkpt>
      <trkpt lat="45.99794890000168" lon="6.9844754999991485"><ele>2615.0</ele></trkpt>
      <trkpt lat="45.9974832999998" lon="6.985292499999345"><ele>2639.2</ele></trkpt>
      <trkpt lat="45.99704719999835" lon="6.985760700003034"><ele>2661.5</ele></trkpt>
      <trkpt lat="45.99697560000136" lon="6.986000300003087"><ele>2672.2</ele></trkpt>
      <trkpt lat="45.99713339999806" lon="6.986143100000524"><ele>2675.2</ele></trkpt>
      <trkpt lat="45.997205999999274" lon="6.98638179999646"><ele>2685.6</ele></trkpt>
      <trkpt lat="45.997028200000344" lon="6.9864628999991245"><ele>2696.2</ele></trkpt>
      <trkpt lat="45.996858300000696" lon="6.986364199996801"><ele>2701.7</ele></trkpt>
      <trkpt lat="45.99670319999891" lon="6.986510900003095"><ele>2702.2</ele></trkpt>
      <trkpt lat="45.99676990000284" lon="6.986148799999648"><ele>2701.1</ele></trkpt>
      <trkpt lat="45.99672950000306" lon="6.986540300002831"><ele>2701.7</ele></trkpt>
      <trkpt lat="45.99643259999938" lon="6.986831699997287"><ele>2697.5</ele></trkpt>
      <trkpt lat="45.996260599997925" lon="6.986923799996371"><ele>2686.8</ele></trkpt>
      <trkpt lat="45.99589799999864" lon="6.986950800003095"><ele>2669.8</ele></trkpt>
      <trkpt lat="45.99555780000229" lon="6.987141100002215"><ele>2655.5</ele></trkpt>
      <trkpt lat="45.99497969999922" lon="6.987762399996558"><ele>2662.6</ele></trkpt>
      <trkpt lat="45.99424520000218" lon="6.98929029999671"><ele>2674.2</ele></trkpt>
      <trkpt lat="45.993932899997496" lon="6.990256399996213"><ele>2678.8</ele></trkpt>
      <trkpt lat="45.99377670000289" lon="6.990401100002341"><ele>2679.6</ele></trkpt>
      <trkpt lat="45.993591800002584" lon="6.99040660000055"><ele>2682.3</ele></trkpt>
      <trkpt lat="45.993071799999704" lon="6.9906690999975565"><ele>2684.4</ele></trkpt>
      <trkpt lat="45.99257160000137" lon="6.991018299995894"><ele>2685.9</ele></trkpt>
      <trkpt lat="45.992201199998604" lon="6.991098700004341"><ele>2691.8</ele></trkpt>
      <trkpt lat="45.99138120000212" lon="6.99173359999801"><ele>2702.2</ele></trkpt>
      <trkpt lat="45.99081800000225" lon="6.991745699999461"><ele>2711.7</ele></trkpt>
      <trkpt lat="45.99031939999797" lon="6.991397999999"><ele>2719.4</ele></trkpt>
      <trkpt lat="45.98923959999777" lon="6.991738500002458"><ele>2746.2</ele></trkpt>
      <trkpt lat="45.988507199999184" lon="6.991817499995518"><ele>2765.5</ele></trkpt>
      <trkpt lat="45.987777899999955" lon="6.991613999998899"><ele>2777.7</ele></trkpt>
      <trkpt lat="45.98675840000175" lon="6.991018699997724"><ele>2802.2</ele></trkpt>
      <trkpt lat="45.98657390000003" lon="6.9910047999970235"><ele>2809.8</ele></trkpt>
      <trkpt lat="45.98605749999781" lon="6.990694100004116"><ele>2819.1</ele></trkpt>
      <trkpt lat="45.985699900001435" lon="6.990565800001139"><ele>2828.6</ele></trkpt>
      <trkpt lat="45.98461099999896" lon="6.990486799999098"><ele>2850.7</ele></trkpt>
      <trkpt lat="45.9842536000026" lon="6.9905874000011305"><ele>2856.9</ele></trkpt>
      <trkpt lat="45.98408790000053" lon="6.990707500002529"><ele>2862.2</ele></trkpt>
      <trkpt lat="45.984015500000254" lon="6.990949699996509"><ele>2866.1</ele></trkpt>
      <trkpt lat="45.98415070000206" lon="6.9914516000016365"><ele>2876.2</ele></trkpt>
      <trkpt lat="45.984057800001715" lon="6.991678499997495"><ele>2880.5</ele></trkpt>
      <trkpt lat="45.98375849999816" lon="6.991385300003789"><ele>2876.4</ele></trkpt>
      <trkpt lat="45.98365249999792" lon="6.991596499999698"><ele>2880.4</ele></trkpt>
      <trkpt lat="45.98369359999705" lon="6.991863700000237"><ele>2881.3</ele></trkpt>
      <trkpt lat="45.983550000002246" lon="6.9920198999960865"><ele>2883.4</ele></trkpt>
      <trkpt lat="45.98291789999903" lon="6.992546399996962"><ele>2881.1</ele></trkpt>
      <trkpt lat="45.98157619999981" lon="6.993411099999756"><ele>2904.4</ele></trkpt>
      <trkpt lat="45.98103270000221" lon="6.993519400001078"><ele>2919.9</ele></trkpt>
      <trkpt lat="45.980484999998524" lon="6.99350430000387"><ele>2927.2</ele></trkpt>
      <trkpt lat="45.98011530000142" lon="6.99357090000309"><ele>2932.5</ele></trkpt>
      <trkpt lat="45.97994760000044" lon="6.993678900003039"><ele>2933.6</ele></trkpt>
      <trkpt lat="45.97905060000143" lon="6.99391640000247"><ele>2952.1</ele></trkpt>
      <trkpt lat="45.9785218000008" lon="6.994136799995546"><ele>2970.4</ele></trkpt>
      <trkpt lat="45.97834610000071" lon="6.9940733000015225"><ele>2973.8</ele></trkpt>
      <trkpt lat="45.9780062000026" lon="6.993440099997664"><ele>2994.8</ele></trkpt>
      <trkpt lat="45.97782190000235" lon="6.993453200003687"><ele>2999.2</ele></trkpt>
      <trkpt lat="45.977149599998555" lon="6.993890500000777"><ele>3032.0</ele></trkpt>
      <trkpt lat="45.97701880000288" lon="6.994084399998399"><ele>3046.8</ele></trkpt>
      <trkpt lat="45.97669629999738" lon="6.994343499997819"><ele>3065.5</ele></trkpt>
      <trkpt lat="45.97657750000066" lon="6.994543799997765"><ele>3071.5</ele></trkpt>
      <trkpt lat="45.97651919999719" lon="6.994793399998646"><ele>3082.0</ele></trkpt>
      <trkpt lat="45.97636140000207" lon="6.994922000002994"><ele>3107.8</ele></trkpt>
      <trkpt lat="45.976054000003124" lon="6.994628099997102"><ele>3124.7</ele></trkpt>
      <trkpt lat="45.97551640000088" lon="6.994683099997159"><ele>3160.5</ele></trkpt>
      <trkpt lat="45.97537750000256" lon="6.994512099996491"><ele>3171.7</ele></trkpt>
      <trkpt lat="45.975017099997075" lon="6.99443159999657"><ele>3189.1</ele></trkpt>
      <trkpt lat="45.974673299997285" lon="6.994227699998123"><ele>3189.2</ele></trkpt>
      <trkpt lat="45.974533400000645" lon="6.994392599997838"><ele>3193.2</ele></trkpt>
      <trkpt lat="45.974460600003034" lon="6.9946351000021725"><ele>3203.6</ele></trkpt>
      <trkpt lat="45.97443759999814" lon="6.994895599999014"><ele>3207.9</ele></trkpt>
      <trkpt lat="45.97451249999759" lon="6.995417999999099"><ele>3216.7</ele></trkpt>
      <trkpt lat="45.97433780000302" lon="6.995342699996016"><ele>3220.7</ele></trkpt>
      <trkpt lat="45.97400920000076" lon="6.995561800001112"><ele>3235.4</ele></trkpt>
      <trkpt lat="45.97383220000066" lon="6.995505999997395"><ele>3239.9</ele></trkpt>
      <trkpt lat="45.97370229999728" lon="6.995309899998693"><ele>3239.3</ele></trkpt>
      <trkpt lat="45.97338360000039" lon="6.99555600000153"><ele>3246.1</ele></trkpt>
      <trkpt lat="45.97301390000026" lon="6.995636200000079"><ele>3255.7</ele></trkpt>
      <trkpt lat="45.97283130000092" lon="6.99560609999714"><ele>3258.0</ele></trkpt>
      <trkpt lat="45.97265110000071" lon="6.9960592000036215"><ele>3273.4</ele></trkpt>
      <trkpt lat="45.97246939999817" lon="6.996115700001557"><ele>3280.2</ele></trkpt>
      <trkpt lat="45.97233280000278" lon="6.996292400001349"><ele>3288.6</ele></trkpt>
      <trkpt lat="45.971821799997926" lon="6.99660779999779"><ele>3304.2</ele></trkpt>
      <trkpt lat="45.971562700002224" lon="6.996973499999739"><ele>3326.8</ele></trkpt>
      <trkpt lat="45.9712238999971" lon="6.997174100001058"><ele>3348.3</ele></trkpt>
      <trkpt lat="45.97109359999957" lon="6.997357499995564"><ele>3361.9</ele></trkpt>
      <trkpt lat="45.97091779999749" lon="6.9974140000024825"><ele>3372.1</ele></trkpt>
      <trkpt lat="45.97076919999924" lon="6.997572600000328"><ele>3384.2</ele></trkpt>
      <trkpt lat="45.97021420000212" lon="6.998258400002251"><ele>3430.7</ele></trkpt>
      <trkpt lat="45.970008799999135" lon="6.998690200001133"><ele>3491.1</ele></trkpt>
      <trkpt lat="45.96964789999766" lon="6.998716799997044"><ele>3616.9</ele></trkpt>
      <trkpt lat="45.96947439999953" lon="6.998786400001004"><ele>3631.0</ele></trkpt>
      <trkpt lat="45.96933049999909" lon="6.998950399996601"><ele>3641.7</ele></trkpt>
      <trkpt lat="45.96897499999902" lon="6.999076299997582"><ele>3670.3</ele></trkpt>
      <trkpt lat="45.968877299998205" lon="6.999293999996272"><ele>3720.1</ele></trkpt>
      <trkpt lat="45.96864740000219" lon="7.000606499999272"><ele>3807.0</ele></trkpt>
      <trkpt lat="45.96885239999772" lon="7.001036099997072"><ele>3818.4</ele></trkpt>
    </trkseg>
  </trk>
</gpx>
