<?xml version="1.0" encoding="UTF-8"?>
<gpx version="1.1" creator="AlpHD-fetch-route" xmlns="http://www.topografix.com/GPX/1/1">
  <trk>
    <name>Arête Forbes</name>
    <trkseg>
      <trkpt lat="45.996168999999995" lon="6.9868040000000065"><ele>2611.0</ele></trkpt>
      <trkpt lat="45.99614499999998" lon="6.987015000000001"><ele>2682.0</ele></trkpt>
      <trkpt lat="45.99592699999998" lon="6.986917999999999"><ele>2671.0</ele></trkpt>
      <trkpt lat="45.995524999999994" lon="6.987114000000011"><ele>2663.0</ele></trkpt>
      <trkpt lat="45.995297999999984" lon="6.987576000000006"><ele>2670.0</ele></trkpt>
      <trkpt lat="45.994951" lon="6.987845000000001"><ele>2673.0</ele></trkpt>
      <trkpt lat="45.994586999999996" lon="6.987996999999991"><ele>2679.0</ele></trkpt>
      <trkpt lat="45.994318000000014" lon="6.988437"><ele>2684.0</ele></trkpt>
      <trkpt lat="45.99417199999999" lon="6.988904999999994"><ele>2686.0</ele></trkpt>
      <trkpt lat="45.993717" lon="6.989250999999988"><ele>2692.0</ele></trkpt>
      <trkpt lat="45.993627" lon="6.989668000000008"><ele>2696.0</ele></trkpt>
      <trkpt lat="45.99367899999999" lon="6.989978999999992"><ele>2698.0</ele></trkpt>
      <trkpt lat="45.993132" lon="6.991058000000008"><ele>2704.0</ele></trkpt>
      <trkpt lat="45.992952999999986" lon="6.991796"><ele>2710.0</ele></trkpt>
      <trkpt lat="45.992798" lon="6.992126000000007"><ele>2715.0</ele></trkpt>
      <trkpt lat="45.99282900000001" lon="6.992172000000011"><ele>2719.0</ele></trkpt>
      <trkpt lat="45.992771" lon="6.992404000000012"><ele>2723.0</ele></trkpt>
      <trkpt lat="45.992616" lon="6.99276499999999"><ele>2733.0</ele></trkpt>
      <trkpt lat="45.992132999999995" lon="6.993568999999988"><ele>2756.0</ele></trkpt>
      <trkpt lat="45.99117100000001" lon="6.994135000000012"><ele>2766.0</ele></trkpt>
      <trkpt lat="45.99096099999999" lon="6.994356999999999"><ele>2777.0</ele></trkpt>
      <trkpt lat="45.990674" lon="6.994520000000008"><ele>2788.0</ele></trkpt>
      <trkpt lat="45.990745000000004" lon="6.994777000000006"><ele>2796.0</ele></trkpt>
      <trkpt lat="45.99074799999999" lon="6.995121999999997"><ele>2803.0</ele></trkpt>
      <trkpt lat="45.990521999999984" lon="6.995176000000007"><ele>2807.0</ele></trkpt>
      <trkpt lat="45.990152" lon="6.995076999999997"><ele>2806.0</ele></trkpt>
      <trkpt lat="45.98982299999999" lon="6.995228000000008"><ele>2816.0</ele></trkpt>
      <trkpt lat="45.98937600000001" lon="6.9955630000000095"><ele>2836.0</ele></trkpt>
      <trkpt lat="45.98928099999999" lon="6.995758999999996"><ele>2844.0</ele></trkpt>
      <trkpt lat="45.988737" lon="6.996380000000009"><ele>2868.0</ele></trkpt>
      <trkpt lat="45.988151" lon="6.997714999999996"><ele>2905.0</ele></trkpt>
      <trkpt lat="45.98828700000001" lon="6.997914999999997"><ele>2913.0</ele></trkpt>
      <trkpt lat="45.988158" lon="6.998680999999999"><ele>2939.0</ele></trkpt>
      <trkpt lat="45.98838799999999" lon="6.998788999999992"><ele>2946.0</ele></trkpt>
      <trkpt lat="45.98846" lon="6.999038999999989"><ele>2954.0</ele></trkpt>
      <trkpt lat="45.988081999999984" lon="6.999735999999997"><ele>2978.0</ele></trkpt>
      <trkpt lat="45.988146999999984" lon="6.999901999999992"><ele>2984.0</ele></trkpt>
      <trkpt lat="45.988358000000005" lon="7.0001159999999985"><ele>2993.0</ele></trkpt>
      <trkpt lat="45.988116999999995" lon="7.000711000000009"><ele>3010.0</ele></trkpt>
      <trkpt lat="45.987907" lon="7.00144599999999"><ele>3027.0</ele></trkpt>
      <trkpt lat="45.987172" lon="7.003287999999996"><ele>3063.0</ele></trkpt>
      <trkpt lat="45.98700999999999" lon="7.004431000000012"><ele>3081.0</ele></trkpt>
      <trkpt lat="45.98651899999998" lon="7.005778999999999"><ele>3090.0</ele></trkpt>
      <trkpt lat="45.985910999999994" lon="7.006769999999998"><ele>3104.0</ele></trkpt>
      <trkpt lat="45.985512" lon="7.007158000000005"><ele>3109.0</ele></trkpt>
      <trkpt lat="45.984993999999986" lon="7.007483999999997"><ele>3112.0</ele></trkpt>
      <trkpt lat="45.98395999999999" lon="7.007808000000005"><ele>3125.0</ele></trkpt>
      <trkpt lat="45.982704999999996" lon="7.007872000000004"><ele>3148.0</ele></trkpt>
      <trkpt lat="45.981858" lon="7.007737000000005"><ele>3172.0</ele></trkpt>
      <trkpt lat="45.98109199999998" lon="7.007382000000001"><ele>3197.0</ele></trkpt>
      <trkpt lat="45.97953299999999" lon="7.007569000000002"><ele>3223.0</ele></trkpt>
      <trkpt lat="45.978569" lon="7.008072000000007"><ele>3234.0</ele></trkpt>
      <trkpt lat="45.977976" lon="7.008149000000006"><ele>3235.0</ele></trkpt>
      <trkpt lat="45.97732399999999" lon="7.007911000000006"><ele>3232.0</ele></trkpt>
      <trkpt lat="45.97668799999999" lon="7.007893000000011"><ele>3230.0</ele></trkpt>
      <trkpt lat="45.975305999999996" lon="7.0075669999999946"><ele>3226.0</ele></trkpt>
      <trkpt lat="45.97463499999999" lon="7.006687"><ele>3223.0</ele></trkpt>
      <trkpt lat="45.974305999999984" lon="7.006973999999991"><ele>3237.0</ele></trkpt>
      <trkpt lat="45.973913999999986" lon="7.006765000000004"><ele>3254.0</ele></trkpt>
      <trkpt lat="45.97381899999999" lon="7.006927000000009"><ele>3263.0</ele></trkpt>
      <trkpt lat="45.973641" lon="7.006812000000012"><ele>3271.0</ele></trkpt>
      <trkpt lat="45.97336499999998" lon="7.006803000000002"><ele>3288.0</ele></trkpt>
      <trkpt lat="45.97332799999998" lon="7.006952000000005"><ele>3296.0</ele></trkpt>
      <trkpt lat="45.97337499999999" lon="7.007251999999995"><ele>3308.0</ele></trkpt>
      <trkpt lat="45.973255" lon="7.007430999999991"><ele>3322.0</ele></trkpt>
      <trkpt lat="45.973169999999996" lon="7.00770099999999"><ele>3345.0</ele></trkpt>
      <trkpt lat="45.973214" lon="7.008084000000003"><ele>3359.0</ele></trkpt>
      <trkpt lat="45.972476999999984" lon="7.009124999999997"><ele>3415.0</ele></trkpt>
      <trkpt lat="45.97229800000001" lon="7.00924400000001"><ele>3421.0</ele></trkpt>
      <trkpt lat="45.972116" lon="7.0091990000000095"><ele>3429.0</ele></trkpt>
      <trkpt lat="45.97195099999999" lon="7.009052999999993"><ele>3437.0</ele></trkpt>
      <trkpt lat="45.971778" lon="7.009150999999998"><ele>3445.0</ele></trkpt>
      <trkpt lat="45.971664999999994" lon="7.00903299999999"><ele>3451.0</ele></trkpt>
      <trkpt lat="45.97160099999998" lon="7.0087589999999995"><ele>3453.0</ele></trkpt>
      <trkpt lat="45.971558999999985" lon="7.008345999999996"><ele>3461.0</ele></trkpt>
      <trkpt lat="45.97162699999998" lon="7.007797999999992"><ele>3467.0</ele></trkpt>
      <trkpt lat="45.97175699999999" lon="7.007328999999995"><ele>3479.0</ele></trkpt>
      <trkpt lat="45.97200200000001" lon="7.007112000000002"><ele>3491.0</ele></trkpt>
      <trkpt lat="45.97158999999998" lon="7.007172999999988"><ele>3503.0</ele></trkpt>
      <trkpt lat="45.97129499999999" lon="7.007114999999987"><ele>3524.0</ele></trkpt>
      <trkpt lat="45.97108299999998" lon="7.006977000000002"><ele>3545.0</ele></trkpt>
      <trkpt lat="45.970692" lon="7.006514000000004"><ele>3585.0</ele></trkpt>
      <trkpt lat="45.97048100000001" lon="7.006549999999993"><ele>3600.0</ele></trkpt>
      <trkpt lat="45.96960799999999" lon="7.007411999999992"><ele>3645.0</ele></trkpt>
      <trkpt lat="45.96915199999998" lon="7.0069840000000045"><ele>3673.0</ele></trkpt>
      <trkpt lat="45.968999" lon="7.006498999999995"><ele>3694.0</ele></trkpt>
      <trkpt lat="45.969028999999985" lon="7.0062719999999885"><ele>3711.0</ele></trkpt>
      <trkpt lat="45.968968000000004" lon="7.00616800000001"><ele>3719.0</ele></trkpt>
      <trkpt lat="45.968971999999994" lon="7.005897000000007"><ele>3719.0</ele></trkpt>
      <trkpt lat="45.969039" lon="7.0057890000000125"><ele>3715.0</ele></trkpt>
      <trkpt lat="45.96898" lon="7.005712999999992"><ele>3712.0</ele></trkpt>
      <trkpt lat="45.968886000000005" lon="7.005120999999992"><ele>3731.0</ele></trkpt>
      <trkpt lat="45.96890899999999" lon="7.004867000000005"><ele>3738.0</ele></trkpt>
      <trkpt lat="45.96885599999999" lon="7.004612999999993"><ele>3759.0</ele></trkpt>
      <trkpt lat="45.968916" lon="7.004347999999989"><ele>3760.0</ele></trkpt>
      <trkpt lat="45.968832000000006" lon="7.003999000000008"><ele>3766.0</ele></trkpt>
      <trkpt lat="45.96894399999998" lon="7.003728000000005"><ele>3766.0</ele></trkpt>
      <trkpt lat="45.968817999999985" lon="7.00356200000001"><ele>3772.0</ele></trkpt>
      <trkpt lat="45.96887499999999" lon="7.003515000000003"><ele>3774.0</ele></trkpt>
      <trkpt lat="45.96883600000001" lon="7.003479999999992"><ele>3778.0</ele></trkpt>
      <trkpt lat="45.968881999999994" lon="7.003290000000003"><ele>3777.0</ele></trkpt>
      <trkpt lat="45.968834999999984" lon="7.003080999999992"><ele>3787.0</ele></trkpt>
      <trkpt lat="45.968952999999985" lon="7.002753999999996"><ele>3795.0</ele></trkpt>
      <trkpt lat="45.96897299999999" lon="7.002299000000004"><ele>3801.0</ele></trkpt>
      <trkpt lat="45.96891900000001" lon="7.0021949999999995"><ele>3806.0</ele></trkpt>
      <trkpt lat="45.968883" lon="7.001668000000002"><ele>3814.0</ele></trkpt>
      <trkpt lat="45.96879699999999" lon="7.001632000000012"><ele>3817.0</ele></trkpt>
      <trkpt lat="45.96885099999999" lon="7.001391000000001"><ele>3824.0</ele></trkpt>
    </trkseg>
  </trk>
</gpx>
