<?xml version="1.0" encoding="UTF-8"?>
<gpx version="1.1" creator="AlpHD-batch" xmlns="http://www.topografix.com/GPX/1/1">
  <trk>
    <name>Contamine - Grisolle</name>
    <trkseg>
      <trkpt lat="45.8742364" lon="6.8889134"><ele>3522.5</ele></trkpt>
      <trkpt lat="45.8742328" lon="6.8889130"><ele>3522.0</ele></trkpt>
      <trkpt lat="45.8739651" lon="6.8888859"><ele>3521.5</ele></trkpt>
      <trkpt lat="45.8736959" lon="6.8888597"><ele>3521.1</ele></trkpt>
      <trkpt lat="45.8735180" lon="6.8888383"><ele>3520.8</ele></trkpt>
      <trkpt lat="45.8732516" lon="6.8888046"><ele>3519.9</ele></trkpt>
      <trkpt lat="45.8729840" lon="6.8887716"><ele>3519.0</ele></trkpt>
      <trkpt lat="45.8727152" lon="6.8887386"><ele>3518.4</ele></trkpt>
      <trkpt lat="45.8724464" lon="6.8887055"><ele>3518.1</ele></trkpt>
      <trkpt lat="45.8721717" lon="6.8886750"><ele>3517.8</ele></trkpt>
      <trkpt lat="45.8719051" lon="6.8886403"><ele>3517.6</ele></trkpt>
      <trkpt lat="45.8716397" lon="6.8886443"><ele>3517.5</ele></trkpt>
      <trkpt lat="45.8713675" lon="6.8886494"><ele>3517.5</ele></trkpt>
      <trkpt lat="45.8710977" lon="6.8886541"><ele>3517.7</ele></trkpt>
      <trkpt lat="45.8708268" lon="6.8886594"><ele>3517.9</ele></trkpt>
      <trkpt lat="45.8705568" lon="6.8886643"><ele>3518.2</ele></trkpt>
      <trkpt lat="45.8702889" lon="6.8886683"><ele>3518.4</ele></trkpt>
      <trkpt lat="45.8700190" lon="6.8886731"><ele>3518.7</ele></trkpt>
      <trkpt lat="45.8699145" lon="6.8887032"><ele>3519.1</ele></trkpt>
      <trkpt lat="45.8696498" lon="6.8887791"><ele>3519.4</ele></trkpt>
      <trkpt lat="45.8693852" lon="6.8888549"><ele>3519.8</ele></trkpt>
      <trkpt lat="45.8691206" lon="6.8889307"><ele>3520.2</ele></trkpt>
      <trkpt lat="45.8688560" lon="6.8890066"><ele>3520.9</ele></trkpt>
      <trkpt lat="45.8685914" lon="6.8890824"><ele>3521.6</ele></trkpt>
      <trkpt lat="45.8683995" lon="6.8891039"><ele>3522.5</ele></trkpt>
      <trkpt lat="45.8681297" lon="6.8891342"><ele>3523.4</ele></trkpt>
      <trkpt lat="45.8678606" lon="6.8891641"><ele>3524.5</ele></trkpt>
      <trkpt lat="45.8675915" lon="6.8891941"><ele>3525.6</ele></trkpt>
      <trkpt lat="45.8673232" lon="6.8892239"><ele>3527.1</ele></trkpt>
      <trkpt lat="45.8673028" lon="6.8892295"><ele>3528.7</ele></trkpt>
      <trkpt lat="45.8670386" lon="6.8893037"><ele>3530.7</ele></trkpt>
      <trkpt lat="45.8670268" lon="6.8893056"><ele>3532.4</ele></trkpt>
      <trkpt lat="45.8667609" lon="6.8893496"><ele>3534.4</ele></trkpt>
      <trkpt lat="45.8664835" lon="6.8894013"><ele>3536.8</ele></trkpt>
      <trkpt lat="45.8663576" lon="6.8894558"><ele>3539.2</ele></trkpt>
      <trkpt lat="45.8662708" lon="6.8895475"><ele>3541.4</ele></trkpt>
      <trkpt lat="45.8660507" lon="6.8897823"><ele>3544.7</ele></trkpt>
      <trkpt lat="45.8658404" lon="6.8900233"><ele>3548.3</ele></trkpt>
      <trkpt lat="45.8658311" lon="6.8900254"><ele>3551.7</ele></trkpt>
      <trkpt lat="45.8658257" lon="6.8900285"><ele>3556.3</ele></trkpt>
      <trkpt lat="45.8655732" lon="6.8901689"><ele>3562.7</ele></trkpt>
      <trkpt lat="45.8654111" lon="6.8901411"><ele>3570.7</ele></trkpt>
      <trkpt lat="45.8654104" lon="6.8901408"><ele>3578.6</ele></trkpt>
      <trkpt lat="45.8651587" lon="6.8899994"><ele>3589.4</ele></trkpt>
      <trkpt lat="45.8649194" lon="6.8898617"><ele>3602.8</ele></trkpt>
      <trkpt lat="45.8647409" lon="6.8896665"><ele>3615.1</ele></trkpt>
      <trkpt lat="45.8647149" lon="6.8896245"><ele>3629.3</ele></trkpt>
      <trkpt lat="45.8645627" lon="6.8892932"><ele>3645.3</ele></trkpt>
      <trkpt lat="45.8644065" lon="6.8889796"><ele>3660.2</ele></trkpt>
      <trkpt lat="45.8643994" lon="6.8889696"><ele>3674.1</ele></trkpt>
      <trkpt lat="45.8642077" lon="6.8887222"><ele>3686.2</ele></trkpt>
      <trkpt lat="45.8641362" lon="6.8886547"><ele>3697.7</ele></trkpt>
      <trkpt lat="45.8640169" lon="6.8884765"><ele>3714.4</ele></trkpt>
      <trkpt lat="45.8640242" lon="6.8885407"><ele>3730.8</ele></trkpt>
      <trkpt lat="45.8640002" lon="6.8885446"><ele>3749.4</ele></trkpt>
      <trkpt lat="45.8639002" lon="6.8884787"><ele>3769.8</ele></trkpt>
      <trkpt lat="45.8636567" lon="6.8883296"><ele>3791.3</ele></trkpt>
      <trkpt lat="45.8634568" lon="6.8882727"><ele>3815.1</ele></trkpt>
      <trkpt lat="45.8633088" lon="6.8883182"><ele>3841.1</ele></trkpt>
      <trkpt lat="45.8630448" lon="6.8883901"><ele>3867.6</ele></trkpt>
      <trkpt lat="45.8628777" lon="6.8881547"><ele>3896.6</ele></trkpt>
      <trkpt lat="45.8626975" lon="6.8878952"><ele>3919.3</ele></trkpt>
      <trkpt lat="45.8625034" lon="6.8877538"><ele>3942.1</ele></trkpt>
      <trkpt lat="45.8623813" lon="6.8877345"><ele>3963.3</ele></trkpt>
      <trkpt lat="45.8621048" lon="6.8877264"><ele>3981.7</ele></trkpt>
      <trkpt lat="45.8618343" lon="6.8877192"><ele>3997.7</ele></trkpt>
      <trkpt lat="45.8615669" lon="6.8877094"><ele>4011.9</ele></trkpt>
      <trkpt lat="45.8614209" lon="6.8876434"><ele>4024.5</ele></trkpt>
      <trkpt lat="45.8611648" lon="6.8875348"><ele>4037.5</ele></trkpt>
      <trkpt lat="45.8610602" lon="6.8875226"><ele>4048.8</ele></trkpt>
      <trkpt lat="45.8607916" lon="6.8874796"><ele>4058.9</ele></trkpt>
      <trkpt lat="45.8605380" lon="6.8874382"><ele>4066.9</ele></trkpt>
      <trkpt lat="45.8603057" lon="6.8873552"><ele>4071.6</ele></trkpt>
      <trkpt lat="45.8600870" lon="6.8872099"><ele>4075.6</ele></trkpt>
      <trkpt lat="45.8598293" lon="6.8870412"><ele>4080.2</ele></trkpt>
      <trkpt lat="45.8597014" lon="6.8869006"><ele>4084.5</ele></trkpt>
    </trkseg>
  </trk>
</gpx>