<?xml version="1.0" encoding="UTF-8"?>
<gpx version="1.1" creator="AlpHD" xmlns="http://www.topografix.com/GPX/1/1">
  <trk>
    <name>Mont Blanc du Tacul — Contamine-Négri</name>
    <trkseg>
      <trkpt lat="45.878790" lon="6.887910"><ele>3813.2</ele></trkpt>
      <trkpt lat="45.879066" lon="6.887937"><ele>3812.0</ele></trkpt>
      <trkpt lat="45.878976" lon="6.888480"><ele>3794.6</ele></trkpt>
      <trkpt lat="45.879184" lon="6.888589"><ele>3781.4</ele></trkpt>
      <trkpt lat="45.879907" lon="6.889652"><ele>3740.0</ele></trkpt>
      <trkpt lat="45.880272" lon="6.889960"><ele>3722.0</ele></trkpt>
      <trkpt lat="45.880150" lon="6.890225"><ele>3712.0</ele></trkpt>
      <trkpt lat="45.879722" lon="6.890874"><ele>3695.0</ele></trkpt>
      <trkpt lat="45.879434" lon="6.891215"><ele>3682.8</ele></trkpt>
      <trkpt lat="45.879264" lon="6.891328"><ele>3678.4</ele></trkpt>
      <trkpt lat="45.879075" lon="6.891514"><ele>3657.6</ele></trkpt>
      <trkpt lat="45.878934" lon="6.891118"><ele>3646.8</ele></trkpt>
      <trkpt lat="45.878480" lon="6.890726"><ele>3630.2</ele></trkpt>
      <trkpt lat="45.876723" lon="6.890102"><ele>3604.0</ele></trkpt>
      <trkpt lat="45.874538" lon="6.889705"><ele>3571.6</ele></trkpt>
      <trkpt lat="45.873882" lon="6.889690"><ele>3558.8</ele></trkpt>
      <trkpt lat="45.873008" lon="6.889811"><ele>3546.6</ele></trkpt>
      <trkpt lat="45.872650" lon="6.889712"><ele>3543.6</ele></trkpt>
      <trkpt lat="45.872288" lon="6.889746"><ele>3542.2</ele></trkpt>
      <trkpt lat="45.870326" lon="6.890477"><ele>3537.8</ele></trkpt>
      <trkpt lat="45.869626" lon="6.890858"><ele>3539.0</ele></trkpt>
      <trkpt lat="45.868602" lon="6.891218"><ele>3543.0</ele></trkpt>
      <trkpt lat="45.868381" lon="6.891086"><ele>3545.4</ele></trkpt>
      <trkpt lat="45.867299" lon="6.890083"><ele>3557.8</ele></trkpt>
      <trkpt lat="45.866691" lon="6.889794"><ele>3562.0</ele></trkpt>
      <trkpt lat="45.866176" lon="6.889662"><ele>3567.2</ele></trkpt>
      <trkpt lat="45.865322" lon="6.889731"><ele>3595.0</ele></trkpt>
      <trkpt lat="45.865120" lon="6.889535"><ele>3603.8</ele></trkpt>
      <trkpt lat="45.864970" lon="6.890037"><ele>3618.8</ele></trkpt>
      <trkpt lat="45.864797" lon="6.889818"><ele>3632.0</ele></trkpt>
      <trkpt lat="45.864602" lon="6.890069"><ele>3642.2</ele></trkpt>
      <trkpt lat="45.864605" lon="6.889805"><ele>3650.4</ele></trkpt>
      <trkpt lat="45.864339" lon="6.890317"><ele>3661.6</ele></trkpt>
      <trkpt lat="45.864285" lon="6.889986"><ele>3665.8</ele></trkpt>
      <trkpt lat="45.864010" lon="6.889640"><ele>3709.0</ele></trkpt>
      <trkpt lat="45.863811" lon="6.889578"><ele>3733.8</ele></trkpt>
      <trkpt lat="45.863594" lon="6.889258"><ele>3778.6</ele></trkpt>
      <trkpt lat="45.863197" lon="6.889040"><ele>3843.6</ele></trkpt>
      <trkpt lat="45.863069" lon="6.888766"><ele>3865.0</ele></trkpt>
      <trkpt lat="45.863091" lon="6.888483"><ele>3889.4</ele></trkpt>
      <trkpt lat="45.862934" lon="6.888790"><ele>3884.4</ele></trkpt>
      <trkpt lat="45.862790" lon="6.888380"><ele>3912.4</ele></trkpt>
      <trkpt lat="45.862637" lon="6.888210"><ele>3931.8</ele></trkpt>
      <trkpt lat="45.862531" lon="6.887706"><ele>3988.8</ele></trkpt>
      <trkpt lat="45.862058" lon="6.887414"><ele>4028.2</ele></trkpt>
      <trkpt lat="45.861827" lon="6.887570"><ele>4045.4</ele></trkpt>
      <trkpt lat="45.861546" lon="6.887557"><ele>4077.2</ele></trkpt>
      <trkpt lat="45.861328" lon="6.887502"><ele>4081.0</ele></trkpt>
      <trkpt lat="45.861168" lon="6.887665"><ele>4090.0</ele></trkpt>
      <trkpt lat="45.860813" lon="6.887540"><ele>4098.0</ele></trkpt>
      <trkpt lat="45.860208" lon="6.887146"><ele>4115.0</ele></trkpt>
      <trkpt lat="45.860029" lon="6.886991"><ele>4118.8</ele></trkpt>
      <trkpt lat="45.859466" lon="6.886690"><ele>4131.2</ele></trkpt>
      <trkpt lat="45.859168" lon="6.886707"><ele>4152.6</ele></trkpt>
      <trkpt lat="45.858544" lon="6.886623"><ele>4202.8</ele></trkpt>
      <trkpt lat="45.858074" lon="6.886625"><ele>4224.0</ele></trkpt>
      <trkpt lat="45.857670" lon="6.887127"><ele>4229.6</ele></trkpt>
      <trkpt lat="45.857309" lon="6.887386"><ele>4238.2</ele></trkpt>
      <trkpt lat="45.857130" lon="6.887417"><ele>4243.6</ele></trkpt>
      <trkpt lat="45.856694" lon="6.887830"><ele>4271.2</ele></trkpt>
    </trkseg>
  </trk>
</gpx>