<?xml version="1.0" encoding="UTF-8"?>
<gpx version="1.1" creator="AlpHD" xmlns="http://www.topografix.com/GPX/1/1">
  <trk>
    <name>Les Drus — Couloir N Direct</name>
    <trkseg>
      <trkpt lat="45.936527" lon="6.917406"><ele>1741.0</ele></trkpt>
      <trkpt lat="45.936397" lon="6.917688"><ele>1746.2</ele></trkpt>
      <trkpt lat="45.936051" lon="6.917883"><ele>1756.6</ele></trkpt>
      <trkpt lat="45.935852" lon="6.917889"><ele>1764.4</ele></trkpt>
      <trkpt lat="45.935629" lon="6.918001"><ele>1773.0</ele></trkpt>
      <trkpt lat="45.935452" lon="6.918140"><ele>1782.6</ele></trkpt>
      <trkpt lat="45.935167" lon="6.918262"><ele>1794.4</ele></trkpt>
      <trkpt lat="45.934972" lon="6.918236"><ele>1803.0</ele></trkpt>
      <trkpt lat="45.933914" lon="6.918521"><ele>1834.2</ele></trkpt>
      <trkpt lat="45.933645" lon="6.918573"><ele>1835.8</ele></trkpt>
      <trkpt lat="45.933452" lon="6.918611"><ele>1836.8</ele></trkpt>
      <trkpt lat="45.932990" lon="6.918539"><ele>1844.6</ele></trkpt>
      <trkpt lat="45.932724" lon="6.918618"><ele>1850.8</ele></trkpt>
      <trkpt lat="45.932444" lon="6.918532"><ele>1853.8</ele></trkpt>
      <trkpt lat="45.932243" lon="6.918637"><ele>1858.0</ele></trkpt>
      <trkpt lat="45.931616" lon="6.918543"><ele>1863.6</ele></trkpt>
      <trkpt lat="45.931366" lon="6.918545"><ele>1865.8</ele></trkpt>
      <trkpt lat="45.931040" lon="6.918478"><ele>1862.4</ele></trkpt>
      <trkpt lat="45.930781" lon="6.918515"><ele>1861.2</ele></trkpt>
      <trkpt lat="45.930291" lon="6.918510"><ele>1865.0</ele></trkpt>
      <trkpt lat="45.930036" lon="6.918527"><ele>1866.2</ele></trkpt>
      <trkpt lat="45.929816" lon="6.918589"><ele>1867.2</ele></trkpt>
      <trkpt lat="45.929465" lon="6.918791"><ele>1861.6</ele></trkpt>
      <trkpt lat="45.929646" lon="6.918917"><ele>1854.2</ele></trkpt>
      <trkpt lat="45.930303" lon="6.918972"><ele>1836.0</ele></trkpt>
      <trkpt lat="45.929872" lon="6.919342"><ele>1830.0</ele></trkpt>
      <trkpt lat="45.929631" lon="6.919308"><ele>1836.4</ele></trkpt>
      <trkpt lat="45.929451" lon="6.919492"><ele>1830.0</ele></trkpt>
      <trkpt lat="45.929250" lon="6.919741"><ele>1819.2</ele></trkpt>
      <trkpt lat="45.929115" lon="6.920054"><ele>1805.2</ele></trkpt>
      <trkpt lat="45.928908" lon="6.920290"><ele>1789.8</ele></trkpt>
      <trkpt lat="45.928431" lon="6.920357"><ele>1794.6</ele></trkpt>
      <trkpt lat="45.928289" lon="6.920004"><ele>1804.4</ele></trkpt>
      <trkpt lat="45.927425" lon="6.919874"><ele>1811.8</ele></trkpt>
      <trkpt lat="45.927267" lon="6.920001"><ele>1795.6</ele></trkpt>
      <trkpt lat="45.927268" lon="6.920284"><ele>1784.2</ele></trkpt>
      <trkpt lat="45.927264" lon="6.920611"><ele>1764.8</ele></trkpt>
      <trkpt lat="45.927382" lon="6.920975"><ele>1750.6</ele></trkpt>
      <trkpt lat="45.927118" lon="6.921171"><ele>1728.6</ele></trkpt>
      <trkpt lat="45.927022" lon="6.921460"><ele>1709.8</ele></trkpt>
      <trkpt lat="45.926865" lon="6.921612"><ele>1704.2</ele></trkpt>
      <trkpt lat="45.926806" lon="6.921301"><ele>1701.8</ele></trkpt>
      <trkpt lat="45.926773" lon="6.921573"><ele>1702.0</ele></trkpt>
      <trkpt lat="45.926594" lon="6.921707"><ele>1705.6</ele></trkpt>
      <trkpt lat="45.926737" lon="6.922008"><ele>1706.2</ele></trkpt>
      <trkpt lat="45.926840" lon="6.921763"><ele>1706.0</ele></trkpt>
      <trkpt lat="45.926578" lon="6.921564"><ele>1705.2</ele></trkpt>
      <trkpt lat="45.926533" lon="6.921907"><ele>1705.0</ele></trkpt>
      <trkpt lat="45.926748" lon="6.921771"><ele>1705.8</ele></trkpt>
      <trkpt lat="45.926472" lon="6.921910"><ele>1706.2</ele></trkpt>
      <trkpt lat="45.926661" lon="6.921778"><ele>1705.6</ele></trkpt>
      <trkpt lat="45.926571" lon="6.922020"><ele>1707.2</ele></trkpt>
      <trkpt lat="45.926860" lon="6.921562"><ele>1706.8</ele></trkpt>
      <trkpt lat="45.926598" lon="6.921557"><ele>1702.8</ele></trkpt>
      <trkpt lat="45.926879" lon="6.921638"><ele>1702.6</ele></trkpt>
      <trkpt lat="45.926703" lon="6.921511"><ele>1698.0</ele></trkpt>
      <trkpt lat="45.926828" lon="6.921727"><ele>1691.0</ele></trkpt>
      <trkpt lat="45.926350" lon="6.921786"><ele>1685.0</ele></trkpt>
      <trkpt lat="45.926046" lon="6.922009"><ele>1690.0</ele></trkpt>
      <trkpt lat="45.925407" lon="6.921599"><ele>1702.4</ele></trkpt>
      <trkpt lat="45.924923" lon="6.921768"><ele>1700.8</ele></trkpt>
      <trkpt lat="45.924739" lon="6.922114"><ele>1711.0</ele></trkpt>
      <trkpt lat="45.923986" lon="6.922341"><ele>1719.0</ele></trkpt>
      <trkpt lat="45.923703" lon="6.922521"><ele>1724.2</ele></trkpt>
      <trkpt lat="45.923548" lon="6.922871"><ele>1727.2</ele></trkpt>
      <trkpt lat="45.923184" lon="6.923208"><ele>1731.2</ele></trkpt>
      <trkpt lat="45.923024" lon="6.923631"><ele>1737.4</ele></trkpt>
      <trkpt lat="45.922766" lon="6.923779"><ele>1742.2</ele></trkpt>
      <trkpt lat="45.922518" lon="6.923960"><ele>1747.8</ele></trkpt>
      <trkpt lat="45.922218" lon="6.924105"><ele>1754.2</ele></trkpt>
      <trkpt lat="45.921867" lon="6.924173"><ele>1761.0</ele></trkpt>
      <trkpt lat="45.921539" lon="6.924599"><ele>1765.4</ele></trkpt>
      <trkpt lat="45.921503" lon="6.925024"><ele>1761.2</ele></trkpt>
      <trkpt lat="45.921506" lon="6.925327"><ele>1760.6</ele></trkpt>
      <trkpt lat="45.920720" lon="6.926330"><ele>1771.8</ele></trkpt>
      <trkpt lat="45.920641" lon="6.926575"><ele>1772.6</ele></trkpt>
      <trkpt lat="45.920415" lon="6.926986"><ele>1774.8</ele></trkpt>
      <trkpt lat="45.920496" lon="6.927250"><ele>1777.0</ele></trkpt>
      <trkpt lat="45.920125" lon="6.928206"><ele>1786.0</ele></trkpt>
      <trkpt lat="45.920045" lon="6.928676"><ele>1791.8</ele></trkpt>
      <trkpt lat="45.919902" lon="6.929077"><ele>1796.2</ele></trkpt>
      <trkpt lat="45.919748" lon="6.929262"><ele>1797.8</ele></trkpt>
      <trkpt lat="45.919674" lon="6.929532"><ele>1799.2</ele></trkpt>
      <trkpt lat="45.919488" lon="6.929811"><ele>1802.0</ele></trkpt>
      <trkpt lat="45.919345" lon="6.930252"><ele>1803.6</ele></trkpt>
      <trkpt lat="45.919105" lon="6.930616"><ele>1808.0</ele></trkpt>
      <trkpt lat="45.919052" lon="6.930865"><ele>1810.0</ele></trkpt>
      <trkpt lat="45.918866" lon="6.931315"><ele>1810.0</ele></trkpt>
      <trkpt lat="45.918776" lon="6.931578"><ele>1813.0</ele></trkpt>
      <trkpt lat="45.918566" lon="6.931928"><ele>1816.6</ele></trkpt>
      <trkpt lat="45.918609" lon="6.932411"><ele>1823.0</ele></trkpt>
      <trkpt lat="45.918475" lon="6.933040"><ele>1831.0</ele></trkpt>
      <trkpt lat="45.917960" lon="6.933994"><ele>1840.4</ele></trkpt>
      <trkpt lat="45.917707" lon="6.934514"><ele>1844.8</ele></trkpt>
      <trkpt lat="45.917492" lon="6.934938"><ele>1846.6</ele></trkpt>
      <trkpt lat="45.917453" lon="6.935258"><ele>1849.4</ele></trkpt>
      <trkpt lat="45.917172" lon="6.935620"><ele>1850.6</ele></trkpt>
      <trkpt lat="45.916995" lon="6.935666"><ele>1851.6</ele></trkpt>
      <trkpt lat="45.916827" lon="6.935866"><ele>1854.6</ele></trkpt>
      <trkpt lat="45.916679" lon="6.936244"><ele>1856.8</ele></trkpt>
      <trkpt lat="45.916678" lon="6.936553"><ele>1858.8</ele></trkpt>
      <trkpt lat="45.916458" lon="6.936713"><ele>1860.6</ele></trkpt>
      <trkpt lat="45.916343" lon="6.937264"><ele>1862.2</ele></trkpt>
      <trkpt lat="45.916063" lon="6.937363"><ele>1869.8</ele></trkpt>
      <trkpt lat="45.915775" lon="6.937248"><ele>1869.2</ele></trkpt>
      <trkpt lat="45.915623" lon="6.937414"><ele>1871.4</ele></trkpt>
      <trkpt lat="45.915507" lon="6.937215"><ele>1873.6</ele></trkpt>
      <trkpt lat="45.915154" lon="6.937670"><ele>1879.6</ele></trkpt>
      <trkpt lat="45.914772" lon="6.937912"><ele>1884.0</ele></trkpt>
      <trkpt lat="45.914467" lon="6.938299"><ele>1888.6</ele></trkpt>
      <trkpt lat="45.914076" lon="6.938546"><ele>1893.2</ele></trkpt>
      <trkpt lat="45.913880" lon="6.938575"><ele>1894.2</ele></trkpt>
      <trkpt lat="45.913463" lon="6.938856"><ele>1899.4</ele></trkpt>
      <trkpt lat="45.913212" lon="6.939272"><ele>1903.8</ele></trkpt>
      <trkpt lat="45.912961" lon="6.939402"><ele>1906.0</ele></trkpt>
      <trkpt lat="45.912669" lon="6.939727"><ele>1908.8</ele></trkpt>
      <trkpt lat="45.912410" lon="6.939867"><ele>1910.6</ele></trkpt>
      <trkpt lat="45.911840" lon="6.940166"><ele>1916.8</ele></trkpt>
      <trkpt lat="45.911461" lon="6.940274"><ele>1920.4</ele></trkpt>
      <trkpt lat="45.911114" lon="6.940294"><ele>1923.0</ele></trkpt>
      <trkpt lat="45.910725" lon="6.940609"><ele>1926.6</ele></trkpt>
      <trkpt lat="45.910393" lon="6.940890"><ele>1929.6</ele></trkpt>
      <trkpt lat="45.910056" lon="6.941070"><ele>1933.0</ele></trkpt>
      <trkpt lat="45.909773" lon="6.940963"><ele>1935.6</ele></trkpt>
      <trkpt lat="45.909282" lon="6.941248"><ele>1941.0</ele></trkpt>
      <trkpt lat="45.908264" lon="6.941583"><ele>1950.4</ele></trkpt>
      <trkpt lat="45.907675" lon="6.942069"><ele>1956.8</ele></trkpt>
      <trkpt lat="45.907376" lon="6.942182"><ele>1958.8</ele></trkpt>
      <trkpt lat="45.907282" lon="6.942422"><ele>1962.2</ele></trkpt>
      <trkpt lat="45.906492" lon="6.942881"><ele>1974.6</ele></trkpt>
      <trkpt lat="45.906190" lon="6.943081"><ele>1980.0</ele></trkpt>
      <trkpt lat="45.905744" lon="6.943364"><ele>1987.8</ele></trkpt>
      <trkpt lat="45.905645" lon="6.943606"><ele>1992.8</ele></trkpt>
      <trkpt lat="45.905508" lon="6.944192"><ele>1996.6</ele></trkpt>
      <trkpt lat="45.905586" lon="6.944626"><ele>1998.6</ele></trkpt>
      <trkpt lat="45.905813" lon="6.944614"><ele>2008.2</ele></trkpt>
      <trkpt lat="45.906198" lon="6.944599"><ele>2005.2</ele></trkpt>
      <trkpt lat="45.906420" lon="6.944487"><ele>2004.4</ele></trkpt>
      <trkpt lat="45.906598" lon="6.944544"><ele>2006.8</ele></trkpt>
      <trkpt lat="45.906842" lon="6.944917"><ele>2010.8</ele></trkpt>
      <trkpt lat="45.906887" lon="6.945196"><ele>2010.4</ele></trkpt>
      <trkpt lat="45.907264" lon="6.945801"><ele>2010.2</ele></trkpt>
      <trkpt lat="45.907402" lon="6.946087"><ele>2010.2</ele></trkpt>
      <trkpt lat="45.907786" lon="6.946287"><ele>2010.6</ele></trkpt>
      <trkpt lat="45.908085" lon="6.946213"><ele>2011.0</ele></trkpt>
      <trkpt lat="45.908282" lon="6.946253"><ele>2014.8</ele></trkpt>
      <trkpt lat="45.908470" lon="6.946525"><ele>2023.4</ele></trkpt>
      <trkpt lat="45.908835" lon="6.946403"><ele>2025.2</ele></trkpt>
      <trkpt lat="45.909048" lon="6.946514"><ele>2031.6</ele></trkpt>
      <trkpt lat="45.909158" lon="6.946744"><ele>2039.2</ele></trkpt>
      <trkpt lat="45.909331" lon="6.946991"><ele>2046.4</ele></trkpt>
      <trkpt lat="45.909479" lon="6.947240"><ele>2055.4</ele></trkpt>
      <trkpt lat="45.909689" lon="6.947222"><ele>2061.0</ele></trkpt>
      <trkpt lat="45.909712" lon="6.947504"><ele>2066.4</ele></trkpt>
      <trkpt lat="45.909779" lon="6.947805"><ele>2093.2</ele></trkpt>
      <trkpt lat="45.909934" lon="6.947980"><ele>2120.2</ele></trkpt>
      <trkpt lat="45.910066" lon="6.948187"><ele>2149.0</ele></trkpt>
      <trkpt lat="45.910242" lon="6.948317"><ele>2176.8</ele></trkpt>
      <trkpt lat="45.909936" lon="6.948556"><ele>2183.4</ele></trkpt>
      <trkpt lat="45.910232" lon="6.948682"><ele>2194.4</ele></trkpt>
      <trkpt lat="45.910002" lon="6.948911"><ele>2197.4</ele></trkpt>
      <trkpt lat="45.910131" lon="6.949092"><ele>2231.4</ele></trkpt>
      <trkpt lat="45.910451" lon="6.949072"><ele>2235.8</ele></trkpt>
      <trkpt lat="45.910872" lon="6.948909"><ele>2235.6</ele></trkpt>
      <trkpt lat="45.911050" lon="6.949059"><ele>2244.4</ele></trkpt>
      <trkpt lat="45.911279" lon="6.948973"><ele>2251.2</ele></trkpt>
      <trkpt lat="45.911212" lon="6.949278"><ele>2261.4</ele></trkpt>
      <trkpt lat="45.911426" lon="6.949252"><ele>2275.2</ele></trkpt>
      <trkpt lat="45.911818" lon="6.949201"><ele>2290.0</ele></trkpt>
      <trkpt lat="45.912159" lon="6.948989"><ele>2295.2</ele></trkpt>
      <trkpt lat="45.912667" lon="6.948771"><ele>2291.6</ele></trkpt>
      <trkpt lat="45.913523" lon="6.948586"><ele>2301.6</ele></trkpt>
      <trkpt lat="45.914040" lon="6.948292"><ele>2298.2</ele></trkpt>
      <trkpt lat="45.914297" lon="6.948241"><ele>2299.0</ele></trkpt>
      <trkpt lat="45.914581" lon="6.948439"><ele>2304.8</ele></trkpt>
      <trkpt lat="45.914865" lon="6.948459"><ele>2311.6</ele></trkpt>
      <trkpt lat="45.914769" lon="6.948732"><ele>2324.4</ele></trkpt>
      <trkpt lat="45.915173" lon="6.948921"><ele>2332.2</ele></trkpt>
      <trkpt lat="45.915579" lon="6.948957"><ele>2337.4</ele></trkpt>
      <trkpt lat="45.915825" lon="6.948844"><ele>2345.8</ele></trkpt>
      <trkpt lat="45.916163" lon="6.949034"><ele>2367.4</ele></trkpt>
      <trkpt lat="45.916135" lon="6.949397"><ele>2381.8</ele></trkpt>
      <trkpt lat="45.916365" lon="6.949430"><ele>2390.6</ele></trkpt>
      <trkpt lat="45.916531" lon="6.949887"><ele>2416.6</ele></trkpt>
      <trkpt lat="45.916990" lon="6.949829"><ele>2431.0</ele></trkpt>
      <trkpt lat="45.917201" lon="6.949947"><ele>2433.0</ele></trkpt>
      <trkpt lat="45.917612" lon="6.949665"><ele>2437.2</ele></trkpt>
      <trkpt lat="45.917735" lon="6.949380"><ele>2436.8</ele></trkpt>
      <trkpt lat="45.917824" lon="6.949123"><ele>2436.2</ele></trkpt>
      <trkpt lat="45.917984" lon="6.948811"><ele>2433.8</ele></trkpt>
      <trkpt lat="45.918127" lon="6.948497"><ele>2434.4</ele></trkpt>
      <trkpt lat="45.918316" lon="6.948323"><ele>2442.8</ele></trkpt>
      <trkpt lat="45.918323" lon="6.948640"><ele>2454.4</ele></trkpt>
      <trkpt lat="45.918595" lon="6.948802"><ele>2456.2</ele></trkpt>
      <trkpt lat="45.918699" lon="6.948525"><ele>2425.4</ele></trkpt>
      <trkpt lat="45.918898" lon="6.948820"><ele>2427.4</ele></trkpt>
      <trkpt lat="45.919325" lon="6.949278"><ele>2437.2</ele></trkpt>
      <trkpt lat="45.919513" lon="6.949257"><ele>2431.4</ele></trkpt>
      <trkpt lat="45.919627" lon="6.949048"><ele>2424.4</ele></trkpt>
      <trkpt lat="45.919893" lon="6.948900"><ele>2433.4</ele></trkpt>
      <trkpt lat="45.920112" lon="6.948878"><ele>2436.0</ele></trkpt>
      <trkpt lat="45.920232" lon="6.948648"><ele>2434.4</ele></trkpt>
      <trkpt lat="45.920309" lon="6.948309"><ele>2433.0</ele></trkpt>
      <trkpt lat="45.920453" lon="6.948120"><ele>2426.4</ele></trkpt>
      <trkpt lat="45.920187" lon="6.947679"><ele>2411.8</ele></trkpt>
      <trkpt lat="45.920448" lon="6.947557"><ele>2401.4</ele></trkpt>
      <trkpt lat="45.920648" lon="6.947603"><ele>2397.0</ele></trkpt>
      <trkpt lat="45.920835" lon="6.947272"><ele>2386.2</ele></trkpt>
      <trkpt lat="45.920986" lon="6.946625"><ele>2371.2</ele></trkpt>
      <trkpt lat="45.921185" lon="6.946517"><ele>2374.6</ele></trkpt>
      <trkpt lat="45.921341" lon="6.946234"><ele>2377.8</ele></trkpt>
      <trkpt lat="45.921523" lon="6.946223"><ele>2381.2</ele></trkpt>
      <trkpt lat="45.922366" lon="6.944631"><ele>2364.6</ele></trkpt>
      <trkpt lat="45.922136" lon="6.944063"><ele>2352.8</ele></trkpt>
      <trkpt lat="45.922044" lon="6.943817"><ele>2348.6</ele></trkpt>
      <trkpt lat="45.921779" lon="6.943420"><ele>2341.0</ele></trkpt>
      <trkpt lat="45.921702" lon="6.943107"><ele>2335.6</ele></trkpt>
      <trkpt lat="45.921968" lon="6.942901"><ele>2327.6</ele></trkpt>
      <trkpt lat="45.922096" lon="6.942552"><ele>2320.6</ele></trkpt>
      <trkpt lat="45.922110" lon="6.942051"><ele>2316.2</ele></trkpt>
      <trkpt lat="45.922018" lon="6.941402"><ele>2299.4</ele></trkpt>
      <trkpt lat="45.922027" lon="6.941129"><ele>2294.8</ele></trkpt>
      <trkpt lat="45.921935" lon="6.940566"><ele>2292.8</ele></trkpt>
      <trkpt lat="45.921985" lon="6.940220"><ele>2290.2</ele></trkpt>
      <trkpt lat="45.922093" lon="6.939777"><ele>2281.2</ele></trkpt>
      <trkpt lat="45.922121" lon="6.939455"><ele>2276.4</ele></trkpt>
      <trkpt lat="45.922064" lon="6.939162"><ele>2271.2</ele></trkpt>
      <trkpt lat="45.922148" lon="6.938663"><ele>2260.4</ele></trkpt>
      <trkpt lat="45.922426" lon="6.938092"><ele>2256.6</ele></trkpt>
      <trkpt lat="45.922729" lon="6.937211"><ele>2247.2</ele></trkpt>
      <trkpt lat="45.922764" lon="6.936837"><ele>2237.6</ele></trkpt>
      <trkpt lat="45.922801" lon="6.936288"><ele>2224.2</ele></trkpt>
      <trkpt lat="45.923047" lon="6.935604"><ele>2219.6</ele></trkpt>
      <trkpt lat="45.923051" lon="6.935192"><ele>2207.0</ele></trkpt>
      <trkpt lat="45.923269" lon="6.934710"><ele>2197.0</ele></trkpt>
      <trkpt lat="45.923326" lon="6.934219"><ele>2181.4</ele></trkpt>
      <trkpt lat="45.923348" lon="6.933909"><ele>2169.6</ele></trkpt>
      <trkpt lat="45.923454" lon="6.933467"><ele>2156.6</ele></trkpt>
      <trkpt lat="45.923699" lon="6.932994"><ele>2145.6</ele></trkpt>
      <trkpt lat="45.923676" lon="6.932660"><ele>2137.2</ele></trkpt>
      <trkpt lat="45.923775" lon="6.932430"><ele>2131.0</ele></trkpt>
      <trkpt lat="45.923709" lon="6.932112"><ele>2120.4</ele></trkpt>
      <trkpt lat="45.923726" lon="6.931828"><ele>2114.2</ele></trkpt>
      <trkpt lat="45.923726" lon="6.931303"><ele>2098.0</ele></trkpt>
      <trkpt lat="45.923861" lon="6.931096"><ele>2094.4</ele></trkpt>
      <trkpt lat="45.924165" lon="6.931085"><ele>2097.0</ele></trkpt>
      <trkpt lat="45.924711" lon="6.931343"><ele>2097.2</ele></trkpt>
      <trkpt lat="45.924884" lon="6.931414"><ele>2099.0</ele></trkpt>
      <trkpt lat="45.925148" lon="6.931351"><ele>2096.4</ele></trkpt>
      <trkpt lat="45.925413" lon="6.931368"><ele>2093.2</ele></trkpt>
      <trkpt lat="45.925864" lon="6.931510"><ele>2090.4</ele></trkpt>
      <trkpt lat="45.926647" lon="6.931589"><ele>2090.6</ele></trkpt>
      <trkpt lat="45.926837" lon="6.931583"><ele>2091.8</ele></trkpt>
      <trkpt lat="45.927234" lon="6.931884"><ele>2097.6</ele></trkpt>
      <trkpt lat="45.927444" lon="6.932174"><ele>2103.6</ele></trkpt>
      <trkpt lat="45.927535" lon="6.932432"><ele>2106.8</ele></trkpt>
      <trkpt lat="45.927734" lon="6.932539"><ele>2108.8</ele></trkpt>
      <trkpt lat="45.927582" lon="6.932708"><ele>2121.6</ele></trkpt>
      <trkpt lat="45.927780" lon="6.933102"><ele>2136.0</ele></trkpt>
      <trkpt lat="45.927992" lon="6.933192"><ele>2131.2</ele></trkpt>
      <trkpt lat="45.927961" lon="6.933506"><ele>2136.0</ele></trkpt>
      <trkpt lat="45.927621" lon="6.933559"><ele>2145.4</ele></trkpt>
      <trkpt lat="45.927818" lon="6.933749"><ele>2142.6</ele></trkpt>
      <trkpt lat="45.928096" lon="6.933797"><ele>2142.2</ele></trkpt>
      <trkpt lat="45.928137" lon="6.934111"><ele>2149.6</ele></trkpt>
      <trkpt lat="45.928467" lon="6.934345"><ele>2153.6</ele></trkpt>
      <trkpt lat="45.928651" lon="6.934667"><ele>2163.2</ele></trkpt>
      <trkpt lat="45.928697" lon="6.935044"><ele>2176.8</ele></trkpt>
      <trkpt lat="45.928935" lon="6.935414"><ele>2186.8</ele></trkpt>
      <trkpt lat="45.929202" lon="6.935660"><ele>2195.4</ele></trkpt>
      <trkpt lat="45.929396" lon="6.936197"><ele>2215.6</ele></trkpt>
      <trkpt lat="45.929322" lon="6.936955"><ele>2249.0</ele></trkpt>
      <trkpt lat="45.929382" lon="6.937251"><ele>2259.2</ele></trkpt>
      <trkpt lat="45.929365" lon="6.937580"><ele>2273.8</ele></trkpt>
      <trkpt lat="45.929472" lon="6.937804"><ele>2278.8</ele></trkpt>
      <trkpt lat="45.929672" lon="6.937923"><ele>2290.0</ele></trkpt>
      <trkpt lat="45.929859" lon="6.938258"><ele>2304.0</ele></trkpt>
      <trkpt lat="45.930209" lon="6.938588"><ele>2327.8</ele></trkpt>
      <trkpt lat="45.930356" lon="6.938847"><ele>2346.8</ele></trkpt>
      <trkpt lat="45.930640" lon="6.939018"><ele>2357.2</ele></trkpt>
      <trkpt lat="45.930876" lon="6.939437"><ele>2383.8</ele></trkpt>
      <trkpt lat="45.931248" lon="6.939619"><ele>2391.2</ele></trkpt>
      <trkpt lat="45.931617" lon="6.939600"><ele>2401.4</ele></trkpt>
      <trkpt lat="45.931953" lon="6.940156"><ele>2401.6</ele></trkpt>
      <trkpt lat="45.932213" lon="6.940241"><ele>2410.0</ele></trkpt>
      <trkpt lat="45.932610" lon="6.940428"><ele>2416.2</ele></trkpt>
      <trkpt lat="45.932833" lon="6.940586"><ele>2427.6</ele></trkpt>
      <trkpt lat="45.932920" lon="6.941123"><ele>2440.0</ele></trkpt>
      <trkpt lat="45.933168" lon="6.941954"><ele>2463.6</ele></trkpt>
      <trkpt lat="45.933296" lon="6.942580"><ele>2477.0</ele></trkpt>
      <trkpt lat="45.933430" lon="6.942887"><ele>2485.4</ele></trkpt>
      <trkpt lat="45.933474" lon="6.943162"><ele>2493.8</ele></trkpt>
      <trkpt lat="45.933677" lon="6.943567"><ele>2502.4</ele></trkpt>
      <trkpt lat="45.933754" lon="6.943904"><ele>2509.6</ele></trkpt>
      <trkpt lat="45.933954" lon="6.944245"><ele>2515.8</ele></trkpt>
      <trkpt lat="45.934086" lon="6.944633"><ele>2518.6</ele></trkpt>
      <trkpt lat="45.934174" lon="6.944883"><ele>2523.6</ele></trkpt>
      <trkpt lat="45.934335" lon="6.945271"><ele>2534.0</ele></trkpt>
      <trkpt lat="45.934535" lon="6.945486"><ele>2546.2</ele></trkpt>
      <trkpt lat="45.934741" lon="6.945763"><ele>2559.4</ele></trkpt>
      <trkpt lat="45.934891" lon="6.945961"><ele>2575.0</ele></trkpt>
      <trkpt lat="45.934915" lon="6.946219"><ele>2586.2</ele></trkpt>
      <trkpt lat="45.935006" lon="6.946499"><ele>2597.4</ele></trkpt>
      <trkpt lat="45.935038" lon="6.946910"><ele>2606.8</ele></trkpt>
      <trkpt lat="45.935155" lon="6.947370"><ele>2619.2</ele></trkpt>
      <trkpt lat="45.935285" lon="6.947644"><ele>2626.2</ele></trkpt>
      <trkpt lat="45.935302" lon="6.947985"><ele>2632.2</ele></trkpt>
      <trkpt lat="45.935495" lon="6.948393"><ele>2646.6</ele></trkpt>
      <trkpt lat="45.935595" lon="6.948871"><ele>2664.6</ele></trkpt>
      <trkpt lat="45.935552" lon="6.949175"><ele>2677.2</ele></trkpt>
      <trkpt lat="45.935521" lon="6.949486"><ele>2689.2</ele></trkpt>
      <trkpt lat="45.935575" lon="6.949763"><ele>2700.6</ele></trkpt>
      <trkpt lat="45.935768" lon="6.950090"><ele>2712.2</ele></trkpt>
      <trkpt lat="45.935983" lon="6.950415"><ele>2725.0</ele></trkpt>
      <trkpt lat="45.935980" lon="6.951190"><ele>2735.8</ele></trkpt>
      <trkpt lat="45.935899" lon="6.951529"><ele>2747.8</ele></trkpt>
      <trkpt lat="45.936269" lon="6.951865"><ele>2764.0</ele></trkpt>
      <trkpt lat="45.936328" lon="6.952163"><ele>2779.8</ele></trkpt>
      <trkpt lat="45.936130" lon="6.952316"><ele>2788.4</ele></trkpt>
      <trkpt lat="45.936066" lon="6.952730"><ele>2808.0</ele></trkpt>
      <trkpt lat="45.936226" lon="6.953230"><ele>2815.2</ele></trkpt>
      <trkpt lat="45.936210" lon="6.953501"><ele>2826.4</ele></trkpt>
      <trkpt lat="45.936099" lon="6.953839"><ele>2838.6</ele></trkpt>
      <trkpt lat="45.935979" lon="6.954079"><ele>2854.4</ele></trkpt>
      <trkpt lat="45.935947" lon="6.954600"><ele>2875.6</ele></trkpt>
      <trkpt lat="45.935959" lon="6.955065"><ele>2895.0</ele></trkpt>
      <trkpt lat="45.935956" lon="6.955638"><ele>3097.5</ele></trkpt>
      <trkpt lat="45.936115" lon="6.955890"><ele>3084.4</ele></trkpt>
      <trkpt lat="45.936145" lon="6.956212"><ele>3099.7</ele></trkpt>
      <trkpt lat="45.935920" lon="6.956152"><ele>3116.4</ele></trkpt>
      <trkpt lat="45.935743" lon="6.956271"><ele>3139.8</ele></trkpt>
      <trkpt lat="45.935612" lon="6.956882"><ele>3200.1</ele></trkpt>
      <trkpt lat="45.935364" lon="6.957155"><ele>3248.2</ele></trkpt>
      <trkpt lat="45.935113" lon="6.957247"><ele>3290.4</ele></trkpt>
      <trkpt lat="45.935216" lon="6.957484"><ele>3292.0</ele></trkpt>
      <trkpt lat="45.935034" lon="6.957559"><ele>3319.9</ele></trkpt>
      <trkpt lat="45.934824" lon="6.957387"><ele>3335.8</ele></trkpt>
      <trkpt lat="45.934743" lon="6.957623"><ele>3356.4</ele></trkpt>
      <trkpt lat="45.934512" lon="6.957493"><ele>3378.9</ele></trkpt>
      <trkpt lat="45.934336" lon="6.957683"><ele>3406.6</ele></trkpt>
      <trkpt lat="45.934358" lon="6.957947"><ele>3419.9</ele></trkpt>
      <trkpt lat="45.934159" lon="6.957932"><ele>3437.0</ele></trkpt>
      <trkpt lat="45.934426" lon="6.957725"><ele>3399.5</ele></trkpt>
      <trkpt lat="45.935717" lon="6.957353"><ele>3226.5</ele></trkpt>
      <trkpt lat="45.935901" lon="6.957382"><ele>3206.5</ele></trkpt>
      <trkpt lat="45.936074" lon="6.957477"><ele>3202.2</ele></trkpt>
      <trkpt lat="45.935744" lon="6.957646"><ele>3241.7</ele></trkpt>
      <trkpt lat="45.935229" lon="6.957839"><ele>3319.0</ele></trkpt>
      <trkpt lat="45.934920" lon="6.957907"><ele>3357.0</ele></trkpt>
      <trkpt lat="45.934852" lon="6.958283"><ele>3394.6</ele></trkpt>
      <trkpt lat="45.934913" lon="6.957977"><ele>3367.7</ele></trkpt>
      <trkpt lat="45.934975" lon="6.958258"><ele>3383.5</ele></trkpt>
      <trkpt lat="45.935145" lon="6.958150"><ele>3355.2</ele></trkpt>
      <trkpt lat="45.934930" lon="6.958215"><ele>3384.0</ele></trkpt>
      <trkpt lat="45.935111" lon="6.958237"><ele>3364.6</ele></trkpt>
      <trkpt lat="45.935292" lon="6.958271"><ele>3348.8</ele></trkpt>
      <trkpt lat="45.935453" lon="6.958625"><ele>3350.8</ele></trkpt>
      <trkpt lat="45.935295" lon="6.958770"><ele>3382.7</ele></trkpt>
      <trkpt lat="45.935491" lon="6.958761"><ele>3360.8</ele></trkpt>
      <trkpt lat="45.935462" lon="6.959040"><ele>3402.7</ele></trkpt>
      <trkpt lat="45.935498" lon="6.958766"><ele>3365.9</ele></trkpt>
      <trkpt lat="45.935454" lon="6.959079"><ele>3408.0</ele></trkpt>
      <trkpt lat="45.935239" lon="6.959239"><ele>3457.6</ele></trkpt>
      <trkpt lat="45.935531" lon="6.959011"><ele>3390.6</ele></trkpt>
      <trkpt lat="45.934547" lon="6.958395"><ele>3426.2</ele></trkpt>
      <trkpt lat="45.933542" lon="6.957606"><ele>3475.9</ele></trkpt>
      <trkpt lat="45.933347" lon="6.957619"><ele>3487.1</ele></trkpt>
      <trkpt lat="45.933573" lon="6.957704"><ele>3472.6</ele></trkpt>
      <trkpt lat="45.933288" lon="6.958646"><ele>3498.4</ele></trkpt>
      <trkpt lat="45.933245" lon="6.959202"><ele>3509.5</ele></trkpt>
      <trkpt lat="45.933368" lon="6.959008"><ele>3508.4</ele></trkpt>
      <trkpt lat="45.933120" lon="6.959022"><ele>3499.5</ele></trkpt>
      <trkpt lat="45.932982" lon="6.958813"><ele>3491.7</ele></trkpt>
      <trkpt lat="45.932848" lon="6.959040"><ele>3485.7</ele></trkpt>
      <trkpt lat="45.933064" lon="6.959137"><ele>3499.0</ele></trkpt>
      <trkpt lat="45.933413" lon="6.959117"><ele>3512.7</ele></trkpt>
      <trkpt lat="45.933489" lon="6.959362"><ele>3521.3</ele></trkpt>
      <trkpt lat="45.933732" lon="6.959380"><ele>3528.4</ele></trkpt>
      <trkpt lat="45.933740" lon="6.959097"><ele>3517.5</ele></trkpt>
      <trkpt lat="45.934028" lon="6.959067"><ele>3516.7</ele></trkpt>
      <trkpt lat="45.934437" lon="6.959201"><ele>3484.6</ele></trkpt>
      <trkpt lat="45.934646" lon="6.959062"><ele>3457.2</ele></trkpt>
      <trkpt lat="45.935056" lon="6.959003"><ele>3427.4</ele></trkpt>
      <trkpt lat="45.934939" lon="6.959209"><ele>3466.6</ele></trkpt>
      <trkpt lat="45.935266" lon="6.959169"><ele>3442.2</ele></trkpt>
      <trkpt lat="45.935096" lon="6.959044"><ele>3431.0</ele></trkpt>
      <trkpt lat="45.934872" lon="6.959044"><ele>3442.9</ele></trkpt>
      <trkpt lat="45.934682" lon="6.959068"><ele>3457.9</ele></trkpt>
      <trkpt lat="45.934967" lon="6.959219"><ele>3466.2</ele></trkpt>
      <trkpt lat="45.934960" lon="6.958884"><ele>3416.2</ele></trkpt>
      <trkpt lat="45.934846" lon="6.959188"><ele>3462.2</ele></trkpt>
      <trkpt lat="45.935016" lon="6.959075"><ele>3443.2</ele></trkpt>
      <trkpt lat="45.934773" lon="6.958930"><ele>3432.4</ele></trkpt>
      <trkpt lat="45.934521" lon="6.958969"><ele>3459.5</ele></trkpt>
      <trkpt lat="45.934306" lon="6.958999"><ele>3486.3</ele></trkpt>
      <trkpt lat="45.934540" lon="6.958998"><ele>3460.2</ele></trkpt>
      <trkpt lat="45.934728" lon="6.959110"><ele>3461.4</ele></trkpt>
      <trkpt lat="45.935065" lon="6.959144"><ele>3447.6</ele></trkpt>
      <trkpt lat="45.934881" lon="6.959221"><ele>3467.4</ele></trkpt>
      <trkpt lat="45.934948" lon="6.958961"><ele>3426.8</ele></trkpt>
      <trkpt lat="45.934887" lon="6.959217"><ele>3467.0</ele></trkpt>
      <trkpt lat="45.934575" lon="6.959290"><ele>3485.5</ele></trkpt>
      <trkpt lat="45.934381" lon="6.959122"><ele>3482.8</ele></trkpt>
      <trkpt lat="45.934697" lon="6.959079"><ele>3457.9</ele></trkpt>
      <trkpt lat="45.934620" lon="6.959374"><ele>3491.3</ele></trkpt>
      <trkpt lat="45.934528" lon="6.959137"><ele>3471.6</ele></trkpt>
      <trkpt lat="45.934726" lon="6.959222"><ele>3472.1</ele></trkpt>
      <trkpt lat="45.934539" lon="6.959331"><ele>3489.0</ele></trkpt>
      <trkpt lat="45.934347" lon="6.959309"><ele>3493.8</ele></trkpt>
      <trkpt lat="45.933597" lon="6.959544"><ele>3533.0</ele></trkpt>
      <trkpt lat="45.933348" lon="6.959470"><ele>3519.1</ele></trkpt>
      <trkpt lat="45.933112" lon="6.959455"><ele>3508.1</ele></trkpt>
      <trkpt lat="45.932954" lon="6.959728"><ele>3508.9</ele></trkpt>
      <trkpt lat="45.932905" lon="6.959094"><ele>3489.7</ele></trkpt>
      <trkpt lat="45.932848" lon="6.959403"><ele>3488.7</ele></trkpt>
      <trkpt lat="45.933093" lon="6.959344"><ele>3504.2</ele></trkpt>
      <trkpt lat="45.933338" lon="6.959173"><ele>3511.8</ele></trkpt>
      <trkpt lat="45.933431" lon="6.959414"><ele>3521.6</ele></trkpt>
      <trkpt lat="45.933750" lon="6.959368"><ele>3528.4</ele></trkpt>
      <trkpt lat="45.934112" lon="6.958964"><ele>3503.8</ele></trkpt>
      <trkpt lat="45.934300" lon="6.958873"><ele>3478.3</ele></trkpt>
      <trkpt lat="45.934493" lon="6.959276"><ele>3484.3</ele></trkpt>
      <trkpt lat="45.934729" lon="6.959255"><ele>3476.8</ele></trkpt>
      <trkpt lat="45.934380" lon="6.959299"><ele>3490.4</ele></trkpt>
      <trkpt lat="45.933963" lon="6.959394"><ele>3525.6</ele></trkpt>
      <trkpt lat="45.933667" lon="6.959291"><ele>3524.3</ele></trkpt>
      <trkpt lat="45.933498" lon="6.959170"><ele>3516.4</ele></trkpt>
      <trkpt lat="45.933731" lon="6.959291"><ele>3525.4</ele></trkpt>
      <trkpt lat="45.933480" lon="6.959653"><ele>3532.7</ele></trkpt>
      <trkpt lat="45.933215" lon="6.959669"><ele>3524.1</ele></trkpt>
      <trkpt lat="45.932955" lon="6.959830"><ele>3513.9</ele></trkpt>
      <trkpt lat="45.932976" lon="6.959547"><ele>3502.9</ele></trkpt>
      <trkpt lat="45.932934" lon="6.959203"><ele>3493.6</ele></trkpt>
      <trkpt lat="45.933025" lon="6.959604"><ele>3506.6</ele></trkpt>
      <trkpt lat="45.933055" lon="6.959970"><ele>3531.7</ele></trkpt>
      <trkpt lat="45.933151" lon="6.959452"><ele>3508.6</ele></trkpt>
      <trkpt lat="45.932997" lon="6.959714"><ele>3511.1</ele></trkpt>
      <trkpt lat="45.932839" lon="6.959047"><ele>3485.7</ele></trkpt>
      <trkpt lat="45.933368" lon="6.959458"><ele>3520.5</ele></trkpt>
      <trkpt lat="45.933591" lon="6.959479"><ele>3528.8</ele></trkpt>
      <trkpt lat="45.934378" lon="6.959222"><ele>3488.7</ele></trkpt>
      <trkpt lat="45.934602" lon="6.959232"><ele>3477.3</ele></trkpt>
      <trkpt lat="45.934735" lon="6.959008"><ele>3445.8</ele></trkpt>
      <trkpt lat="45.934941" lon="6.959088"><ele>3447.0</ele></trkpt>
      <trkpt lat="45.934755" lon="6.959234"><ele>3470.8</ele></trkpt>
      <trkpt lat="45.934820" lon="6.959509"><ele>3498.5</ele></trkpt>
      <trkpt lat="45.934788" lon="6.959166"><ele>3464.2</ele></trkpt>
      <trkpt lat="45.934623" lon="6.959422"><ele>3494.6</ele></trkpt>
      <trkpt lat="45.934664" lon="6.959130"><ele>3465.0</ele></trkpt>
      <trkpt lat="45.934645" lon="6.959421"><ele>3494.6</ele></trkpt>
      <trkpt lat="45.934709" lon="6.959164"><ele>3466.8</ele></trkpt>
      <trkpt lat="45.934707" lon="6.959442"><ele>3492.6</ele></trkpt>
      <trkpt lat="45.934727" lon="6.959166"><ele>3466.8</ele></trkpt>
      <trkpt lat="45.934609" lon="6.959445"><ele>3495.0</ele></trkpt>
      <trkpt lat="45.934760" lon="6.959229"><ele>3470.8</ele></trkpt>
      <trkpt lat="45.934868" lon="6.958905"><ele>3426.7</ele></trkpt>
      <trkpt lat="45.934797" lon="6.959152"><ele>3457.2</ele></trkpt>
      <trkpt lat="45.934596" lon="6.959181"><ele>3472.9</ele></trkpt>
      <trkpt lat="45.934809" lon="6.958974"><ele>3435.1</ele></trkpt>
      <trkpt lat="45.934671" lon="6.959211"><ele>3474.9</ele></trkpt>
      <trkpt lat="45.934817" lon="6.959035"><ele>3445.6</ele></trkpt>
      <trkpt lat="45.934995" lon="6.958988"><ele>3431.1</ele></trkpt>
      <trkpt lat="45.935339" lon="6.958922"><ele>3395.0</ele></trkpt>
      <trkpt lat="45.935150" lon="6.958774"><ele>3393.6</ele></trkpt>
      <trkpt lat="45.935294" lon="6.958615"><ele>3366.7</ele></trkpt>
      <trkpt lat="45.935379" lon="6.958847"><ele>3380.9</ele></trkpt>
      <trkpt lat="45.935208" lon="6.958948"><ele>3412.6</ele></trkpt>
      <trkpt lat="45.935217" lon="6.959234"><ele>3451.8</ele></trkpt>
      <trkpt lat="45.935249" lon="6.958949"><ele>3408.5</ele></trkpt>
      <trkpt lat="45.935407" lon="6.959125"><ele>3419.5</ele></trkpt>
      <trkpt lat="45.935165" lon="6.958862"><ele>3401.9</ele></trkpt>
      <trkpt lat="45.935349" lon="6.958705"><ele>3368.2</ele></trkpt>
      <trkpt lat="45.935139" lon="6.958786"><ele>3393.6</ele></trkpt>
      <trkpt lat="45.935040" lon="6.959025"><ele>3434.3</ele></trkpt>
      <trkpt lat="45.934667" lon="6.959197"><ele>3474.9</ele></trkpt>
      <trkpt lat="45.932648" lon="6.958018"><ele>3477.7</ele></trkpt>
      <trkpt lat="45.932407" lon="6.958363"><ele>3454.7</ele></trkpt>
      <trkpt lat="45.932161" lon="6.958515"><ele>3431.6</ele></trkpt>
      <trkpt lat="45.932115" lon="6.958788"><ele>3426.1</ele></trkpt>
      <trkpt lat="45.932189" lon="6.958438"><ele>3435.6</ele></trkpt>
      <trkpt lat="45.931977" lon="6.958762"><ele>3413.3</ele></trkpt>
      <trkpt lat="45.932158" lon="6.958582"><ele>3431.1</ele></trkpt>
      <trkpt lat="45.932033" lon="6.958774"><ele>3418.5</ele></trkpt>
      <trkpt lat="45.931784" lon="6.958946"><ele>3395.3</ele></trkpt>
      <trkpt lat="45.932097" lon="6.958704"><ele>3424.4</ele></trkpt>
      <trkpt lat="45.931904" lon="6.958960"><ele>3406.2</ele></trkpt>
      <trkpt lat="45.932417" lon="6.958598"><ele>3453.4</ele></trkpt>
      <trkpt lat="45.932526" lon="6.957786"><ele>3476.7</ele></trkpt>
      <trkpt lat="45.932234" lon="6.957692"><ele>3465.0</ele></trkpt>
      <trkpt lat="45.932054" lon="6.957610"><ele>3451.6</ele></trkpt>
      <trkpt lat="45.931800" lon="6.957710"><ele>3424.1</ele></trkpt>
      <trkpt lat="45.932180" lon="6.957678"><ele>3460.0</ele></trkpt>
      <trkpt lat="45.932530" lon="6.957794"><ele>3478.1</ele></trkpt>
      <trkpt lat="45.932915" lon="6.958482"><ele>3485.3</ele></trkpt>
      <trkpt lat="45.933079" lon="6.958604"><ele>3493.4</ele></trkpt>
      <trkpt lat="45.933230" lon="6.958860"><ele>3501.8</ele></trkpt>
      <trkpt lat="45.933471" lon="6.959021"><ele>3510.4</ele></trkpt>
      <trkpt lat="45.933675" lon="6.959296"><ele>3524.3</ele></trkpt>
      <trkpt lat="45.933401" lon="6.959622"><ele>3527.7</ele></trkpt>
      <trkpt lat="45.933206" lon="6.959536"><ele>3513.9</ele></trkpt>
      <trkpt lat="45.932939" lon="6.959583"><ele>3500.3</ele></trkpt>
      <trkpt lat="45.932957" lon="6.959197"><ele>3495.5</ele></trkpt>
      <trkpt lat="45.933427" lon="6.959134"><ele>3513.6</ele></trkpt>
      <trkpt lat="45.933917" lon="6.959134"><ele>3521.9</ele></trkpt>
      <trkpt lat="45.935621" lon="6.958394"><ele>3319.6</ele></trkpt>
      <trkpt lat="45.934915" lon="6.957620"><ele>3339.2</ele></trkpt>
      <trkpt lat="45.934667" lon="6.957999"><ele>3396.3</ele></trkpt>
      <trkpt lat="45.934785" lon="6.957652"><ele>3355.5</ele></trkpt>
      <trkpt lat="45.934957" lon="6.957800"><ele>3346.0</ele></trkpt>
      <trkpt lat="45.934770" lon="6.957987"><ele>3380.0</ele></trkpt>
      <trkpt lat="45.934633" lon="6.957780"><ele>3382.6</ele></trkpt>
      <trkpt lat="45.934400" lon="6.957525"><ele>3395.4</ele></trkpt>
      <trkpt lat="45.934003" lon="6.957554"><ele>3433.8</ele></trkpt>
      <trkpt lat="45.933744" lon="6.957636"><ele>3459.7</ele></trkpt>
      <trkpt lat="45.933512" lon="6.957512"><ele>3477.8</ele></trkpt>
      <trkpt lat="45.934051" lon="6.957735"><ele>3433.9</ele></trkpt>
      <trkpt lat="45.934196" lon="6.957922"><ele>3434.5</ele></trkpt>
      <trkpt lat="45.934538" lon="6.957756"><ele>3388.6</ele></trkpt>
      <trkpt lat="45.934689" lon="6.958138"><ele>3402.3</ele></trkpt>
      <trkpt lat="45.934923" lon="6.958467"><ele>3393.4</ele></trkpt>
      <trkpt lat="45.935027" lon="6.958918"><ele>3417.0</ele></trkpt>
      <trkpt lat="45.935083" lon="6.959334"><ele>3478.3</ele></trkpt>
      <trkpt lat="45.934954" lon="6.959153"><ele>3459.7</ele></trkpt>
      <trkpt lat="45.935006" lon="6.959571"><ele>3498.6</ele></trkpt>
      <trkpt lat="45.934951" lon="6.959271"><ele>3472.0</ele></trkpt>
      <trkpt lat="45.935111" lon="6.959413"><ele>3484.6</ele></trkpt>
      <trkpt lat="45.935096" lon="6.959141"><ele>3446.1</ele></trkpt>
      <trkpt lat="45.935058" lon="6.959514"><ele>3494.0</ele></trkpt>
      <trkpt lat="45.935039" lon="6.959234"><ele>3463.4</ele></trkpt>
      <trkpt lat="45.935282" lon="6.959326"><ele>3459.5</ele></trkpt>
      <trkpt lat="45.935246" lon="6.958979"><ele>3408.5</ele></trkpt>
      <trkpt lat="45.935273" lon="6.959482"><ele>3475.9</ele></trkpt>
      <trkpt lat="45.935133" lon="6.959249"><ele>3465.0</ele></trkpt>
      <trkpt lat="45.935150" lon="6.958855"><ele>3403.5</ele></trkpt>
      <trkpt lat="45.935236" lon="6.959103"><ele>3431.5</ele></trkpt>
      <trkpt lat="45.935461" lon="6.959276"><ele>3426.7</ele></trkpt>
      <trkpt lat="45.935393" lon="6.959005"><ele>3405.1</ele></trkpt>
      <trkpt lat="45.935313" lon="6.959291"><ele>3450.7</ele></trkpt>
      <trkpt lat="45.935461" lon="6.959144"><ele>3413.0</ele></trkpt>
      <trkpt lat="45.935382" lon="6.959399"><ele>3451.5</ele></trkpt>
      <trkpt lat="45.935386" lon="6.959122"><ele>3422.6</ele></trkpt>
      <trkpt lat="45.935139" lon="6.959002"><ele>3422.4</ele></trkpt>
      <trkpt lat="45.934956" lon="6.958957"><ele>3426.8</ele></trkpt>
      <trkpt lat="45.935180" lon="6.958970"><ele>3414.1</ele></trkpt>
      <trkpt lat="45.934104" lon="6.958217"><ele>3456.8</ele></trkpt>
      <trkpt lat="45.934249" lon="6.958516"><ele>3461.9</ele></trkpt>
      <trkpt lat="45.934175" lon="6.958816"><ele>3488.6</ele></trkpt>
      <trkpt lat="45.933969" lon="6.958355"><ele>3471.0</ele></trkpt>
      <trkpt lat="45.933866" lon="6.958625"><ele>3491.1</ele></trkpt>
      <trkpt lat="45.933867" lon="6.957943"><ele>3458.9</ele></trkpt>
      <trkpt lat="45.933728" lon="6.958166"><ele>3475.4</ele></trkpt>
      <trkpt lat="45.933787" lon="6.957816"><ele>3459.3</ele></trkpt>
      <trkpt lat="45.933603" lon="6.957737"><ele>3471.1</ele></trkpt>
      <trkpt lat="45.933589" lon="6.958054"><ele>3479.3</ele></trkpt>
      <trkpt lat="45.933409" lon="6.958630"><ele>3498.0</ele></trkpt>
      <trkpt lat="45.933315" lon="6.958381"><ele>3493.8</ele></trkpt>
      <trkpt lat="45.933525" lon="6.958599"><ele>3497.4</ele></trkpt>
      <trkpt lat="45.933714" lon="6.958413"><ele>3485.0</ele></trkpt>
      <trkpt lat="45.933929" lon="6.958640"><ele>3491.9</ele></trkpt>
      <trkpt lat="45.933895" lon="6.959238"><ele>3524.8</ele></trkpt>
      <trkpt lat="45.933727" lon="6.959385"><ele>3528.4</ele></trkpt>
      <trkpt lat="45.933740" lon="6.959672"><ele>3543.3</ele></trkpt>
      <trkpt lat="45.933870" lon="6.959460"><ele>3531.5</ele></trkpt>
      <trkpt lat="45.934004" lon="6.959179"><ele>3521.2</ele></trkpt>
      <trkpt lat="45.933870" lon="6.959427"><ele>3530.0</ele></trkpt>
      <trkpt lat="45.933778" lon="6.959666"><ele>3540.8</ele></trkpt>
      <trkpt lat="45.933927" lon="6.959521"><ele>3531.2</ele></trkpt>
      <trkpt lat="45.934124" lon="6.959117"><ele>3511.4</ele></trkpt>
      <trkpt lat="45.934065" lon="6.959593"><ele>3526.9</ele></trkpt>
      <trkpt lat="45.934214" lon="6.959146"><ele>3501.4</ele></trkpt>
      <trkpt lat="45.934484" lon="6.958809"><ele>3453.3</ele></trkpt>
      <trkpt lat="45.934368" lon="6.959251"><ele>3490.3</ele></trkpt>
      <trkpt lat="45.934604" lon="6.958957"><ele>3451.3</ele></trkpt>
      <trkpt lat="45.934844" lon="6.958512"><ele>3401.7</ele></trkpt>
      <trkpt lat="45.935151" lon="6.958348"><ele>3369.5</ele></trkpt>
      <trkpt lat="45.934839" lon="6.958243"><ele>3392.4</ele></trkpt>
      <trkpt lat="45.934776" lon="6.957899"><ele>3372.7</ele></trkpt>
      <trkpt lat="45.934361" lon="6.958167"><ele>3435.2</ele></trkpt>
      <trkpt lat="45.934178" lon="6.958355"><ele>3458.3</ele></trkpt>
      <trkpt lat="45.933939" lon="6.958310"><ele>3470.2</ele></trkpt>
      <trkpt lat="45.934181" lon="6.958517"><ele>3467.5</ele></trkpt>
      <trkpt lat="45.935037" lon="6.958395"><ele>3379.8</ele></trkpt>
      <trkpt lat="45.935295" lon="6.958258"><ele>3348.8</ele></trkpt>
      <trkpt lat="45.934262" lon="6.958207"><ele>3441.6</ele></trkpt>
      <trkpt lat="45.933931" lon="6.958531"><ele>3482.2</ele></trkpt>
      <trkpt lat="45.934106" lon="6.958365"><ele>3464.4</ele></trkpt>
      <trkpt lat="45.933894" lon="6.958589"><ele>3487.3</ele></trkpt>
      <trkpt lat="45.933702" lon="6.959021"><ele>3513.4</ele></trkpt>
      <trkpt lat="45.933420" lon="6.959228"><ele>3515.1</ele></trkpt>
      <trkpt lat="45.933798" lon="6.958347"><ele>3480.0</ele></trkpt>
      <trkpt lat="45.933895" lon="6.958000"><ele>3459.7</ele></trkpt>
      <trkpt lat="45.933740" lon="6.957857"><ele>3464.8</ele></trkpt>
      <trkpt lat="45.933550" lon="6.957868"><ele>3477.6</ele></trkpt>
      <trkpt lat="45.932916" lon="6.958625"><ele>3487.2</ele></trkpt>
      <trkpt lat="45.933160" lon="6.957777"><ele>3492.7</ele></trkpt>
      <trkpt lat="45.933230" lon="6.957448"><ele>3493.8</ele></trkpt>
      <trkpt lat="45.933057" lon="6.957373"><ele>3499.3</ele></trkpt>
      <trkpt lat="45.932935" lon="6.957170"><ele>3505.3</ele></trkpt>
      <trkpt lat="45.932847" lon="6.957396"><ele>3497.2</ele></trkpt>
      <trkpt lat="45.932392" lon="6.957005"><ele>3502.7</ele></trkpt>
      <trkpt lat="45.932456" lon="6.957313"><ele>3490.8</ele></trkpt>
      <trkpt lat="45.932616" lon="6.957495"><ele>3489.4</ele></trkpt>
      <trkpt lat="45.932690" lon="6.957190"><ele>3502.1</ele></trkpt>
      <trkpt lat="45.932602" lon="6.957431"><ele>3492.4</ele></trkpt>
      <trkpt lat="45.932795" lon="6.957168"><ele>3504.6</ele></trkpt>
      <trkpt lat="45.932582" lon="6.957432"><ele>3491.5</ele></trkpt>
      <trkpt lat="45.932750" lon="6.957583"><ele>3490.7</ele></trkpt>
      <trkpt lat="45.932887" lon="6.958011"><ele>3487.1</ele></trkpt>
      <trkpt lat="45.933057" lon="6.958144"><ele>3490.4</ele></trkpt>
      <trkpt lat="45.933231" lon="6.958545"><ele>3495.3</ele></trkpt>
      <trkpt lat="45.933224" lon="6.958808"><ele>3500.1</ele></trkpt>
      <trkpt lat="45.933415" lon="6.959165"><ele>3514.0</ele></trkpt>
      <trkpt lat="45.934179" lon="6.959374"><ele>3509.4</ele></trkpt>
      <trkpt lat="45.934480" lon="6.959252"><ele>3484.3</ele></trkpt>
      <trkpt lat="45.934652" lon="6.959345"><ele>3487.1</ele></trkpt>
      <trkpt lat="45.934588" lon="6.959646"><ele>3513.4</ele></trkpt>
      <trkpt lat="45.934463" lon="6.959858"><ele>3536.4</ele></trkpt>
      <trkpt lat="45.934569" lon="6.959647"><ele>3513.7</ele></trkpt>
      <trkpt lat="45.934376" lon="6.959989"><ele>3553.5</ele></trkpt>
      <trkpt lat="45.934479" lon="6.959626"><ele>3514.8</ele></trkpt>
      <trkpt lat="45.934436" lon="6.960103"><ele>3569.1</ele></trkpt>
      <trkpt lat="45.934225" lon="6.960111"><ele>3578.8</ele></trkpt>
      <trkpt lat="45.934079" lon="6.960345"><ele>3619.4</ele></trkpt>
      <trkpt lat="45.934342" lon="6.960383"><ele>3610.0</ele></trkpt>
      <trkpt lat="45.934147" lon="6.960447"><ele>3628.7</ele></trkpt>
      <trkpt lat="45.934397" lon="6.960054"><ele>3564.2</ele></trkpt>
      <trkpt lat="45.934221" lon="6.960412"><ele>3622.3</ele></trkpt>
      <trkpt lat="45.934356" lon="6.960151"><ele>3578.4</ele></trkpt>
      <trkpt lat="45.934404" lon="6.959471"><ele>3501.6</ele></trkpt>
      <trkpt lat="45.934158" lon="6.960025"><ele>3567.2</ele></trkpt>
      <trkpt lat="45.934405" lon="6.959973"><ele>3552.6</ele></trkpt>
      <trkpt lat="45.934568" lon="6.959798"><ele>3530.5</ele></trkpt>
      <trkpt lat="45.934402" lon="6.960120"><ele>3570.4</ele></trkpt>
      <trkpt lat="45.934522" lon="6.959818"><ele>3531.0</ele></trkpt>
      <trkpt lat="45.934564" lon="6.960095"><ele>3559.2</ele></trkpt>
      <trkpt lat="45.934545" lon="6.959732"><ele>3522.2</ele></trkpt>
      <trkpt lat="45.934389" lon="6.959962"><ele>3547.3</ele></trkpt>
      <trkpt lat="45.934664" lon="6.959328"><ele>3487.1</ele></trkpt>
      <trkpt lat="45.934325" lon="6.960096"><ele>3566.6</ele></trkpt>
      <trkpt lat="45.934345" lon="6.959641"><ele>3518.7</ele></trkpt>
      <trkpt lat="45.934393" lon="6.959204"><ele>3486.6</ele></trkpt>
      <trkpt lat="45.934335" lon="6.959609"><ele>3514.9</ele></trkpt>
      <trkpt lat="45.934298" lon="6.959261"><ele>3494.7</ele></trkpt>
      <trkpt lat="45.934284" lon="6.959674"><ele>3524.0</ele></trkpt>
      <trkpt lat="45.934352" lon="6.959315"><ele>3492.0</ele></trkpt>
      <trkpt lat="45.934338" lon="6.959711"><ele>3526.4</ele></trkpt>
      <trkpt lat="45.934375" lon="6.959335"><ele>3494.0</ele></trkpt>
      <trkpt lat="45.934315" lon="6.959595"><ele>3515.9</ele></trkpt>
      <trkpt lat="45.934165" lon="6.959897"><ele>3548.9</ele></trkpt>
      <trkpt lat="45.934269" lon="6.959668"><ele>3524.0</ele></trkpt>
      <trkpt lat="45.934295" lon="6.959234"><ele>3493.5</ele></trkpt>
      <trkpt lat="45.934589" lon="6.958828"><ele>3440.7</ele></trkpt>
      <trkpt lat="45.934798" lon="6.958959"><ele>3435.1</ele></trkpt>
      <trkpt lat="45.934995" lon="6.958937"><ele>3419.2</ele></trkpt>
      <trkpt lat="45.935113" lon="6.958724"><ele>3391.4</ele></trkpt>
      <trkpt lat="45.935322" lon="6.958627"><ele>3363.7</ele></trkpt>
      <trkpt lat="45.935264" lon="6.958983"><ele>3415.2</ele></trkpt>
      <trkpt lat="45.935132" lon="6.959436"><ele>3482.9</ele></trkpt>
      <trkpt lat="45.935352" lon="6.958690"><ele>3368.2</ele></trkpt>
      <trkpt lat="45.935552" lon="6.958225"><ele>3313.6</ele></trkpt>
      <trkpt lat="45.935654" lon="6.958524"><ele>3325.4</ele></trkpt>
      <trkpt lat="45.935693" lon="6.958937"><ele>3360.0</ele></trkpt>
      <trkpt lat="45.935786" lon="6.958558"><ele>3314.4</ele></trkpt>
      <trkpt lat="45.935988" lon="6.958292"><ele>3271.1</ele></trkpt>
      <trkpt lat="45.935179" lon="6.958639"><ele>3380.2</ele></trkpt>
      <trkpt lat="45.934933" lon="6.958600"><ele>3398.0</ele></trkpt>
      <trkpt lat="45.934735" lon="6.958484"><ele>3410.9</ele></trkpt>
      <trkpt lat="45.934475" lon="6.958426"><ele>3433.5</ele></trkpt>
      <trkpt lat="45.933653" lon="6.958750"><ele>3501.5</ele></trkpt>
      <trkpt lat="45.933161" lon="6.958691"><ele>3497.1</ele></trkpt>
      <trkpt lat="45.932798" lon="6.958727"><ele>3481.1</ele></trkpt>
      <trkpt lat="45.932616" lon="6.958638"><ele>3466.4</ele></trkpt>
      <trkpt lat="45.933185" lon="6.957839"><ele>3492.0</ele></trkpt>
      <trkpt lat="45.933318" lon="6.957534"><ele>3489.1</ele></trkpt>
      <trkpt lat="45.933136" lon="6.956941"><ele>3506.0</ele></trkpt>
      <trkpt lat="45.934524" lon="6.957354"><ele>3374.3</ele></trkpt>
      <trkpt lat="45.936051" lon="6.958705"><ele>3300.0</ele></trkpt>
      <trkpt lat="45.932657" lon="6.958841"><ele>3471.2</ele></trkpt>
      <trkpt lat="45.932480" lon="6.959000"><ele>3455.8</ele></trkpt>
      <trkpt lat="45.932444" lon="6.959523"><ele>3459.5</ele></trkpt>
      <trkpt lat="45.932398" lon="6.959906"><ele>3470.5</ele></trkpt>
      <trkpt lat="45.932601" lon="6.959823"><ele>3485.6</ele></trkpt>
      <trkpt lat="45.933201" lon="6.958051"><ele>3492.0</ele></trkpt>
      <trkpt lat="45.935430" lon="6.958966"><ele>3394.2</ele></trkpt>
      <trkpt lat="45.935256" lon="6.959062"><ele>3422.0</ele></trkpt>
      <trkpt lat="45.935448" lon="6.958916"><ele>3388.2</ele></trkpt>
      <trkpt lat="45.935516" lon="6.958652"><ele>3348.9</ele></trkpt>
      <trkpt lat="45.935409" lon="6.959071"><ele>3414.2</ele></trkpt>
      <trkpt lat="45.935256" lon="6.959258"><ele>3453.9</ele></trkpt>
      <trkpt lat="45.935426" lon="6.959000"><ele>3400.0</ele></trkpt>
      <trkpt lat="45.935515" lon="6.958735"><ele>3358.0</ele></trkpt>
      <trkpt lat="45.935447" lon="6.959018"><ele>3400.0</ele></trkpt>
      <trkpt lat="45.935401" lon="6.959347"><ele>3443.2</ele></trkpt>
      <trkpt lat="45.935538" lon="6.958929"><ele>3379.5</ele></trkpt>
      <trkpt lat="45.935416" lon="6.959244"><ele>3434.1</ele></trkpt>
      <trkpt lat="45.935574" lon="6.958856"><ele>3367.6</ele></trkpt>
      <trkpt lat="45.935498" lon="6.959091"><ele>3404.6</ele></trkpt>
      <trkpt lat="45.935829" lon="6.958669"><ele>3320.1</ele></trkpt>
      <trkpt lat="45.935578" lon="6.958880"><ele>3367.6</ele></trkpt>
      <trkpt lat="45.935450" lon="6.959068"><ele>3411.2</ele></trkpt>
      <trkpt lat="45.935633" lon="6.958899"><ele>3366.4</ele></trkpt>
      <trkpt lat="45.935797" lon="6.958741"><ele>3332.5</ele></trkpt>
      <trkpt lat="45.935732" lon="6.959000"><ele>3366.4</ele></trkpt>
      <trkpt lat="45.935799" lon="6.958649"><ele>3323.2</ele></trkpt>
      <trkpt lat="45.935948" lon="6.958491"><ele>3289.8</ele></trkpt>
      <trkpt lat="45.934819" lon="6.958204"><ele>3392.8</ele></trkpt>
      <trkpt lat="45.934481" lon="6.958265"><ele>3428.0</ele></trkpt>
      <trkpt lat="45.934911" lon="6.958044"><ele>3374.9</ele></trkpt>
      <trkpt lat="45.935355" lon="6.957925"><ele>3311.8</ele></trkpt>
      <trkpt lat="45.935234" lon="6.958208"><ele>3349.4</ele></trkpt>
      <trkpt lat="45.935058" lon="6.958603"><ele>3387.2</ele></trkpt>
      <trkpt lat="45.935202" lon="6.958422"><ele>3366.0</ele></trkpt>
      <trkpt lat="45.935044" lon="6.958684"><ele>3392.8</ele></trkpt>
      <trkpt lat="45.935208" lon="6.958380"><ele>3366.0</ele></trkpt>
      <trkpt lat="45.935040" lon="6.958751"><ele>3396.3</ele></trkpt>
      <trkpt lat="45.935203" lon="6.958510"><ele>3370.6</ele></trkpt>
      <trkpt lat="45.934984" lon="6.958755"><ele>3401.5</ele></trkpt>
      <trkpt lat="45.935171" lon="6.958483"><ele>3371.5</ele></trkpt>
      <trkpt lat="45.934977" lon="6.958500"><ele>3388.1</ele></trkpt>
      <trkpt lat="45.935137" lon="6.958308"><ele>3367.2</ele></trkpt>
      <trkpt lat="45.934753" lon="6.958768"><ele>3423.4</ele></trkpt>
      <trkpt lat="45.934535" lon="6.958855"><ele>3449.8</ele></trkpt>
      <trkpt lat="45.934116" lon="6.958883"><ele>3497.8</ele></trkpt>
      <trkpt lat="45.933755" lon="6.959232"><ele>3523.0</ele></trkpt>
      <trkpt lat="45.933461" lon="6.959348"><ele>3520.3</ele></trkpt>
      <trkpt lat="45.933192" lon="6.959293"><ele>3508.8</ele></trkpt>
      <trkpt lat="45.932881" lon="6.959049"><ele>3487.5</ele></trkpt>
      <trkpt lat="45.932578" lon="6.959098"><ele>3463.7</ele></trkpt>
      <trkpt lat="45.932298" lon="6.959049"><ele>3438.9</ele></trkpt>
      <trkpt lat="45.931865" lon="6.959016"><ele>3400.4</ele></trkpt>
      <trkpt lat="45.932184" lon="6.958160"><ele>3443.4</ele></trkpt>
      <trkpt lat="45.932824" lon="6.958461"><ele>3480.5</ele></trkpt>
      <trkpt lat="45.933386" lon="6.958609"><ele>3497.9</ele></trkpt>
      <trkpt lat="45.934829" lon="6.958323"><ele>3396.4</ele></trkpt>
      <trkpt lat="45.935854" lon="6.958312"><ele>3287.4</ele></trkpt>
      <trkpt lat="45.935565" lon="6.958454"><ele>3329.4</ele></trkpt>
      <trkpt lat="45.935375" lon="6.958679"><ele>3361.8</ele></trkpt>
      <trkpt lat="45.935175" lon="6.958903"><ele>3407.8</ele></trkpt>
      <trkpt lat="45.935455" lon="6.958816"><ele>3374.1</ele></trkpt>
      <trkpt lat="45.935181" lon="6.958841"><ele>3396.5</ele></trkpt>
      <trkpt lat="45.935000" lon="6.958796"><ele>3405.2</ele></trkpt>
      <trkpt lat="45.934708" lon="6.958923"><ele>3436.9</ele></trkpt>
      <trkpt lat="45.934480" lon="6.958803"><ele>3450.3</ele></trkpt>
      <trkpt lat="45.934490" lon="6.959095"><ele>3472.3</ele></trkpt>
      <trkpt lat="45.934289" lon="6.958863"><ele>3478.3</ele></trkpt>
      <trkpt lat="45.934506" lon="6.958861"><ele>3452.9</ele></trkpt>
      <trkpt lat="45.934720" lon="6.958870"><ele>3433.0</ele></trkpt>
      <trkpt lat="45.934413" lon="6.958914"><ele>3466.9</ele></trkpt>
      <trkpt lat="45.934616" lon="6.958999"><ele>3455.2</ele></trkpt>
      <trkpt lat="45.934252" lon="6.959134"><ele>3497.9</ele></trkpt>
      <trkpt lat="45.934688" lon="6.959149"><ele>3463.2</ele></trkpt>
      <trkpt lat="45.934888" lon="6.959212"><ele>3467.0</ele></trkpt>
      <trkpt lat="45.934706" lon="6.959242"><ele>3478.1</ele></trkpt>
      <trkpt lat="45.934258" lon="6.959198"><ele>3499.6</ele></trkpt>
      <trkpt lat="45.934091" lon="6.958940"><ele>3506.2</ele></trkpt>
      <trkpt lat="45.934071" lon="6.959214"><ele>3518.4</ele></trkpt>
      <trkpt lat="45.933872" lon="6.959291"><ele>3526.8</ele></trkpt>
      <trkpt lat="45.934426" lon="6.959519"><ele>3504.4</ele></trkpt>
      <trkpt lat="45.933383" lon="6.958503"><ele>3494.8</ele></trkpt>
      <trkpt lat="45.933645" lon="6.958631"><ele>3495.4</ele></trkpt>
      <trkpt lat="45.934112" lon="6.958885"><ele>3497.8</ele></trkpt>
      <trkpt lat="45.934361" lon="6.959134"><ele>3485.5</ele></trkpt>
      <trkpt lat="45.934586" lon="6.959165"><ele>3474.2</ele></trkpt>
      <trkpt lat="45.934165" lon="6.959157"><ele>3509.2</ele></trkpt>
      <trkpt lat="45.934420" lon="6.959149"><ele>3480.2</ele></trkpt>
      <trkpt lat="45.934873" lon="6.958317"><ele>3393.8</ele></trkpt>
      <trkpt lat="45.934625" lon="6.958219"><ele>3412.8</ele></trkpt>
      <trkpt lat="45.934857" lon="6.958412"><ele>3396.5</ele></trkpt>
      <trkpt lat="45.934664" lon="6.958377"><ele>3414.2</ele></trkpt>
      <trkpt lat="45.935056" lon="6.958260"><ele>3373.8</ele></trkpt>
      <trkpt lat="45.935253" lon="6.958342"><ele>3357.8</ele></trkpt>
      <trkpt lat="45.935625" lon="6.958262"><ele>3309.7</ele></trkpt>
      <trkpt lat="45.935828" lon="6.958168"><ele>3280.0</ele></trkpt>
      <trkpt lat="45.936108" lon="6.958091"><ele>3247.0</ele></trkpt>
      <trkpt lat="45.936072" lon="6.957613"><ele>3213.9</ele></trkpt>
      <trkpt lat="45.935592" lon="6.957672"><ele>3259.5</ele></trkpt>
      <trkpt lat="45.935412" lon="6.957586"><ele>3274.2</ele></trkpt>
      <trkpt lat="45.935789" lon="6.957630"><ele>3236.6</ele></trkpt>
      <trkpt lat="45.936100" lon="6.957584"><ele>3208.4</ele></trkpt>
      <trkpt lat="45.935557" lon="6.957652"><ele>3263.0</ele></trkpt>
      <trkpt lat="45.935192" lon="6.957648"><ele>3304.2</ele></trkpt>
      <trkpt lat="45.935720" lon="6.957594"><ele>3241.4</ele></trkpt>
      <trkpt lat="45.935299" lon="6.957695"><ele>3299.2</ele></trkpt>
      <trkpt lat="45.935716" lon="6.958004"><ele>3277.0</ele></trkpt>
      <trkpt lat="45.936018" lon="6.957947"><ele>3242.2</ele></trkpt>
      <trkpt lat="45.934198" lon="6.957746"><ele>3425.2</ele></trkpt>
      <trkpt lat="45.934412" lon="6.957868"><ele>3411.0</ele></trkpt>
      <trkpt lat="45.934257" lon="6.957715"><ele>3417.0</ele></trkpt>
      <trkpt lat="45.934458" lon="6.957861"><ele>3404.6</ele></trkpt>
      <trkpt lat="45.934624" lon="6.957660"><ele>3373.7</ele></trkpt>
      <trkpt lat="45.934792" lon="6.957564"><ele>3348.0</ele></trkpt>
      <trkpt lat="45.934481" lon="6.957586"><ele>3385.8</ele></trkpt>
      <trkpt lat="45.934328" lon="6.957771"><ele>3411.3</ele></trkpt>
      <trkpt lat="45.934523" lon="6.957647"><ele>3384.2</ele></trkpt>
      <trkpt lat="45.934723" lon="6.957581"><ele>3357.8</ele></trkpt>
      <trkpt lat="45.934884" lon="6.957353"><ele>3328.5</ele></trkpt>
      <trkpt lat="45.934759" lon="6.957557"><ele>3351.8</ele></trkpt>
      <trkpt lat="45.934571" lon="6.957631"><ele>3377.8</ele></trkpt>
      <trkpt lat="45.934743" lon="6.957468"><ele>3347.6</ele></trkpt>
      <trkpt lat="45.934966" lon="6.957276"><ele>3313.0</ele></trkpt>
      <trkpt lat="45.935158" lon="6.957254"><ele>3283.3</ele></trkpt>
      <trkpt lat="45.934962" lon="6.957340"><ele>3315.5</ele></trkpt>
      <trkpt lat="45.935174" lon="6.957365"><ele>3291.5</ele></trkpt>
      <trkpt lat="45.935352" lon="6.957463"><ele>3272.5</ele></trkpt>
      <trkpt lat="45.935180" lon="6.957571"><ele>3304.7</ele></trkpt>
      <trkpt lat="45.935299" lon="6.957356"><ele>3275.2</ele></trkpt>
      <trkpt lat="45.935148" lon="6.957166"><ele>3281.5</ele></trkpt>
      <trkpt lat="45.935340" lon="6.957198"><ele>3254.9</ele></trkpt>
      <trkpt lat="45.935495" lon="6.957060"><ele>3227.6</ele></trkpt>
      <trkpt lat="45.935689" lon="6.956975"><ele>3200.0</ele></trkpt>
      <trkpt lat="45.935634" lon="6.956681"><ele>3179.6</ele></trkpt>
      <trkpt lat="45.935851" lon="6.956777"><ele>3164.8</ele></trkpt>
      <trkpt lat="45.935991" lon="6.956551"><ele>3134.2</ele></trkpt>
      <trkpt lat="45.935970" lon="6.956087"><ele>3107.3</ele></trkpt>
      <trkpt lat="45.936117" lon="6.955897"><ele>3086.2</ele></trkpt>
      <trkpt lat="45.936178" lon="6.955628"><ele>3064.4</ele></trkpt>
      <trkpt lat="45.936070" lon="6.955331"><ele>3058.4</ele></trkpt>
      <trkpt lat="45.935901" lon="6.955022"><ele>2888.6</ele></trkpt>
      <trkpt lat="45.935931" lon="6.954727"><ele>2880.8</ele></trkpt>
      <trkpt lat="45.935973" lon="6.954324"><ele>2864.4</ele></trkpt>
      <trkpt lat="45.935957" lon="6.954049"><ele>2851.0</ele></trkpt>
      <trkpt lat="45.936071" lon="6.953825"><ele>2835.6</ele></trkpt>
      <trkpt lat="45.936214" lon="6.953325"><ele>2808.0</ele></trkpt>
      <trkpt lat="45.936097" lon="6.952879"><ele>2794.4</ele></trkpt>
      <trkpt lat="45.936247" lon="6.952629"><ele>2780.0</ele></trkpt>
      <trkpt lat="45.936297" lon="6.952310"><ele>2768.8</ele></trkpt>
      <trkpt lat="45.936325" lon="6.951979"><ele>2764.6</ele></trkpt>
      <trkpt lat="45.935887" lon="6.951448"><ele>2741.0</ele></trkpt>
      <trkpt lat="45.935969" lon="6.951160"><ele>2732.2</ele></trkpt>
      <trkpt lat="45.935972" lon="6.950770"><ele>2721.8</ele></trkpt>
      <trkpt lat="45.935476" lon="6.950244"><ele>2699.4</ele></trkpt>
      <trkpt lat="45.935122" lon="6.949935"><ele>2677.4</ele></trkpt>
      <trkpt lat="45.934937" lon="6.949881"><ele>2666.6</ele></trkpt>
      <trkpt lat="45.934644" lon="6.949343"><ele>2637.8</ele></trkpt>
      <trkpt lat="45.934533" lon="6.949017"><ele>2627.2</ele></trkpt>
      <trkpt lat="45.934165" lon="6.948721"><ele>2612.4</ele></trkpt>
      <trkpt lat="45.934050" lon="6.948450"><ele>2601.2</ele></trkpt>
      <trkpt lat="45.934177" lon="6.948237"><ele>2592.2</ele></trkpt>
      <trkpt lat="45.933697" lon="6.947549"><ele>2568.4</ele></trkpt>
      <trkpt lat="45.933472" lon="6.947101"><ele>2551.4</ele></trkpt>
      <trkpt lat="45.933271" lon="6.946604"><ele>2538.6</ele></trkpt>
      <trkpt lat="45.933057" lon="6.946234"><ele>2529.2</ele></trkpt>
      <trkpt lat="45.932965" lon="6.945988"><ele>2522.6</ele></trkpt>
      <trkpt lat="45.932672" lon="6.945751"><ele>2513.0</ele></trkpt>
      <trkpt lat="45.932457" lon="6.945453"><ele>2501.2</ele></trkpt>
      <trkpt lat="45.932312" lon="6.945112"><ele>2492.6</ele></trkpt>
      <trkpt lat="45.932285" lon="6.944647"><ele>2483.4</ele></trkpt>
      <trkpt lat="45.932181" lon="6.944040"><ele>2472.2</ele></trkpt>
      <trkpt lat="45.932166" lon="6.943419"><ele>2466.2</ele></trkpt>
      <trkpt lat="45.931633" lon="6.943408"><ele>2449.8</ele></trkpt>
      <trkpt lat="45.931331" lon="6.943200"><ele>2436.6</ele></trkpt>
      <trkpt lat="45.931354" lon="6.942818"><ele>2422.6</ele></trkpt>
      <trkpt lat="45.931081" lon="6.942409"><ele>2422.6</ele></trkpt>
      <trkpt lat="45.930555" lon="6.942320"><ele>2444.6</ele></trkpt>
      <trkpt lat="45.930226" lon="6.942056"><ele>2461.4</ele></trkpt>
      <trkpt lat="45.929958" lon="6.941865"><ele>2466.6</ele></trkpt>
      <trkpt lat="45.929731" lon="6.941761"><ele>2461.2</ele></trkpt>
      <trkpt lat="45.929614" lon="6.941286"><ele>2438.4</ele></trkpt>
      <trkpt lat="45.929674" lon="6.940763"><ele>2414.6</ele></trkpt>
      <trkpt lat="45.929485" lon="6.939862"><ele>2368.6</ele></trkpt>
      <trkpt lat="45.929530" lon="6.939443"><ele>2348.4</ele></trkpt>
      <trkpt lat="45.929592" lon="6.939195"><ele>2337.2</ele></trkpt>
      <trkpt lat="45.929728" lon="6.938914"><ele>2324.2</ele></trkpt>
      <trkpt lat="45.929514" lon="6.938623"><ele>2308.8</ele></trkpt>
      <trkpt lat="45.929375" lon="6.938379"><ele>2300.0</ele></trkpt>
      <trkpt lat="45.929257" lon="6.937905"><ele>2277.2</ele></trkpt>
      <trkpt lat="45.929191" lon="6.937590"><ele>2264.0</ele></trkpt>
      <trkpt lat="45.929255" lon="6.937326"><ele>2253.8</ele></trkpt>
      <trkpt lat="45.929328" lon="6.937055"><ele>2243.2</ele></trkpt>
      <trkpt lat="45.929323" lon="6.936670"><ele>2228.0</ele></trkpt>
      <trkpt lat="45.929226" lon="6.935851"><ele>2196.6</ele></trkpt>
      <trkpt lat="45.928919" lon="6.935196"><ele>2175.2</ele></trkpt>
      <trkpt lat="45.928825" lon="6.934789"><ele>2162.8</ele></trkpt>
      <trkpt lat="45.928600" lon="6.934493"><ele>2152.8</ele></trkpt>
      <trkpt lat="45.928499" lon="6.934274"><ele>2146.6</ele></trkpt>
      <trkpt lat="45.928296" lon="6.933883"><ele>2137.6</ele></trkpt>
      <trkpt lat="45.928008" lon="6.933229"><ele>2128.4</ele></trkpt>
      <trkpt lat="45.928147" lon="6.932983"><ele>2116.2</ele></trkpt>
      <trkpt lat="45.928296" lon="6.932799"><ele>2100.2</ele></trkpt>
      <trkpt lat="45.928273" lon="6.932487"><ele>2092.2</ele></trkpt>
      <trkpt lat="45.927905" lon="6.932317"><ele>2095.8</ele></trkpt>
      <trkpt lat="45.927482" lon="6.932204"><ele>2099.4</ele></trkpt>
      <trkpt lat="45.927269" lon="6.931863"><ele>2096.8</ele></trkpt>
      <trkpt lat="45.926899" lon="6.931646"><ele>2092.2</ele></trkpt>
      <trkpt lat="45.925794" lon="6.931479"><ele>2088.8</ele></trkpt>
      <trkpt lat="45.925522" lon="6.931369"><ele>2090.0</ele></trkpt>
      <trkpt lat="45.925197" lon="6.931450"><ele>2098.0</ele></trkpt>
      <trkpt lat="45.924902" lon="6.931309"><ele>2098.4</ele></trkpt>
      <trkpt lat="45.924789" lon="6.931548"><ele>2105.0</ele></trkpt>
      <trkpt lat="45.924525" lon="6.931632"><ele>2111.2</ele></trkpt>
      <trkpt lat="45.923996" lon="6.931673"><ele>2114.6</ele></trkpt>
      <trkpt lat="45.923730" lon="6.931940"><ele>2120.6</ele></trkpt>
      <trkpt lat="45.923792" lon="6.932210"><ele>2129.6</ele></trkpt>
      <trkpt lat="45.923632" lon="6.932857"><ele>2144.8</ele></trkpt>
      <trkpt lat="45.923445" lon="6.933484"><ele>2163.6</ele></trkpt>
      <trkpt lat="45.923404" lon="6.933856"><ele>2175.0</ele></trkpt>
      <trkpt lat="45.923249" lon="6.934075"><ele>2180.0</ele></trkpt>
      <trkpt lat="45.923266" lon="6.934685"><ele>2201.0</ele></trkpt>
      <trkpt lat="45.923060" lon="6.935179"><ele>2210.2</ele></trkpt>
      <trkpt lat="45.922999" lon="6.935469"><ele>2217.6</ele></trkpt>
      <trkpt lat="45.922809" lon="6.936276"><ele>2224.6</ele></trkpt>
      <trkpt lat="45.922693" lon="6.937076"><ele>2241.8</ele></trkpt>
      <trkpt lat="45.922370" lon="6.938272"><ele>2256.6</ele></trkpt>
      <trkpt lat="45.922171" lon="6.938621"><ele>2261.4</ele></trkpt>
      <trkpt lat="45.922066" lon="6.939262"><ele>2275.2</ele></trkpt>
      <trkpt lat="45.922127" lon="6.939590"><ele>2281.8</ele></trkpt>
      <trkpt lat="45.922075" lon="6.939858"><ele>2287.4</ele></trkpt>
      <trkpt lat="45.921929" lon="6.940196"><ele>2293.8</ele></trkpt>
      <trkpt lat="45.922009" lon="6.941368"><ele>2304.6</ele></trkpt>
      <trkpt lat="45.922160" lon="6.941875"><ele>2317.6</ele></trkpt>
      <trkpt lat="45.922129" lon="6.942350"><ele>2322.4</ele></trkpt>
      <trkpt lat="45.922020" lon="6.942766"><ele>2329.8</ele></trkpt>
      <trkpt lat="45.921731" lon="6.943122"><ele>2339.8</ele></trkpt>
      <trkpt lat="45.921953" lon="6.943426"><ele>2359.0</ele></trkpt>
      <trkpt lat="45.922146" lon="6.943740"><ele>2364.0</ele></trkpt>
      <trkpt lat="45.922173" lon="6.944111"><ele>2362.8</ele></trkpt>
      <trkpt lat="45.922355" lon="6.944457"><ele>2368.4</ele></trkpt>
      <trkpt lat="45.922172" lon="6.945040"><ele>2375.2</ele></trkpt>
      <trkpt lat="45.922133" lon="6.945433"><ele>2385.0</ele></trkpt>
      <trkpt lat="45.922168" lon="6.945711"><ele>2392.0</ele></trkpt>
      <trkpt lat="45.922086" lon="6.945950"><ele>2398.4</ele></trkpt>
      <trkpt lat="45.922071" lon="6.946279"><ele>2403.2</ele></trkpt>
      <trkpt lat="45.921898" lon="6.946467"><ele>2404.8</ele></trkpt>
      <trkpt lat="45.921761" lon="6.946750"><ele>2405.8</ele></trkpt>
      <trkpt lat="45.921670" lon="6.947157"><ele>2411.4</ele></trkpt>
      <trkpt lat="45.921646" lon="6.947433"><ele>2418.0</ele></trkpt>
      <trkpt lat="45.921600" lon="6.947728"><ele>2423.6</ele></trkpt>
      <trkpt lat="45.921444" lon="6.948018"><ele>2428.0</ele></trkpt>
      <trkpt lat="45.921220" lon="6.948123"><ele>2428.2</ele></trkpt>
      <trkpt lat="45.921006" lon="6.948221"><ele>2427.2</ele></trkpt>
      <trkpt lat="45.920797" lon="6.948285"><ele>2425.2</ele></trkpt>
      <trkpt lat="45.920314" lon="6.948123"><ele>2431.6</ele></trkpt>
      <trkpt lat="45.920245" lon="6.948443"><ele>2428.6</ele></trkpt>
      <trkpt lat="45.919979" lon="6.948418"><ele>2415.6</ele></trkpt>
      <trkpt lat="45.919434" lon="6.948836"><ele>2411.4</ele></trkpt>
      <trkpt lat="45.918732" lon="6.948666"><ele>2421.8</ele></trkpt>
      <trkpt lat="45.918549" lon="6.948683"><ele>2426.2</ele></trkpt>
      <trkpt lat="45.918321" lon="6.948654"><ele>2451.0</ele></trkpt>
      <trkpt lat="45.918318" lon="6.948298"><ele>2440.2</ele></trkpt>
      <trkpt lat="45.918118" lon="6.948566"><ele>2431.2</ele></trkpt>
      <trkpt lat="45.917881" lon="6.949102"><ele>2435.4</ele></trkpt>
      <trkpt lat="45.917738" lon="6.949383"><ele>2435.2</ele></trkpt>
      <trkpt lat="45.917622" lon="6.949660"><ele>2434.8</ele></trkpt>
      <trkpt lat="45.917103" lon="6.949985"><ele>2429.0</ele></trkpt>
      <trkpt lat="45.916698" lon="6.949874"><ele>2412.0</ele></trkpt>
      <trkpt lat="45.916651" lon="6.949588"><ele>2400.4</ele></trkpt>
      <trkpt lat="45.916447" lon="6.949548"><ele>2390.0</ele></trkpt>
      <trkpt lat="45.916239" lon="6.949490"><ele>2382.2</ele></trkpt>
      <trkpt lat="45.916160" lon="6.949082"><ele>2363.4</ele></trkpt>
      <trkpt lat="45.915931" lon="6.948959"><ele>2351.4</ele></trkpt>
      <trkpt lat="45.915588" lon="6.949082"><ele>2336.8</ele></trkpt>
      <trkpt lat="45.915233" lon="6.948980"><ele>2327.6</ele></trkpt>
      <trkpt lat="45.914796" lon="6.948748"><ele>2319.6</ele></trkpt>
      <trkpt lat="45.914854" lon="6.948467"><ele>2303.8</ele></trkpt>
      <trkpt lat="45.914612" lon="6.948417"><ele>2299.8</ele></trkpt>
      <trkpt lat="45.914324" lon="6.948248"><ele>2292.0</ele></trkpt>
      <trkpt lat="45.914023" lon="6.948272"><ele>2293.0</ele></trkpt>
      <trkpt lat="45.913563" lon="6.948546"><ele>2296.0</ele></trkpt>
      <trkpt lat="45.913220" lon="6.948666"><ele>2296.2</ele></trkpt>
      <trkpt lat="45.912859" lon="6.948668"><ele>2288.2</ele></trkpt>
      <trkpt lat="45.912553" lon="6.948778"><ele>2286.6</ele></trkpt>
      <trkpt lat="45.912364" lon="6.948882"><ele>2289.2</ele></trkpt>
      <trkpt lat="45.911966" lon="6.949043"><ele>2287.0</ele></trkpt>
      <trkpt lat="45.911457" lon="6.949338"><ele>2274.2</ele></trkpt>
      <trkpt lat="45.911172" lon="6.949253"><ele>2258.6</ele></trkpt>
      <trkpt lat="45.911255" lon="6.948992"><ele>2247.6</ele></trkpt>
      <trkpt lat="45.911031" lon="6.949055"><ele>2239.8</ele></trkpt>
      <trkpt lat="45.910823" lon="6.948908"><ele>2227.6</ele></trkpt>
      <trkpt lat="45.910543" lon="6.949084"><ele>2228.0</ele></trkpt>
      <trkpt lat="45.910274" lon="6.949020"><ele>2230.4</ele></trkpt>
      <trkpt lat="45.909842" lon="6.949063"><ele>2215.6</ele></trkpt>
      <trkpt lat="45.909928" lon="6.948799"><ele>2203.8</ele></trkpt>
      <trkpt lat="45.910173" lon="6.948650"><ele>2193.2</ele></trkpt>
      <trkpt lat="45.909890" lon="6.948498"><ele>2180.8</ele></trkpt>
      <trkpt lat="45.910197" lon="6.948276"><ele>2174.6</ele></trkpt>
      <trkpt lat="45.909947" lon="6.947849"><ele>2119.8</ele></trkpt>
      <trkpt lat="45.909750" lon="6.947567"><ele>2073.0</ele></trkpt>
      <trkpt lat="45.909707" lon="6.947274"><ele>2046.4</ele></trkpt>
      <trkpt lat="45.909385" lon="6.947230"><ele>2043.8</ele></trkpt>
      <trkpt lat="45.909275" lon="6.946984"><ele>2033.0</ele></trkpt>
      <trkpt lat="45.909146" lon="6.946790"><ele>2022.6</ele></trkpt>
      <trkpt lat="45.909088" lon="6.946458"><ele>2008.4</ele></trkpt>
      <trkpt lat="45.908862" lon="6.946211"><ele>1997.0</ele></trkpt>
      <trkpt lat="45.908658" lon="6.946191"><ele>1992.8</ele></trkpt>
      <trkpt lat="45.908243" lon="6.946289"><ele>1989.2</ele></trkpt>
      <trkpt lat="45.908085" lon="6.946434"><ele>1992.0</ele></trkpt>
      <trkpt lat="45.907737" lon="6.946340"><ele>1988.0</ele></trkpt>
      <trkpt lat="45.907504" lon="6.946336"><ele>1986.0</ele></trkpt>
      <trkpt lat="45.907214" lon="6.946191"><ele>1985.8</ele></trkpt>
      <trkpt lat="45.906927" lon="6.946073"><ele>1991.6</ele></trkpt>
      <trkpt lat="45.906763" lon="6.945922"><ele>1991.0</ele></trkpt>
      <trkpt lat="45.906556" lon="6.945619"><ele>1989.0</ele></trkpt>
      <trkpt lat="45.906152" lon="6.945238"><ele>1993.2</ele></trkpt>
      <trkpt lat="45.905900" lon="6.945116"><ele>1993.2</ele></trkpt>
      <trkpt lat="45.905615" lon="6.944816"><ele>1989.0</ele></trkpt>
      <trkpt lat="45.905497" lon="6.944589"><ele>1989.4</ele></trkpt>
      <trkpt lat="45.905275" lon="6.944434"><ele>1991.6</ele></trkpt>
      <trkpt lat="45.904968" lon="6.944728"><ele>2000.8</ele></trkpt>
      <trkpt lat="45.904630" lon="6.944875"><ele>2004.6</ele></trkpt>
      <trkpt lat="45.904396" lon="6.944891"><ele>2008.0</ele></trkpt>
      <trkpt lat="45.903882" lon="6.944652"><ele>2013.0</ele></trkpt>
      <trkpt lat="45.903616" lon="6.944595"><ele>2013.8</ele></trkpt>
      <trkpt lat="45.903433" lon="6.944151"><ele>2018.2</ele></trkpt>
      <trkpt lat="45.903197" lon="6.943866"><ele>2023.6</ele></trkpt>
      <trkpt lat="45.902891" lon="6.943217"><ele>2024.6</ele></trkpt>
      <trkpt lat="45.902467" lon="6.942375"><ele>2029.6</ele></trkpt>
      <trkpt lat="45.902260" lon="6.942045"><ele>2031.8</ele></trkpt>
      <trkpt lat="45.902244" lon="6.941750"><ele>2033.6</ele></trkpt>
      <trkpt lat="45.902038" lon="6.941968"><ele>2036.2</ele></trkpt>
      <trkpt lat="45.901954" lon="6.941705"><ele>2038.0</ele></trkpt>
      <trkpt lat="45.901748" lon="6.941777"><ele>2039.8</ele></trkpt>
      <trkpt lat="45.901395" lon="6.941537"><ele>2043.4</ele></trkpt>
      <trkpt lat="45.901145" lon="6.941926"><ele>2044.4</ele></trkpt>
      <trkpt lat="45.900953" lon="6.941870"><ele>2046.8</ele></trkpt>
      <trkpt lat="45.900660" lon="6.941699"><ele>2048.4</ele></trkpt>
      <trkpt lat="45.900383" lon="6.941448"><ele>2050.6</ele></trkpt>
      <trkpt lat="45.900190" lon="6.941395"><ele>2051.4</ele></trkpt>
      <trkpt lat="45.899790" lon="6.941097"><ele>2054.0</ele></trkpt>
      <trkpt lat="45.898835" lon="6.939718"><ele>2066.6</ele></trkpt>
      <trkpt lat="45.898178" lon="6.938992"><ele>2073.8</ele></trkpt>
      <trkpt lat="45.897542" lon="6.938380"><ele>2080.8</ele></trkpt>
      <trkpt lat="45.897284" lon="6.938268"><ele>2083.4</ele></trkpt>
      <trkpt lat="45.896700" lon="6.937624"><ele>2088.8</ele></trkpt>
      <trkpt lat="45.895985" lon="6.937527"><ele>2094.0</ele></trkpt>
      <trkpt lat="45.895252" lon="6.937527"><ele>2100.4</ele></trkpt>
      <trkpt lat="45.894865" lon="6.937398"><ele>2103.8</ele></trkpt>
      <trkpt lat="45.893830" lon="6.937357"><ele>2112.4</ele></trkpt>
      <trkpt lat="45.892447" lon="6.937081"><ele>2126.8</ele></trkpt>
      <trkpt lat="45.891357" lon="6.936972"><ele>2137.8</ele></trkpt>
      <trkpt lat="45.889849" lon="6.937168"><ele>2158.4</ele></trkpt>
      <trkpt lat="45.889270" lon="6.937406"><ele>2167.0</ele></trkpt>
      <trkpt lat="45.888085" lon="6.937513"><ele>2182.6</ele></trkpt>
      <trkpt lat="45.887812" lon="6.937665"><ele>2185.2</ele></trkpt>
      <trkpt lat="45.887348" lon="6.937766"><ele>2189.2</ele></trkpt>
      <trkpt lat="45.886989" lon="6.938016"><ele>2193.8</ele></trkpt>
      <trkpt lat="45.886458" lon="6.938257"><ele>2199.2</ele></trkpt>
      <trkpt lat="45.885936" lon="6.938234"><ele>2205.0</ele></trkpt>
      <trkpt lat="45.885701" lon="6.938322"><ele>2206.4</ele></trkpt>
      <trkpt lat="45.884320" lon="6.938473"><ele>2219.2</ele></trkpt>
      <trkpt lat="45.883628" lon="6.938885"><ele>2231.6</ele></trkpt>
      <trkpt lat="45.883377" lon="6.938804"><ele>2235.0</ele></trkpt>
      <trkpt lat="45.883401" lon="6.938423"><ele>2241.4</ele></trkpt>
      <trkpt lat="45.883089" lon="6.938466"><ele>2249.4</ele></trkpt>
      <trkpt lat="45.882945" lon="6.938636"><ele>2250.8</ele></trkpt>
      <trkpt lat="45.882690" lon="6.938526"><ele>2261.6</ele></trkpt>
      <trkpt lat="45.882500" lon="6.938486"><ele>2267.6</ele></trkpt>
      <trkpt lat="45.882122" lon="6.938521"><ele>2285.0</ele></trkpt>
      <trkpt lat="45.882002" lon="6.938715"><ele>2292.4</ele></trkpt>
      <trkpt lat="45.881786" lon="6.938277"><ele>2298.8</ele></trkpt>
      <trkpt lat="45.881560" lon="6.938017"><ele>2304.8</ele></trkpt>
      <trkpt lat="45.881507" lon="6.937424"><ele>2316.8</ele></trkpt>
      <trkpt lat="45.881386" lon="6.937128"><ele>2323.0</ele></trkpt>
      <trkpt lat="45.881255" lon="6.936629"><ele>2324.2</ele></trkpt>
      <trkpt lat="45.881322" lon="6.935795"><ele>2328.2</ele></trkpt>
      <trkpt lat="45.881791" lon="6.934984"><ele>2330.0</ele></trkpt>
      <trkpt lat="45.881966" lon="6.934498"><ele>2332.4</ele></trkpt>
      <trkpt lat="45.881824" lon="6.933536"><ele>2339.0</ele></trkpt>
      <trkpt lat="45.881835" lon="6.933087"><ele>2343.4</ele></trkpt>
      <trkpt lat="45.881647" lon="6.932131"><ele>2355.4</ele></trkpt>
      <trkpt lat="45.881512" lon="6.931827"><ele>2357.6</ele></trkpt>
      <trkpt lat="45.881512" lon="6.931408"><ele>2365.6</ele></trkpt>
      <trkpt lat="45.881368" lon="6.930841"><ele>2372.6</ele></trkpt>
      <trkpt lat="45.881500" lon="6.930371"><ele>2378.4</ele></trkpt>
      <trkpt lat="45.881673" lon="6.929947"><ele>2384.0</ele></trkpt>
      <trkpt lat="45.881402" lon="6.929575"><ele>2399.4</ele></trkpt>
      <trkpt lat="45.881340" lon="6.929290"><ele>2412.8</ele></trkpt>
      <trkpt lat="45.881283" lon="6.929012"><ele>2426.2</ele></trkpt>
      <trkpt lat="45.881267" lon="6.928733"><ele>2435.4</ele></trkpt>
      <trkpt lat="45.881203" lon="6.928197"><ele>2456.6</ele></trkpt>
      <trkpt lat="45.880903" lon="6.928032"><ele>2470.6</ele></trkpt>
      <trkpt lat="45.880937" lon="6.927675"><ele>2480.8</ele></trkpt>
      <trkpt lat="45.880876" lon="6.927303"><ele>2497.4</ele></trkpt>
      <trkpt lat="45.880703" lon="6.927039"><ele>2509.2</ele></trkpt>
      <trkpt lat="45.880813" lon="6.926646"><ele>2520.4</ele></trkpt>
      <trkpt lat="45.880796" lon="6.926386"><ele>2532.2</ele></trkpt>
      <trkpt lat="45.880404" lon="6.926131"><ele>2540.2</ele></trkpt>
      <trkpt lat="45.880061" lon="6.926082"><ele>2551.2</ele></trkpt>
      <trkpt lat="45.879971" lon="6.925781"><ele>2560.0</ele></trkpt>
      <trkpt lat="45.879842" lon="6.925597"><ele>2569.8</ele></trkpt>
      <trkpt lat="45.879637" lon="6.925504"><ele>2579.6</ele></trkpt>
      <trkpt lat="45.879447" lon="6.925364"><ele>2587.0</ele></trkpt>
      <trkpt lat="45.879299" lon="6.925095"><ele>2595.2</ele></trkpt>
      <trkpt lat="45.879420" lon="6.924863"><ele>2601.8</ele></trkpt>
      <trkpt lat="45.879380" lon="6.924459"><ele>2614.8</ele></trkpt>
      <trkpt lat="45.879211" lon="6.924245"><ele>2623.4</ele></trkpt>
      <trkpt lat="45.879057" lon="6.923807"><ele>2639.0</ele></trkpt>
      <trkpt lat="45.878919" lon="6.923507"><ele>2646.8</ele></trkpt>
      <trkpt lat="45.878681" lon="6.923530"><ele>2653.8</ele></trkpt>
      <trkpt lat="45.878462" lon="6.923449"><ele>2657.6</ele></trkpt>
      <trkpt lat="45.878249" lon="6.923523"><ele>2665.4</ele></trkpt>
      <trkpt lat="45.878092" lon="6.923330"><ele>2676.4</ele></trkpt>
      <trkpt lat="45.877873" lon="6.922999"><ele>2693.6</ele></trkpt>
      <trkpt lat="45.877583" lon="6.923414"><ele>2703.0</ele></trkpt>
      <trkpt lat="45.877364" lon="6.923484"><ele>2704.8</ele></trkpt>
      <trkpt lat="45.877062" lon="6.923424"><ele>2708.0</ele></trkpt>
      <trkpt lat="45.876319" lon="6.923049"><ele>2714.8</ele></trkpt>
      <trkpt lat="45.874302" lon="6.921551"><ele>2746.8</ele></trkpt>
      <trkpt lat="45.873807" lon="6.921415"><ele>2753.6</ele></trkpt>
      <trkpt lat="45.873248" lon="6.921117"><ele>2763.4</ele></trkpt>
      <trkpt lat="45.873132" lon="6.920871"><ele>2771.8</ele></trkpt>
      <trkpt lat="45.872464" lon="6.920205"><ele>2784.8</ele></trkpt>
      <trkpt lat="45.872071" lon="6.920025"><ele>2789.6</ele></trkpt>
      <trkpt lat="45.871527" lon="6.920054"><ele>2800.0</ele></trkpt>
      <trkpt lat="45.870778" lon="6.920449"><ele>2809.0</ele></trkpt>
      <trkpt lat="45.870002" lon="6.920690"><ele>2821.6</ele></trkpt>
      <trkpt lat="45.869704" lon="6.920640"><ele>2828.8</ele></trkpt>
      <trkpt lat="45.869451" lon="6.920488"><ele>2834.4</ele></trkpt>
      <trkpt lat="45.869108" lon="6.920661"><ele>2846.4</ele></trkpt>
      <trkpt lat="45.868873" lon="6.920525"><ele>2852.0</ele></trkpt>
      <trkpt lat="45.868709" lon="6.920312"><ele>2859.6</ele></trkpt>
      <trkpt lat="45.868197" lon="6.919972"><ele>2874.8</ele></trkpt>
      <trkpt lat="45.867989" lon="6.919649"><ele>2885.8</ele></trkpt>
      <trkpt lat="45.867687" lon="6.919360"><ele>2897.8</ele></trkpt>
      <trkpt lat="45.867119" lon="6.919092"><ele>2912.6</ele></trkpt>
      <trkpt lat="45.866883" lon="6.918849"><ele>2922.4</ele></trkpt>
      <trkpt lat="45.866422" lon="6.918552"><ele>2936.6</ele></trkpt>
      <trkpt lat="45.865919" lon="6.917633"><ele>2956.2</ele></trkpt>
      <trkpt lat="45.865613" lon="6.917404"><ele>2963.8</ele></trkpt>
      <trkpt lat="45.865239" lon="6.916985"><ele>2969.8</ele></trkpt>
      <trkpt lat="45.865077" lon="6.916648"><ele>2977.0</ele></trkpt>
      <trkpt lat="45.864843" lon="6.916466"><ele>2986.4</ele></trkpt>
      <trkpt lat="45.864571" lon="6.916066"><ele>2992.8</ele></trkpt>
      <trkpt lat="45.864533" lon="6.915706"><ele>3005.8</ele></trkpt>
      <trkpt lat="45.864453" lon="6.915189"><ele>3023.0</ele></trkpt>
      <trkpt lat="45.864340" lon="6.914938"><ele>3031.0</ele></trkpt>
      <trkpt lat="45.864290" lon="6.914538"><ele>3049.4</ele></trkpt>
      <trkpt lat="45.864350" lon="6.914279"><ele>3061.6</ele></trkpt>
      <trkpt lat="45.864319" lon="6.913884"><ele>3074.8</ele></trkpt>
      <trkpt lat="45.864220" lon="6.913642"><ele>3081.2</ele></trkpt>
      <trkpt lat="45.864177" lon="6.913330"><ele>3089.4</ele></trkpt>
      <trkpt lat="45.863825" lon="6.912573"><ele>3109.2</ele></trkpt>
      <trkpt lat="45.863589" lon="6.911237"><ele>3130.0</ele></trkpt>
      <trkpt lat="45.862844" lon="6.910063"><ele>3151.8</ele></trkpt>
      <trkpt lat="45.862988" lon="6.909549"><ele>3167.4</ele></trkpt>
      <trkpt lat="45.863040" lon="6.909075"><ele>3179.0</ele></trkpt>
      <trkpt lat="45.862984" lon="6.908733"><ele>3192.6</ele></trkpt>
      <trkpt lat="45.862849" lon="6.907963"><ele>3203.2</ele></trkpt>
      <trkpt lat="45.863102" lon="6.907406"><ele>3221.4</ele></trkpt>
      <trkpt lat="45.863294" lon="6.907123"><ele>3232.8</ele></trkpt>
      <trkpt lat="45.863478" lon="6.906921"><ele>3240.2</ele></trkpt>
      <trkpt lat="45.863705" lon="6.906590"><ele>3249.8</ele></trkpt>
      <trkpt lat="45.863859" lon="6.906276"><ele>3257.6</ele></trkpt>
      <trkpt lat="45.864232" lon="6.905843"><ele>3273.0</ele></trkpt>
      <trkpt lat="45.864396" lon="6.905536"><ele>3276.4</ele></trkpt>
      <trkpt lat="45.864422" lon="6.905183"><ele>3284.8</ele></trkpt>
      <trkpt lat="45.864671" lon="6.905129"><ele>3290.4</ele></trkpt>
      <trkpt lat="45.864961" lon="6.904467"><ele>3299.8</ele></trkpt>
      <trkpt lat="45.865173" lon="6.904201"><ele>3306.4</ele></trkpt>
      <trkpt lat="45.865488" lon="6.903733"><ele>3314.4</ele></trkpt>
      <trkpt lat="45.865710" lon="6.903522"><ele>3319.4</ele></trkpt>
      <trkpt lat="45.865803" lon="6.903247"><ele>3322.4</ele></trkpt>
      <trkpt lat="45.866046" lon="6.902924"><ele>3329.8</ele></trkpt>
      <trkpt lat="45.866157" lon="6.902623"><ele>3334.4</ele></trkpt>
      <trkpt lat="45.866316" lon="6.902414"><ele>3336.8</ele></trkpt>
      <trkpt lat="45.866604" lon="6.902216"><ele>3346.8</ele></trkpt>
      <trkpt lat="45.866797" lon="6.901789"><ele>3350.4</ele></trkpt>
      <trkpt lat="45.867048" lon="6.901563"><ele>3352.8</ele></trkpt>
      <trkpt lat="45.867048" lon="6.900911"><ele>3365.4</ele></trkpt>
      <trkpt lat="45.867079" lon="6.900656"><ele>3370.2</ele></trkpt>
      <trkpt lat="45.867339" lon="6.900305"><ele>3382.2</ele></trkpt>
      <trkpt lat="45.867364" lon="6.899879"><ele>3392.2</ele></trkpt>
      <trkpt lat="45.867625" lon="6.899603"><ele>3409.0</ele></trkpt>
      <trkpt lat="45.867651" lon="6.899247"><ele>3419.8</ele></trkpt>
      <trkpt lat="45.867869" lon="6.898801"><ele>3435.8</ele></trkpt>
      <trkpt lat="45.867965" lon="6.898023"><ele>3449.2</ele></trkpt>
      <trkpt lat="45.867999" lon="6.897586"><ele>3460.2</ele></trkpt>
      <trkpt lat="45.868318" lon="6.897262"><ele>3462.2</ele></trkpt>
      <trkpt lat="45.868772" lon="6.896392"><ele>3468.6</ele></trkpt>
      <trkpt lat="45.869363" lon="6.895483"><ele>3476.2</ele></trkpt>
      <trkpt lat="45.871053" lon="6.891491"><ele>3503.4</ele></trkpt>
      <trkpt lat="45.873053" lon="6.887578"><ele>3534.6</ele></trkpt>
      <trkpt lat="45.873886" lon="6.887865"><ele>3535.8</ele></trkpt>
      <trkpt lat="45.875114" lon="6.888446"><ele>3557.2</ele></trkpt>
      <trkpt lat="45.875434" lon="6.888627"><ele>3560.2</ele></trkpt>
      <trkpt lat="45.875986" lon="6.889098"><ele>3569.4</ele></trkpt>
      <trkpt lat="45.876879" lon="6.889556"><ele>3577.6</ele></trkpt>
      <trkpt lat="45.877453" lon="6.889938"><ele>3588.4</ele></trkpt>
      <trkpt lat="45.877952" lon="6.890250"><ele>3602.8</ele></trkpt>
      <trkpt lat="45.878068" lon="6.889984"><ele>3603.8</ele></trkpt>
      <trkpt lat="45.878618" lon="6.890356"><ele>3616.0</ele></trkpt>
      <trkpt lat="45.878338" lon="6.889629"><ele>3624.0</ele></trkpt>
      <trkpt lat="45.878751" lon="6.889749"><ele>3632.0</ele></trkpt>
      <trkpt lat="45.879276" lon="6.890453"><ele>3644.0</ele></trkpt>
      <trkpt lat="45.879399" lon="6.890752"><ele>3650.0</ele></trkpt>
      <trkpt lat="45.879601" lon="6.890776"><ele>3660.0</ele></trkpt>
      <trkpt lat="45.879717" lon="6.890536"><ele>3667.6</ele></trkpt>
      <trkpt lat="45.879906" lon="6.890465"><ele>3678.4</ele></trkpt>
      <trkpt lat="45.880181" lon="6.890108"><ele>3692.8</ele></trkpt>
      <trkpt lat="45.880219" lon="6.889794"><ele>3700.4</ele></trkpt>
      <trkpt lat="45.879877" lon="6.889490"><ele>3708.4</ele></trkpt>
      <trkpt lat="45.879206" lon="6.888528"><ele>3743.8</ele></trkpt>
      <trkpt lat="45.878999" lon="6.888544"><ele>3762.2</ele></trkpt>
      <trkpt lat="45.878864" lon="6.887967"><ele>3778.0</ele></trkpt>
    </trkseg>
  </trk>
</gpx>