<?xml version="1.0" encoding="UTF-8"?>
<gpx version="1.1" creator="AlpHD-fetch-route" xmlns="http://www.topografix.com/GPX/1/1">
  <trk>
    <name>Couloir Couturier</name>
    <trkseg>
      <trkpt lat="45.9463840" lon="7.0044664"><ele>2756.6</ele></trkpt>
      <trkpt lat="45.9463892" lon="7.0044270"><ele>2753.3</ele></trkpt>
      <trkpt lat="45.9464390" lon="7.0040457"><ele>2750.2</ele></trkpt>
      <trkpt lat="45.9465453" lon="7.0037670"><ele>2747.2</ele></trkpt>
      <trkpt lat="45.9466752" lon="7.0034268"><ele>2744.7</ele></trkpt>
      <trkpt lat="45.9467589" lon="7.0030681"><ele>2739.2</ele></trkpt>
      <trkpt lat="45.9468447" lon="7.0027002"><ele>2733.9</ele></trkpt>
      <trkpt lat="45.9468680" lon="7.0024889"><ele>2730.1</ele></trkpt>
      <trkpt lat="45.9469087" lon="7.0023406"><ele>2727.0</ele></trkpt>
      <trkpt lat="45.9470077" lon="7.0019797"><ele>2724.7</ele></trkpt>
      <trkpt lat="45.9469443" lon="7.0016554"><ele>2722.5</ele></trkpt>
      <trkpt lat="45.9468713" lon="7.0012819"><ele>2720.2</ele></trkpt>
      <trkpt lat="45.9468622" lon="7.0012131"><ele>2717.9</ele></trkpt>
      <trkpt lat="45.9468121" lon="7.0008318"><ele>2715.5</ele></trkpt>
      <trkpt lat="45.9468020" lon="7.0007534"><ele>2712.3</ele></trkpt>
      <trkpt lat="45.9467796" lon="7.0006130"><ele>2709.3</ele></trkpt>
      <trkpt lat="45.9467790" lon="7.0004845"><ele>2707.2</ele></trkpt>
      <trkpt lat="45.9467925" lon="7.0004066"><ele>2706.3</ele></trkpt>
      <trkpt lat="45.9468573" lon="7.0000299"><ele>2706.2</ele></trkpt>
      <trkpt lat="45.9420566" lon="6.9877339"><ele>2707.0</ele></trkpt>
      <trkpt lat="45.9419182" lon="6.9875783"><ele>2709.2</ele></trkpt>
      <trkpt lat="45.9419529" lon="6.9873862"><ele>2713.0</ele></trkpt>
      <trkpt lat="45.9417020" lon="6.9872844"><ele>2717.6</ele></trkpt>
      <trkpt lat="45.9417045" lon="6.9872019"><ele>2723.9</ele></trkpt>
      <trkpt lat="45.9416824" lon="6.9870564"><ele>2730.2</ele></trkpt>
      <trkpt lat="45.9416698" lon="6.9867709"><ele>2737.0</ele></trkpt>
      <trkpt lat="45.9417128" lon="6.9866806"><ele>2743.8</ele></trkpt>
      <trkpt lat="45.9417253" lon="6.9865938"><ele>2750.8</ele></trkpt>
      <trkpt lat="45.9417502" lon="6.9865272"><ele>2757.5</ele></trkpt>
      <trkpt lat="45.9418776" lon="6.9861852"><ele>2764.9</ele></trkpt>
      <trkpt lat="45.9418980" lon="6.9859183"><ele>2772.7</ele></trkpt>
      <trkpt lat="45.9417796" lon="6.9857181"><ele>2780.2</ele></trkpt>
      <trkpt lat="45.9417986" lon="6.9856882"><ele>2788.8</ele></trkpt>
      <trkpt lat="45.9419805" lon="6.9854018"><ele>2798.5</ele></trkpt>
      <trkpt lat="45.9421625" lon="6.9851153"><ele>2808.2</ele></trkpt>
      <trkpt lat="45.9421640" lon="6.9851115"><ele>2818.2</ele></trkpt>
      <trkpt lat="45.9422939" lon="6.9847715"><ele>2828.2</ele></trkpt>
      <trkpt lat="45.9424543" lon="6.9846460"><ele>2838.9</ele></trkpt>
      <trkpt lat="45.9424558" lon="6.9842738"><ele>2848.5</ele></trkpt>
      <trkpt lat="45.9424573" lon="6.9838858"><ele>2857.0</ele></trkpt>
      <trkpt lat="45.9425626" lon="6.9835951"><ele>2865.7</ele></trkpt>
      <trkpt lat="45.9425801" lon="6.9833498"><ele>2874.3</ele></trkpt>
      <trkpt lat="45.9425260" lon="6.9833233"><ele>2882.6</ele></trkpt>
      <trkpt lat="45.9424760" lon="6.9832347"><ele>2890.1</ele></trkpt>
      <trkpt lat="45.9424632" lon="6.9832192"><ele>2896.4</ele></trkpt>
      <trkpt lat="45.9422562" lon="6.9829703"><ele>2901.8</ele></trkpt>
      <trkpt lat="45.9421269" lon="6.9827227"><ele>2907.5</ele></trkpt>
      <trkpt lat="45.9421877" lon="6.9825581"><ele>2913.8</ele></trkpt>
      <trkpt lat="45.9422096" lon="6.9824526"><ele>2920.5</ele></trkpt>
      <trkpt lat="45.9422204" lon="6.9824147"><ele>2929.0</ele></trkpt>
      <trkpt lat="45.9423227" lon="6.9820557"><ele>2936.5</ele></trkpt>
      <trkpt lat="45.9423156" lon="6.9817548"><ele>2944.2</ele></trkpt>
      <trkpt lat="45.9423860" lon="6.9814694"><ele>2951.8</ele></trkpt>
      <trkpt lat="45.9421527" lon="6.9813531"><ele>2960.4</ele></trkpt>
      <trkpt lat="45.9421202" lon="6.9812732"><ele>2969.0</ele></trkpt>
      <trkpt lat="45.9419409" lon="6.9811360"><ele>2977.7</ele></trkpt>
      <trkpt lat="45.9418739" lon="6.9810231"><ele>2986.3</ele></trkpt>
      <trkpt lat="45.9416917" lon="6.9808955"><ele>2994.6</ele></trkpt>
      <trkpt lat="45.9416931" lon="6.9808450"><ele>3002.7</ele></trkpt>
      <trkpt lat="45.9417040" lon="6.9804573"><ele>3011.9</ele></trkpt>
      <trkpt lat="45.9416319" lon="6.9802704"><ele>3020.2</ele></trkpt>
      <trkpt lat="45.9415882" lon="6.9801195"><ele>3028.3</ele></trkpt>
      <trkpt lat="45.9414787" lon="6.9797647"><ele>3035.2</ele></trkpt>
      <trkpt lat="45.9413667" lon="6.9794115"><ele>3042.9</ele></trkpt>
      <trkpt lat="45.9413122" lon="6.9793479"><ele>3050.1</ele></trkpt>
      <trkpt lat="45.9412753" lon="6.9792685"><ele>3057.6</ele></trkpt>
      <trkpt lat="45.9412648" lon="6.9792542"><ele>3065.5</ele></trkpt>
      <trkpt lat="45.9410695" lon="6.9789872"><ele>3071.9</ele></trkpt>
      <trkpt lat="45.9409096" lon="6.9789726"><ele>3077.5</ele></trkpt>
      <trkpt lat="45.9406396" lon="6.9789791"><ele>3083.4</ele></trkpt>
      <trkpt lat="45.9403894" lon="6.9788699"><ele>3089.0</ele></trkpt>
      <trkpt lat="45.9403041" lon="6.9788570"><ele>3095.2</ele></trkpt>
      <trkpt lat="45.9400386" lon="6.9788170"><ele>3100.5</ele></trkpt>
      <trkpt lat="45.9397760" lon="6.9787793"><ele>3105.3</ele></trkpt>
      <trkpt lat="45.9396339" lon="6.9788170"><ele>3109.0</ele></trkpt>
      <trkpt lat="45.9395174" lon="6.9791423"><ele>3111.6</ele></trkpt>
      <trkpt lat="45.9394994" lon="6.9792667"><ele>3113.9</ele></trkpt>
      <trkpt lat="45.9395175" lon="6.9793953"><ele>3115.7</ele></trkpt>
      <trkpt lat="45.9395242" lon="6.9795577"><ele>3117.3</ele></trkpt>
      <trkpt lat="45.9396152" lon="6.9797980"><ele>3119.1</ele></trkpt>
      <trkpt lat="45.9396002" lon="6.9798102"><ele>3120.3</ele></trkpt>
      <trkpt lat="45.9395697" lon="6.9797917"><ele>3123.7</ele></trkpt>
      <trkpt lat="45.9395307" lon="6.9797733"><ele>3127.9</ele></trkpt>
      <trkpt lat="45.9395096" lon="6.9797521"><ele>3132.9</ele></trkpt>
      <trkpt lat="45.9395014" lon="6.9797462"><ele>3138.3</ele></trkpt>
      <trkpt lat="45.9392607" lon="6.9795585"><ele>3145.1</ele></trkpt>
      <trkpt lat="45.9392415" lon="6.9793690"><ele>3152.6</ele></trkpt>
      <trkpt lat="45.9392071" lon="6.9791000"><ele>3160.2</ele></trkpt>
      <trkpt lat="45.9391954" lon="6.9790657"><ele>3168.2</ele></trkpt>
      <trkpt lat="45.9391693" lon="6.9788857"><ele>3177.3</ele></trkpt>
      <trkpt lat="45.9390761" lon="6.9786015"><ele>3184.9</ele></trkpt>
      <trkpt lat="45.9390637" lon="6.9784954"><ele>3193.0</ele></trkpt>
      <trkpt lat="45.9390003" lon="6.9784188"><ele>3200.6</ele></trkpt>
      <trkpt lat="45.9389459" lon="6.9783456"><ele>3208.5</ele></trkpt>
      <trkpt lat="45.9390217" lon="6.9782966"><ele>3215.0</ele></trkpt>
      <trkpt lat="45.9391684" lon="6.9781528"><ele>3220.8</ele></trkpt>
      <trkpt lat="45.9389664" lon="6.9781301"><ele>3228.0</ele></trkpt>
      <trkpt lat="45.9387992" lon="6.9780659"><ele>3236.2</ele></trkpt>
      <trkpt lat="45.9387648" lon="6.9780549"><ele>3245.2</ele></trkpt>
      <trkpt lat="45.9387463" lon="6.9779935"><ele>3255.3</ele></trkpt>
      <trkpt lat="45.9386565" lon="6.9776332"><ele>3266.4</ele></trkpt>
      <trkpt lat="45.9385639" lon="6.9772712"><ele>3277.3</ele></trkpt>
      <trkpt lat="45.9384738" lon="6.9769188"><ele>3288.8</ele></trkpt>
      <trkpt lat="45.9383815" lon="6.9765711"><ele>3300.4</ele></trkpt>
      <trkpt lat="45.9382784" lon="6.9761809"><ele>3312.5</ele></trkpt>
      <trkpt lat="45.9382679" lon="6.9762195"><ele>3324.4</ele></trkpt>
      <trkpt lat="45.9380973" lon="6.9762109"><ele>3335.3</ele></trkpt>
      <trkpt lat="45.9380765" lon="6.9762002"><ele>3346.1</ele></trkpt>
      <trkpt lat="45.9379830" lon="6.9761321"><ele>3355.3</ele></trkpt>
      <trkpt lat="45.9377423" lon="6.9759639"><ele>3362.1</ele></trkpt>
      <trkpt lat="45.9376876" lon="6.9759024"><ele>3369.0</ele></trkpt>
      <trkpt lat="45.9375398" lon="6.9758716"><ele>3374.9</ele></trkpt>
      <trkpt lat="45.9375544" lon="6.9758505"><ele>3381.4</ele></trkpt>
      <trkpt lat="45.9375529" lon="6.9758516"><ele>3388.2</ele></trkpt>
      <trkpt lat="45.9373135" lon="6.9760247"><ele>3393.2</ele></trkpt>
      <trkpt lat="45.9375149" lon="6.9758739"><ele>3396.5</ele></trkpt>
      <trkpt lat="45.9377432" lon="6.9757022"><ele>3398.0</ele></trkpt>
      <trkpt lat="45.9378545" lon="6.9756391"><ele>3398.7</ele></trkpt>
      <trkpt lat="45.9378470" lon="6.9756387"><ele>3399.2</ele></trkpt>
      <trkpt lat="45.9377776" lon="6.9756799"><ele>3400.0</ele></trkpt>
      <trkpt lat="45.9375267" lon="6.9758261"><ele>3400.7</ele></trkpt>
      <trkpt lat="45.9374905" lon="6.9758351"><ele>3400.2</ele></trkpt>
      <trkpt lat="45.9374217" lon="6.9758606"><ele>3398.0</ele></trkpt>
      <trkpt lat="45.9373023" lon="6.9758463"><ele>3397.4</ele></trkpt>
      <trkpt lat="45.9373536" lon="6.9757546"><ele>3398.7</ele></trkpt>
      <trkpt lat="45.9373903" lon="6.9757266"><ele>3400.6</ele></trkpt>
      <trkpt lat="45.9374172" lon="6.9757105"><ele>3404.2</ele></trkpt>
      <trkpt lat="45.9376571" lon="6.9755631"><ele>3408.6</ele></trkpt>
      <trkpt lat="45.9376430" lon="6.9754590"><ele>3413.8</ele></trkpt>
      <trkpt lat="45.9376798" lon="6.9754366"><ele>3420.1</ele></trkpt>
      <trkpt lat="45.9376878" lon="6.9753177"><ele>3428.6</ele></trkpt>
      <trkpt lat="45.9376592" lon="6.9752894"><ele>3440.2</ele></trkpt>
      <trkpt lat="45.9375790" lon="6.9751594"><ele>3452.3</ele></trkpt>
      <trkpt lat="45.9374705" lon="6.9749827"><ele>3464.0</ele></trkpt>
      <trkpt lat="45.9375240" lon="6.9749781"><ele>3476.5</ele></trkpt>
      <trkpt lat="45.9374504" lon="6.9749432"><ele>3490.1</ele></trkpt>
      <trkpt lat="45.9374140" lon="6.9748575"><ele>3504.7</ele></trkpt>
      <trkpt lat="45.9373856" lon="6.9748150"><ele>3517.9</ele></trkpt>
      <trkpt lat="45.9373249" lon="6.9747550"><ele>3531.0</ele></trkpt>
      <trkpt lat="45.9372366" lon="6.9745891"><ele>3542.7</ele></trkpt>
      <trkpt lat="45.9371483" lon="6.9744476"><ele>3552.6</ele></trkpt>
      <trkpt lat="45.9371507" lon="6.9744326"><ele>3561.6</ele></trkpt>
      <trkpt lat="45.9372859" lon="6.9742387"><ele>3570.2</ele></trkpt>
      <trkpt lat="45.9373568" lon="6.9741719"><ele>3578.2</ele></trkpt>
      <trkpt lat="45.9373565" lon="6.9741884"><ele>3584.2</ele></trkpt>
      <trkpt lat="45.9372760" lon="6.9741028"><ele>3589.4</ele></trkpt>
      <trkpt lat="45.9372949" lon="6.9740812"><ele>3595.3</ele></trkpt>
      <trkpt lat="45.9370887" lon="6.9741034"><ele>3600.6</ele></trkpt>
      <trkpt lat="45.9370476" lon="6.9741122"><ele>3606.3</ele></trkpt>
      <trkpt lat="45.9369542" lon="6.9740366"><ele>3612.1</ele></trkpt>
      <trkpt lat="45.9369060" lon="6.9739744"><ele>3619.6</ele></trkpt>
      <trkpt lat="45.9368124" lon="6.9738698"><ele>3630.5</ele></trkpt>
      <trkpt lat="45.9367591" lon="6.9738466"><ele>3641.0</ele></trkpt>
      <trkpt lat="45.9366982" lon="6.9737776"><ele>3654.3</ele></trkpt>
      <trkpt lat="45.9366331" lon="6.9735059"><ele>3667.4</ele></trkpt>
      <trkpt lat="45.9365503" lon="6.9731455"><ele>3680.1</ele></trkpt>
      <trkpt lat="45.9365246" lon="6.9731017"><ele>3693.2</ele></trkpt>
      <trkpt lat="45.9363511" lon="6.9727889"><ele>3706.8</ele></trkpt>
      <trkpt lat="45.9364379" lon="6.9727997"><ele>3719.7</ele></trkpt>
      <trkpt lat="45.9364498" lon="6.9728057"><ele>3730.0</ele></trkpt>
      <trkpt lat="45.9363693" lon="6.9727495"><ele>3736.6</ele></trkpt>
      <trkpt lat="45.9364022" lon="6.9727082"><ele>3742.6</ele></trkpt>
      <trkpt lat="45.9363201" lon="6.9727161"><ele>3745.3</ele></trkpt>
      <trkpt lat="45.9365181" lon="6.9728216"><ele>3748.5</ele></trkpt>
      <trkpt lat="45.9365033" lon="6.9728101"><ele>3754.6</ele></trkpt>
      <trkpt lat="45.9364550" lon="6.9727656"><ele>3760.1</ele></trkpt>
      <trkpt lat="45.9364549" lon="6.9727626"><ele>3764.9</ele></trkpt>
      <trkpt lat="45.9364277" lon="6.9726669"><ele>3773.1</ele></trkpt>
      <trkpt lat="45.9363255" lon="6.9723113"><ele>3782.2</ele></trkpt>
      <trkpt lat="45.9363178" lon="6.9722816"><ele>3792.2</ele></trkpt>
      <trkpt lat="45.9363051" lon="6.9722313"><ele>3805.9</ele></trkpt>
      <trkpt lat="45.9362203" lon="6.9718728"><ele>3820.0</ele></trkpt>
      <trkpt lat="45.9361016" lon="6.9717698"><ele>3836.0</ele></trkpt>
      <trkpt lat="45.9360509" lon="6.9716692"><ele>3852.3</ele></trkpt>
      <trkpt lat="45.9358796" lon="6.9713439"><ele>3871.0</ele></trkpt>
      <trkpt lat="45.9358538" lon="6.9713024"><ele>3891.4</ele></trkpt>
      <trkpt lat="45.9356670" lon="6.9710181"><ele>3910.0</ele></trkpt>
      <trkpt lat="45.9354937" lon="6.9707537"><ele>3933.0</ele></trkpt>
      <trkpt lat="45.9353081" lon="6.9704740"><ele>3956.7</ele></trkpt>
      <trkpt lat="45.9353315" lon="6.9701727"><ele>3980.9</ele></trkpt>
      <trkpt lat="45.9352155" lon="6.9701034"><ele>4009.7</ele></trkpt>
      <trkpt lat="45.9349651" lon="6.9699256"><ele>4023.1</ele></trkpt>
      <trkpt lat="45.9347714" lon="6.9697589"><ele>4035.9</ele></trkpt>
      <trkpt lat="45.9345477" lon="6.9698858"><ele>4049.0</ele></trkpt>
      <trkpt lat="45.9346518" lon="6.9700185"><ele>4063.2</ele></trkpt>
    </trkseg>
  </trk>
</gpx>