<?xml version="1.0" encoding="UTF-8"?>
<gpx version="1.1" creator="AlpHD" xmlns="http://www.topografix.com/GPX/1/1">
  <trk>
    <name>Les Droites — Couloir Lagarde direct</name>
    <trkseg>
      <trkpt lat="45.94796752" lon="6.94505428"><ele>2755.0</ele></trkpt>
      <trkpt lat="45.94795302" lon="6.94493283"><ele>2755.2</ele></trkpt>
      <trkpt lat="45.94802518" lon="6.94476795"><ele>2755.0</ele></trkpt>
      <trkpt lat="45.94831905" lon="6.94525813"><ele>2751.8</ele></trkpt>
      <trkpt lat="45.94865768" lon="6.94662555"><ele>2735.2</ele></trkpt>
      <trkpt lat="45.94877587" lon="6.94686896"><ele>2732.6</ele></trkpt>
      <trkpt lat="45.94927157" lon="6.94744874"><ele>2724.6</ele></trkpt>
      <trkpt lat="45.94959553" lon="6.94766658"><ele>2716.0</ele></trkpt>
      <trkpt lat="45.94998764" lon="6.94781972"><ele>2709.4</ele></trkpt>
      <trkpt lat="45.95015947" lon="6.94800991"><ele>2704.2</ele></trkpt>
      <trkpt lat="45.95058971" lon="6.94873176"><ele>2700.8</ele></trkpt>
      <trkpt lat="45.95082893" lon="6.94970682"><ele>2717.2</ele></trkpt>
      <trkpt lat="45.95126119" lon="6.95036463"><ele>2731.8</ele></trkpt>
      <trkpt lat="45.95137593" lon="6.95105053"><ele>2748.2</ele></trkpt>
      <trkpt lat="45.95154500" lon="6.95158387"><ele>2759.2</ele></trkpt>
      <trkpt lat="45.95170794" lon="6.95283118"><ele>2787.6</ele></trkpt>
      <trkpt lat="45.95190139" lon="6.95352629"><ele>2802.8</ele></trkpt>
      <trkpt lat="45.95187290" lon="6.95455860"><ele>2823.4</ele></trkpt>
      <trkpt lat="45.95207046" lon="6.95549796"><ele>2844.4</ele></trkpt>
      <trkpt lat="45.95192403" lon="6.95548321"><ele>2848.2</ele></trkpt>
      <trkpt lat="45.95200474" lon="6.95584514"><ele>2856.8</ele></trkpt>
      <trkpt lat="45.95203559" lon="6.95694527"><ele>2879.6</ele></trkpt>
      <trkpt lat="45.95182219" lon="6.95678500"><ele>2886.8</ele></trkpt>
      <trkpt lat="45.95179771" lon="6.95737149"><ele>2900.0</ele></trkpt>
      <trkpt lat="45.95203232" lon="6.95907268"><ele>2934.4</ele></trkpt>
      <trkpt lat="45.95134232" lon="6.95862299"><ele>2954.2</ele></trkpt>
      <trkpt lat="45.95172630" lon="6.96015025"><ele>2982.0</ele></trkpt>
      <trkpt lat="45.95186183" lon="6.96027322"><ele>2983.0</ele></trkpt>
      <trkpt lat="45.95229249" lon="6.96037120"><ele>2988.4</ele></trkpt>
      <trkpt lat="45.95231932" lon="6.96047891"><ele>2990.2</ele></trkpt>
      <trkpt lat="45.95225679" lon="6.96042912"><ele>2990.4</ele></trkpt>
      <trkpt lat="45.95229241" lon="6.96045293"><ele>2990.6</ele></trkpt>
      <trkpt lat="45.95224321" lon="6.96091544"><ele>2995.4</ele></trkpt>
      <trkpt lat="45.95209527" lon="6.96146269"><ele>3000.4</ele></trkpt>
      <trkpt lat="45.95194842" lon="6.96179336"><ele>3004.6</ele></trkpt>
      <trkpt lat="45.95160853" lon="6.96229694"><ele>3009.4</ele></trkpt>
      <trkpt lat="45.95094359" lon="6.96414884"><ele>3032.6</ele></trkpt>
      <trkpt lat="45.95037924" lon="6.96519675"><ele>3047.4</ele></trkpt>
      <trkpt lat="45.94996233" lon="6.96558927"><ele>3054.8</ele></trkpt>
      <trkpt lat="45.94960568" lon="6.96571902"><ele>3060.8</ele></trkpt>
      <trkpt lat="45.94930200" lon="6.96569840"><ele>3066.6</ele></trkpt>
      <trkpt lat="45.94934165" lon="6.96573981"><ele>3066.6</ele></trkpt>
      <trkpt lat="45.94919102" lon="6.96586411"><ele>3065.8</ele></trkpt>
      <trkpt lat="45.94860555" lon="6.96616452"><ele>3062.8</ele></trkpt>
      <trkpt lat="45.94801923" lon="6.96665226"><ele>3057.2</ele></trkpt>
      <trkpt lat="45.94701868" lon="6.96784057"><ele>3045.2</ele></trkpt>
      <trkpt lat="45.94658392" lon="6.96824835"><ele>3041.6</ele></trkpt>
      <trkpt lat="45.94584446" lon="6.96945190"><ele>3032.6</ele></trkpt>
      <trkpt lat="45.94497585" lon="6.97045497"><ele>3024.2</ele></trkpt>
      <trkpt lat="45.94456019" lon="6.97117019"><ele>3016.8</ele></trkpt>
      <trkpt lat="45.94387790" lon="6.97337254"><ele>3002.2</ele></trkpt>
      <trkpt lat="45.94381529" lon="6.97362500"><ele>2999.2</ele></trkpt>
      <trkpt lat="45.94388737" lon="6.97377998"><ele>2994.6</ele></trkpt>
      <trkpt lat="45.94374605" lon="6.97414770"><ele>2988.2</ele></trkpt>
      <trkpt lat="45.94377254" lon="6.97426454"><ele>2987.4</ele></trkpt>
      <trkpt lat="45.94394286" lon="6.97426689"><ele>2983.6</ele></trkpt>
      <trkpt lat="45.94400128" lon="6.97435699"><ele>2980.0</ele></trkpt>
      <trkpt lat="45.94387715" lon="6.97558561"><ele>2958.8</ele></trkpt>
      <trkpt lat="45.94392970" lon="6.97621250"><ele>2951.6</ele></trkpt>
      <trkpt lat="45.94417152" lon="6.97682605"><ele>2947.4</ele></trkpt>
      <trkpt lat="45.94412751" lon="6.97734766"><ele>2943.8</ele></trkpt>
      <trkpt lat="45.94417077" lon="6.97744455"><ele>2944.0</ele></trkpt>
      <trkpt lat="45.94397865" lon="6.97848667"><ele>2941.6</ele></trkpt>
      <trkpt lat="45.94369425" lon="6.97904700"><ele>2937.8</ele></trkpt>
      <trkpt lat="45.94357314" lon="6.98029750"><ele>2931.4</ele></trkpt>
      <trkpt lat="45.94336485" lon="6.98119604"><ele>2919.8</ele></trkpt>
      <trkpt lat="45.94224821" lon="6.98361405"><ele>2898.4</ele></trkpt>
      <trkpt lat="45.94204520" lon="6.98388328"><ele>2889.6</ele></trkpt>
      <trkpt lat="45.94199331" lon="6.98419509"><ele>2878.8</ele></trkpt>
      <trkpt lat="45.94142594" lon="6.98439768"><ele>2866.6</ele></trkpt>
      <trkpt lat="45.94114968" lon="6.98467763"><ele>2863.2</ele></trkpt>
      <trkpt lat="45.94092362" lon="6.98508533"><ele>2855.4</ele></trkpt>
      <trkpt lat="45.94044912" lon="6.98559771"><ele>2849.6</ele></trkpt>
      <trkpt lat="45.94009121" lon="6.98618864"><ele>2843.6</ele></trkpt>
      <trkpt lat="45.93854425" lon="6.98837958"><ele>2818.6</ele></trkpt>
      <trkpt lat="45.93819363" lon="6.99011925"><ele>2807.6</ele></trkpt>
      <trkpt lat="45.93804904" lon="6.99053801"><ele>2804.4</ele></trkpt>
      <trkpt lat="45.93759114" lon="6.99309977"><ele>2785.2</ele></trkpt>
      <trkpt lat="45.93755091" lon="6.99359891"><ele>2780.4</ele></trkpt>
      <trkpt lat="45.93758158" lon="6.99381961"><ele>2777.8</ele></trkpt>
      <trkpt lat="45.93745602" lon="6.99533547"><ele>2761.6</ele></trkpt>
      <trkpt lat="45.93748444" lon="6.99544192"><ele>2761.6</ele></trkpt>
      <trkpt lat="45.93769072" lon="6.99564485"><ele>2761.6</ele></trkpt>
      <trkpt lat="45.93771536" lon="6.99572221"><ele>2761.4</ele></trkpt>
      <trkpt lat="45.93768954" lon="6.99576127"><ele>2761.6</ele></trkpt>
      <trkpt lat="45.93767521" lon="6.99570830"><ele>2760.0</ele></trkpt>
      <trkpt lat="45.93766524" lon="6.99577997"><ele>2759.2</ele></trkpt>
      <trkpt lat="45.93772441" lon="6.99573671"><ele>2759.2</ele></trkpt>
      <trkpt lat="45.93743255" lon="6.99587543"><ele>2776.2</ele></trkpt>
      <trkpt lat="45.93735712" lon="6.99600091"><ele>2783.4</ele></trkpt>
      <trkpt lat="45.93713416" lon="6.99615514"><ele>2794.2</ele></trkpt>
      <trkpt lat="45.93717598" lon="6.99614760"><ele>2795.4</ele></trkpt>
      <trkpt lat="45.93692360" lon="6.99624122"><ele>2809.8</ele></trkpt>
      <trkpt lat="45.93691505" lon="6.99632479"><ele>2816.4</ele></trkpt>
      <trkpt lat="45.93657215" lon="6.99626109"><ele>2843.4</ele></trkpt>
      <trkpt lat="45.93644332" lon="6.99635002"><ele>2853.8</ele></trkpt>
      <trkpt lat="45.93631801" lon="6.99632035"><ele>2864.0</ele></trkpt>
      <trkpt lat="45.93623998" lon="6.99644725"><ele>2870.4</ele></trkpt>
      <trkpt lat="45.93615121" lon="6.99629512"><ele>2876.6</ele></trkpt>
      <trkpt lat="45.93601517" lon="6.99659066"><ele>2888.8</ele></trkpt>
      <trkpt lat="45.93585047" lon="6.99630962"><ele>2899.2</ele></trkpt>
      <trkpt lat="45.93572466" lon="6.99646292"><ele>2908.8</ele></trkpt>
      <trkpt lat="45.93559608" lon="6.99640710"><ele>2916.2</ele></trkpt>
      <trkpt lat="45.93547496" lon="6.99666752"><ele>2926.0</ele></trkpt>
      <trkpt lat="45.93537664" lon="6.99657046"><ele>2932.8</ele></trkpt>
      <trkpt lat="45.93535074" lon="6.99670960"><ele>2938.2</ele></trkpt>
      <trkpt lat="45.93521713" lon="6.99663048"><ele>2944.4</ele></trkpt>
      <trkpt lat="45.93518377" lon="6.99674003"><ele>2950.0</ele></trkpt>
      <trkpt lat="45.93506902" lon="6.99661941"><ele>2957.0</ele></trkpt>
      <trkpt lat="45.93495294" lon="6.99694991"><ele>2970.6</ele></trkpt>
      <trkpt lat="45.93486635" lon="6.99686794"><ele>2976.6</ele></trkpt>
      <trkpt lat="45.93482930" lon="6.99698126"><ele>2981.4</ele></trkpt>
      <trkpt lat="45.93476560" lon="6.99693072"><ele>2984.4</ele></trkpt>
      <trkpt lat="45.93473392" lon="6.99701822"><ele>2991.4</ele></trkpt>
      <trkpt lat="45.93469360" lon="6.99699719"><ele>2993.6</ele></trkpt>
      <trkpt lat="45.93463157" lon="6.99718326"><ele>3000.2</ele></trkpt>
      <trkpt lat="45.93453753" lon="6.99714890"><ele>3009.0</ele></trkpt>
      <trkpt lat="45.93441088" lon="6.99725191"><ele>3020.6</ele></trkpt>
      <trkpt lat="45.93431868" lon="6.99722065"><ele>3030.6</ele></trkpt>
      <trkpt lat="45.93431197" lon="6.99715552"><ele>3034.4</ele></trkpt>
      <trkpt lat="45.93422187" lon="6.99717790"><ele>3039.4</ele></trkpt>
      <trkpt lat="45.93422329" lon="6.99711101"><ele>3039.4</ele></trkpt>
      <trkpt lat="45.93416554" lon="6.99713993"><ele>3039.6</ele></trkpt>
      <trkpt lat="45.93422698" lon="6.99706382"><ele>3039.8</ele></trkpt>
      <trkpt lat="45.93421784" lon="6.99722752"><ele>3039.6</ele></trkpt>
      <trkpt lat="45.93417292" lon="6.99706935"><ele>3039.0</ele></trkpt>
      <trkpt lat="45.93431080" lon="6.99698746"><ele>3032.2</ele></trkpt>
      <trkpt lat="45.93414961" lon="6.99699442"><ele>3038.6</ele></trkpt>
      <trkpt lat="45.93419605" lon="6.99692460"><ele>3040.0</ele></trkpt>
      <trkpt lat="45.93403243" lon="6.99711780"><ele>3061.4</ele></trkpt>
      <trkpt lat="45.93395968" lon="6.99706131"><ele>3063.4</ele></trkpt>
      <trkpt lat="45.93399891" lon="6.99704848"><ele>3064.2</ele></trkpt>
      <trkpt lat="45.93397359" lon="6.99701194"><ele>3067.2</ele></trkpt>
      <trkpt lat="45.93386102" lon="6.99696684"><ele>3072.6</ele></trkpt>
      <trkpt lat="45.93388525" lon="6.99691295"><ele>3077.8</ele></trkpt>
      <trkpt lat="45.93382247" lon="6.99689711"><ele>3079.2</ele></trkpt>
      <trkpt lat="45.93394568" lon="6.99689048"><ele>3079.0</ele></trkpt>
      <trkpt lat="45.93389598" lon="6.99684287"><ele>3078.6</ele></trkpt>
      <trkpt lat="45.93395012" lon="6.99685184"><ele>3080.2</ele></trkpt>
      <trkpt lat="45.93393856" lon="6.99676769"><ele>3079.6</ele></trkpt>
      <trkpt lat="45.93382129" lon="6.99686861"><ele>3079.2</ele></trkpt>
      <trkpt lat="45.93386798" lon="6.99689099"><ele>3078.4</ele></trkpt>
      <trkpt lat="45.93391601" lon="6.99681563"><ele>3078.0</ele></trkpt>
      <trkpt lat="45.93385356" lon="6.99685260"><ele>3078.0</ele></trkpt>
      <trkpt lat="45.93387871" lon="6.99692317"><ele>3078.2</ele></trkpt>
      <trkpt lat="45.93393554" lon="6.99684958"><ele>3078.4</ele></trkpt>
      <trkpt lat="45.93388961" lon="6.99683265"><ele>3078.0</ele></trkpt>
      <trkpt lat="45.93389623" lon="6.99670424"><ele>3078.0</ele></trkpt>
      <trkpt lat="45.93386429" lon="6.99678311"><ele>3077.6</ele></trkpt>
      <trkpt lat="45.93390034" lon="6.99673181"><ele>3077.6</ele></trkpt>
      <trkpt lat="45.93392012" lon="6.99682184"><ele>3077.4</ele></trkpt>
      <trkpt lat="45.93388282" lon="6.99675436"><ele>3077.2</ele></trkpt>
      <trkpt lat="45.93390838" lon="6.99684983"><ele>3077.8</ele></trkpt>
      <trkpt lat="45.93385197" lon="6.99686483"><ele>3078.0</ele></trkpt>
      <trkpt lat="45.93388030" lon="6.99680096"><ele>3077.6</ele></trkpt>
      <trkpt lat="45.93396924" lon="6.99695259"><ele>3077.4</ele></trkpt>
      <trkpt lat="45.93395473" lon="6.99686978"><ele>3077.4</ele></trkpt>
      <trkpt lat="45.93392800" lon="6.99691303"><ele>3077.4</ele></trkpt>
      <trkpt lat="45.93397535" lon="6.99685872"><ele>3077.2</ele></trkpt>
      <trkpt lat="45.93392448" lon="6.99689275"><ele>3077.4</ele></trkpt>
      <trkpt lat="45.93396370" lon="6.99686618"><ele>3077.6</ele></trkpt>
      <trkpt lat="45.93389690" lon="6.99687623"><ele>3077.4</ele></trkpt>
      <trkpt lat="45.93387150" lon="6.99679853"><ele>3077.4</ele></trkpt>
      <trkpt lat="45.93391484" lon="6.99681320"><ele>3077.6</ele></trkpt>
      <trkpt lat="45.93390897" lon="6.99692627"><ele>3077.6</ele></trkpt>
      <trkpt lat="45.93394132" lon="6.99686148"><ele>3078.0</ele></trkpt>
      <trkpt lat="45.93385507" lon="6.99684707"><ele>3078.0</ele></trkpt>
      <trkpt lat="45.93389749" lon="6.99685553"><ele>3079.0</ele></trkpt>
      <trkpt lat="45.93389330" lon="6.99696106"><ele>3085.0</ele></trkpt>
      <trkpt lat="45.93383487" lon="6.99695989"><ele>3086.6</ele></trkpt>
      <trkpt lat="45.93386438" lon="6.99686877"><ele>3097.2</ele></trkpt>
      <trkpt lat="45.93372004" lon="6.99674757"><ele>3120.6</ele></trkpt>
      <trkpt lat="45.93375566" lon="6.99671832"><ele>3121.2</ele></trkpt>
      <trkpt lat="45.93371945" lon="6.99668135"><ele>3124.0</ele></trkpt>
      <trkpt lat="45.93378064" lon="6.99666962"><ele>3125.0</ele></trkpt>
      <trkpt lat="45.93373027" lon="6.99670290"><ele>3125.0</ele></trkpt>
      <trkpt lat="45.93371292" lon="6.99660701"><ele>3124.6</ele></trkpt>
      <trkpt lat="45.93372138" lon="6.99669384"><ele>3124.6</ele></trkpt>
      <trkpt lat="45.93374351" lon="6.99665906"><ele>3124.4</ele></trkpt>
      <trkpt lat="45.93359792" lon="6.99660357"><ele>3142.0</ele></trkpt>
      <trkpt lat="45.93359557" lon="6.99648983"><ele>3151.4</ele></trkpt>
      <trkpt lat="45.93355861" lon="6.99651254"><ele>3152.8</ele></trkpt>
      <trkpt lat="45.93352407" lon="6.99641925"><ele>3160.8</ele></trkpt>
      <trkpt lat="45.93351209" lon="6.99646661"><ele>3164.2</ele></trkpt>
      <trkpt lat="45.93339440" lon="6.99640366"><ele>3179.4</ele></trkpt>
      <trkpt lat="45.93335752" lon="6.99622873"><ele>3190.0</ele></trkpt>
      <trkpt lat="45.93318041" lon="6.99623385"><ele>3214.4</ele></trkpt>
      <trkpt lat="45.93323045" lon="6.99622865"><ele>3215.2</ele></trkpt>
      <trkpt lat="45.93317086" lon="6.99621423"><ele>3216.2</ele></trkpt>
      <trkpt lat="45.93322643" lon="6.99620325"><ele>3220.4</ele></trkpt>
      <trkpt lat="45.93318670" lon="6.99619998"><ele>3221.6</ele></trkpt>
      <trkpt lat="45.93320439" lon="6.99613980"><ele>3225.8</ele></trkpt>
      <trkpt lat="45.93321159" lon="6.99621465"><ele>3228.6</ele></trkpt>
      <trkpt lat="45.93315435" lon="6.99623167"><ele>3232.0</ele></trkpt>
      <trkpt lat="45.93317647" lon="6.99606269"><ele>3239.8</ele></trkpt>
      <trkpt lat="45.93313683" lon="6.99610535"><ele>3239.8</ele></trkpt>
      <trkpt lat="45.93312099" lon="6.99601357"><ele>3239.0</ele></trkpt>
      <trkpt lat="45.93316524" lon="6.99600820"><ele>3239.2</ele></trkpt>
      <trkpt lat="45.93314270" lon="6.99610200"><ele>3237.8</ele></trkpt>
      <trkpt lat="45.93318419" lon="6.99609353"><ele>3237.8</ele></trkpt>
      <trkpt lat="45.93313582" lon="6.99608406"><ele>3238.0</ele></trkpt>
      <trkpt lat="45.93314697" lon="6.99602522"><ele>3237.8</ele></trkpt>
      <trkpt lat="45.93315099" lon="6.99612446"><ele>3238.0</ele></trkpt>
      <trkpt lat="45.93318083" lon="6.99608297"><ele>3238.0</ele></trkpt>
      <trkpt lat="45.93314337" lon="6.99602991"><ele>3237.4</ele></trkpt>
      <trkpt lat="45.93313063" lon="6.99609135"><ele>3237.6</ele></trkpt>
      <trkpt lat="45.93312434" lon="6.99600158"><ele>3237.8</ele></trkpt>
      <trkpt lat="45.93318888" lon="6.99618129"><ele>3238.8</ele></trkpt>
      <trkpt lat="45.93313515" lon="6.99607015"><ele>3239.2</ele></trkpt>
      <trkpt lat="45.93316943" lon="6.99605288"><ele>3239.2</ele></trkpt>
      <trkpt lat="45.93318176" lon="6.99616746"><ele>3241.2</ele></trkpt>
      <trkpt lat="45.93290465" lon="6.99593285"><ele>3285.0</ele></trkpt>
      <trkpt lat="45.93299174" lon="6.99588155"><ele>3285.2</ele></trkpt>
      <trkpt lat="45.93294061" lon="6.99596319"><ele>3285.0</ele></trkpt>
      <trkpt lat="45.93286400" lon="6.99593042"><ele>3288.6</ele></trkpt>
      <trkpt lat="45.93289300" lon="6.99583470"><ele>3294.4</ele></trkpt>
      <trkpt lat="45.93291856" lon="6.99588214"><ele>3294.6</ele></trkpt>
      <trkpt lat="45.93282511" lon="6.99582833"><ele>3296.4</ele></trkpt>
      <trkpt lat="45.93291697" lon="6.99583285"><ele>3296.8</ele></trkpt>
      <trkpt lat="45.93284983" lon="6.99582933"><ele>3297.0</ele></trkpt>
      <trkpt lat="45.93285679" lon="6.99573210"><ele>3305.6</ele></trkpt>
      <trkpt lat="45.93266694" lon="6.99553169"><ele>3332.4</ele></trkpt>
      <trkpt lat="45.93268194" lon="6.99546975"><ele>3336.2</ele></trkpt>
      <trkpt lat="45.93257784" lon="6.99544687"><ele>3338.4</ele></trkpt>
      <trkpt lat="45.93254062" lon="6.99538434"><ele>3342.2</ele></trkpt>
      <trkpt lat="45.93260651" lon="6.99534922"><ele>3347.8</ele></trkpt>
      <trkpt lat="45.93253878" lon="6.99530966"><ele>3353.6</ele></trkpt>
      <trkpt lat="45.93258622" lon="6.99531829"><ele>3354.2</ele></trkpt>
      <trkpt lat="45.93253392" lon="6.99521251"><ele>3358.0</ele></trkpt>
      <trkpt lat="45.93248748" lon="6.99525450"><ele>3362.2</ele></trkpt>
      <trkpt lat="45.93257901" lon="6.99524076"><ele>3362.4</ele></trkpt>
      <trkpt lat="45.93250131" lon="6.99527227"><ele>3363.0</ele></trkpt>
      <trkpt lat="45.93250441" lon="6.99510690"><ele>3371.4</ele></trkpt>
      <trkpt lat="45.93245563" lon="6.99508117"><ele>3373.6</ele></trkpt>
      <trkpt lat="45.93244012" lon="6.99496063"><ele>3379.8</ele></trkpt>
      <trkpt lat="45.93242210" lon="6.99500707"><ele>3382.0</ele></trkpt>
      <trkpt lat="45.93246150" lon="6.99490179"><ele>3385.4</ele></trkpt>
      <trkpt lat="45.93241355" lon="6.99499265"><ele>3390.6</ele></trkpt>
      <trkpt lat="45.93237039" lon="6.99490330"><ele>3399.4</ele></trkpt>
      <trkpt lat="45.93238992" lon="6.99498863"><ele>3401.6</ele></trkpt>
      <trkpt lat="45.93228347" lon="6.99503624"><ele>3408.4</ele></trkpt>
      <trkpt lat="45.93221029" lon="6.99494655"><ele>3415.0</ele></trkpt>
      <trkpt lat="45.93226033" lon="6.99494203"><ele>3415.6</ele></trkpt>
      <trkpt lat="45.93218959" lon="6.99493138"><ele>3417.2</ele></trkpt>
      <trkpt lat="45.93218523" lon="6.99485351"><ele>3417.8</ele></trkpt>
      <trkpt lat="45.93222496" lon="6.99487497"><ele>3422.4</ele></trkpt>
      <trkpt lat="45.93217031" lon="6.99490121"><ele>3425.2</ele></trkpt>
      <trkpt lat="45.93221348" lon="6.99477246"><ele>3432.0</ele></trkpt>
      <trkpt lat="45.93210544" lon="6.99473516"><ele>3432.8</ele></trkpt>
      <trkpt lat="45.93219252" lon="6.99476601"><ele>3433.0</ele></trkpt>
      <trkpt lat="45.93213368" lon="6.99469476"><ele>3434.8</ele></trkpt>
      <trkpt lat="45.93217123" lon="6.99470750"><ele>3435.0</ele></trkpt>
      <trkpt lat="45.93209001" lon="6.99488268"><ele>3439.0</ele></trkpt>
      <trkpt lat="45.93217844" lon="6.99489827"><ele>3439.6</ele></trkpt>
      <trkpt lat="45.93207643" lon="6.99486810"><ele>3441.8</ele></trkpt>
      <trkpt lat="45.93214039" lon="6.99481915"><ele>3442.2</ele></trkpt>
      <trkpt lat="45.93217635" lon="6.99487338"><ele>3442.0</ele></trkpt>
      <trkpt lat="45.93209420" lon="6.99486692"><ele>3443.2</ele></trkpt>
      <trkpt lat="45.93216117" lon="6.99489668"><ele>3443.6</ele></trkpt>
      <trkpt lat="45.93212371" lon="6.99482292"><ele>3443.6</ele></trkpt>
      <trkpt lat="45.93219965" lon="6.99487246"><ele>3443.4</ele></trkpt>
      <trkpt lat="45.93206964" lon="6.99480691"><ele>3443.6</ele></trkpt>
      <trkpt lat="45.93213125" lon="6.99489559"><ele>3443.2</ele></trkpt>
      <trkpt lat="45.93215112" lon="6.99479224"><ele>3444.0</ele></trkpt>
      <trkpt lat="45.93212907" lon="6.99489417"><ele>3443.8</ele></trkpt>
      <trkpt lat="45.93217400" lon="6.99491671"><ele>3444.2</ele></trkpt>
      <trkpt lat="45.93212547" lon="6.99488210"><ele>3444.0</ele></trkpt>
      <trkpt lat="45.93216889" lon="6.99493205"><ele>3443.6</ele></trkpt>
      <trkpt lat="45.93214349" lon="6.99485930"><ele>3444.0</ele></trkpt>
      <trkpt lat="45.93218205" lon="6.99485770"><ele>3443.6</ele></trkpt>
      <trkpt lat="45.93212161" lon="6.99486131"><ele>3444.0</ele></trkpt>
      <trkpt lat="45.93217048" lon="6.99490364"><ele>3443.6</ele></trkpt>
      <trkpt lat="45.93213687" lon="6.99483960"><ele>3444.2</ele></trkpt>
      <trkpt lat="45.93217400" lon="6.99487120"><ele>3444.6</ele></trkpt>
      <trkpt lat="45.93214014" lon="6.99489140"><ele>3445.6</ele></trkpt>
      <trkpt lat="45.93220493" lon="6.99482803"><ele>3446.8</ele></trkpt>
      <trkpt lat="45.93213854" lon="6.99483608"><ele>3447.8</ele></trkpt>
      <trkpt lat="45.93215321" lon="6.99459887"><ele>3462.6</ele></trkpt>
      <trkpt lat="45.93207652" lon="6.99448588"><ele>3477.6</ele></trkpt>
      <trkpt lat="45.93208482" lon="6.99439435"><ele>3482.4</ele></trkpt>
      <trkpt lat="45.93202572" lon="6.99436694"><ele>3489.0</ele></trkpt>
      <trkpt lat="45.93206143" lon="6.99436342"><ele>3490.4</ele></trkpt>
      <trkpt lat="45.93204651" lon="6.99429737"><ele>3494.0</ele></trkpt>
      <trkpt lat="45.93200066" lon="6.99429151"><ele>3496.2</ele></trkpt>
      <trkpt lat="45.93206420" lon="6.99424373"><ele>3496.6</ele></trkpt>
      <trkpt lat="45.93202296" lon="6.99421934"><ele>3500.0</ele></trkpt>
      <trkpt lat="45.93204802" lon="6.99416108"><ele>3504.2</ele></trkpt>
      <trkpt lat="45.93185524" lon="6.99389102"><ele>3538.6</ele></trkpt>
      <trkpt lat="45.93191056" lon="6.99386780"><ele>3540.0</ele></trkpt>
      <trkpt lat="45.93187468" lon="6.99382321"><ele>3539.8</ele></trkpt>
      <trkpt lat="45.93196244" lon="6.99381114"><ele>3539.4</ele></trkpt>
      <trkpt lat="45.93186437" lon="6.99384861"><ele>3539.8</ele></trkpt>
      <trkpt lat="45.93191626" lon="6.99377418"><ele>3539.8</ele></trkpt>
      <trkpt lat="45.93188566" lon="6.99365666"><ele>3539.6</ele></trkpt>
      <trkpt lat="45.93177645" lon="6.99375657"><ele>3539.8</ele></trkpt>
      <trkpt lat="45.93184778" lon="6.99381986"><ele>3540.2</ele></trkpt>
      <trkpt lat="45.93191827" lon="6.99375414"><ele>3545.2</ele></trkpt>
      <trkpt lat="45.93176194" lon="6.99345893"><ele>3570.0</ele></trkpt>
      <trkpt lat="45.93180612" lon="6.99338743"><ele>3573.4</ele></trkpt>
      <trkpt lat="45.93178717" lon="6.99344225"><ele>3574.6</ele></trkpt>
      <trkpt lat="45.93169623" lon="6.99330403"><ele>3585.2</ele></trkpt>
      <trkpt lat="45.93177049" lon="6.99326414"><ele>3586.8</ele></trkpt>
      <trkpt lat="45.93169070" lon="6.99328710"><ele>3587.4</ele></trkpt>
      <trkpt lat="45.93164351" lon="6.99317562"><ele>3596.2</ele></trkpt>
      <trkpt lat="45.93170495" lon="6.99316875"><ele>3596.4</ele></trkpt>
      <trkpt lat="45.93165315" lon="6.99319038"><ele>3596.2</ele></trkpt>
      <trkpt lat="45.93168600" lon="6.99312005"><ele>3597.8</ele></trkpt>
      <trkpt lat="45.93163974" lon="6.99306155"><ele>3604.6</ele></trkpt>
      <trkpt lat="45.93169933" lon="6.99297379"><ele>3610.0</ele></trkpt>
      <trkpt lat="45.93170847" lon="6.99302450"><ele>3610.6</ele></trkpt>
      <trkpt lat="45.93163630" lon="6.99293020"><ele>3615.6</ele></trkpt>
      <trkpt lat="45.93168424" lon="6.99285057"><ele>3624.6</ele></trkpt>
      <trkpt lat="45.93160386" lon="6.99280338"><ele>3632.2</ele></trkpt>
      <trkpt lat="45.93168114" lon="6.99281503"><ele>3634.2</ele></trkpt>
      <trkpt lat="45.93156816" lon="6.99272468"><ele>3646.6</ele></trkpt>
      <trkpt lat="45.93157796" lon="6.99262585"><ele>3651.2</ele></trkpt>
      <trkpt lat="45.93150739" lon="6.99264010"><ele>3652.2</ele></trkpt>
      <trkpt lat="45.93157989" lon="6.99267732"><ele>3653.0</ele></trkpt>
      <trkpt lat="45.93148559" lon="6.99253399"><ele>3657.4</ele></trkpt>
      <trkpt lat="45.93158098" lon="6.99256567"><ele>3658.4</ele></trkpt>
      <trkpt lat="45.93158064" lon="6.99251957"><ele>3659.2</ele></trkpt>
      <trkpt lat="45.93148450" lon="6.99249418"><ele>3665.0</ele></trkpt>
      <trkpt lat="45.93143874" lon="6.99255201"><ele>3668.6</ele></trkpt>
      <trkpt lat="45.93146673" lon="6.99243156"><ele>3671.6</ele></trkpt>
      <trkpt lat="45.93134201" lon="6.99238773"><ele>3680.6</ele></trkpt>
      <trkpt lat="45.93134134" lon="6.99229670"><ele>3686.6</ele></trkpt>
      <trkpt lat="45.93130195" lon="6.99230106"><ele>3688.6</ele></trkpt>
      <trkpt lat="45.93134578" lon="6.99228111"><ele>3693.6</ele></trkpt>
      <trkpt lat="45.93128535" lon="6.99218321"><ele>3698.0</ele></trkpt>
      <trkpt lat="45.93130697" lon="6.99208816"><ele>3698.2</ele></trkpt>
      <trkpt lat="45.93126104" lon="6.99206427"><ele>3698.2</ele></trkpt>
      <trkpt lat="45.93129298" lon="6.99213870"><ele>3702.2</ele></trkpt>
      <trkpt lat="45.93130513" lon="6.99206167"><ele>3705.4</ele></trkpt>
      <trkpt lat="45.93126297" lon="6.99201456"><ele>3710.4</ele></trkpt>
      <trkpt lat="45.93127630" lon="6.99208790"><ele>3710.6</ele></trkpt>
      <trkpt lat="45.93119910" lon="6.99191968"><ele>3724.8</ele></trkpt>
      <trkpt lat="45.93126196" lon="6.99174307"><ele>3734.8</ele></trkpt>
      <trkpt lat="45.93130320" lon="6.99180200"><ele>3734.8</ele></trkpt>
      <trkpt lat="45.93123699" lon="6.99184651"><ele>3734.4</ele></trkpt>
      <trkpt lat="45.93124319" lon="6.99190778"><ele>3734.8</ele></trkpt>
      <trkpt lat="45.93127169" lon="6.99196377"><ele>3735.0</ele></trkpt>
      <trkpt lat="45.93131335" lon="6.99190903"><ele>3734.8</ele></trkpt>
      <trkpt lat="45.93123271" lon="6.99194776"><ele>3734.6</ele></trkpt>
      <trkpt lat="45.93131276" lon="6.99194776"><ele>3735.0</ele></trkpt>
      <trkpt lat="45.93117488" lon="6.99208254"><ele>3735.2</ele></trkpt>
      <trkpt lat="45.93132650" lon="6.99204591"><ele>3735.0</ele></trkpt>
      <trkpt lat="45.93123221" lon="6.99205019"><ele>3735.0</ele></trkpt>
      <trkpt lat="45.93126540" lon="6.99214146"><ele>3734.6</ele></trkpt>
      <trkpt lat="45.93122106" lon="6.99205530"><ele>3734.6</ele></trkpt>
      <trkpt lat="45.93125484" lon="6.99203049"><ele>3735.0</ele></trkpt>
      <trkpt lat="45.93120513" lon="6.99201465"><ele>3735.0</ele></trkpt>
      <trkpt lat="45.93126138" lon="6.99208153"><ele>3734.4</ele></trkpt>
      <trkpt lat="45.93117177" lon="6.99212780"><ele>3734.0</ele></trkpt>
      <trkpt lat="45.93121134" lon="6.99208288"><ele>3734.0</ele></trkpt>
      <trkpt lat="45.93117957" lon="6.99209478"><ele>3734.2</ele></trkpt>
      <trkpt lat="45.93125844" lon="6.99214121"><ele>3733.8</ele></trkpt>
      <trkpt lat="45.93125350" lon="6.99223643"><ele>3733.8</ele></trkpt>
      <trkpt lat="45.93125568" lon="6.99212101"><ele>3734.2</ele></trkpt>
      <trkpt lat="45.93132005" lon="6.99210601"><ele>3734.4</ele></trkpt>
      <trkpt lat="45.93124713" lon="6.99209218"><ele>3734.2</ele></trkpt>
      <trkpt lat="45.93123439" lon="6.99184659"><ele>3734.2</ele></trkpt>
      <trkpt lat="45.93114772" lon="6.99194223"><ele>3734.2</ele></trkpt>
      <trkpt lat="45.93123942" lon="6.99192437"><ele>3735.6</ele></trkpt>
      <trkpt lat="45.93120371" lon="6.99185598"><ele>3736.8</ele></trkpt>
      <trkpt lat="45.93117043" lon="6.99198238"><ele>3737.4</ele></trkpt>
      <trkpt lat="45.93126138" lon="6.99194625"><ele>3737.4</ele></trkpt>
      <trkpt lat="45.93124822" lon="6.99189747"><ele>3737.6</ele></trkpt>
      <trkpt lat="45.93127646" lon="6.99194851"><ele>3737.8</ele></trkpt>
      <trkpt lat="45.93112526" lon="6.99177568"><ele>3743.8</ele></trkpt>
      <trkpt lat="45.93113238" lon="6.99171910"><ele>3746.4</ele></trkpt>
      <trkpt lat="45.93119457" lon="6.99181977"><ele>3747.0</ele></trkpt>
      <trkpt lat="45.93110044" lon="6.99160812"><ele>3750.2</ele></trkpt>
      <trkpt lat="45.93118225" lon="6.99168541"><ele>3751.6</ele></trkpt>
      <trkpt lat="45.93124805" lon="6.99164115"><ele>3755.8</ele></trkpt>
      <trkpt lat="45.93114831" lon="6.99154744"><ele>3757.8</ele></trkpt>
      <trkpt lat="45.93121880" lon="6.99164148"><ele>3758.2</ele></trkpt>
      <trkpt lat="45.93126029" lon="6.99158491"><ele>3758.2</ele></trkpt>
      <trkpt lat="45.93128300" lon="6.99166470"><ele>3763.0</ele></trkpt>
      <trkpt lat="45.93131108" lon="6.99137100"><ele>3777.0</ele></trkpt>
      <trkpt lat="45.93126180" lon="6.99135675"><ele>3780.6</ele></trkpt>
      <trkpt lat="45.93131485" lon="6.99133504"><ele>3781.0</ele></trkpt>
      <trkpt lat="45.93126951" lon="6.99130856"><ele>3782.4</ele></trkpt>
      <trkpt lat="45.93129583" lon="6.99118241"><ele>3794.2</ele></trkpt>
      <trkpt lat="45.93125450" lon="6.99118777"><ele>3793.8</ele></trkpt>
      <trkpt lat="45.93130379" lon="6.99116128"><ele>3794.8</ele></trkpt>
      <trkpt lat="45.93128183" lon="6.99106816"><ele>3800.2</ele></trkpt>
      <trkpt lat="45.93128191" lon="6.99112214"><ele>3800.4</ele></trkpt>
      <trkpt lat="45.93117714" lon="6.99100060"><ele>3818.6</ele></trkpt>
      <trkpt lat="45.93122299" lon="6.99093061"><ele>3824.6</ele></trkpt>
      <trkpt lat="45.93116423" lon="6.99093564"><ele>3825.4</ele></trkpt>
      <trkpt lat="45.93123355" lon="6.99095123"><ele>3826.0</ele></trkpt>
      <trkpt lat="45.93124545" lon="6.99085535"><ele>3828.2</ele></trkpt>
      <trkpt lat="45.93122215" lon="6.99088703"><ele>3828.6</ele></trkpt>
      <trkpt lat="45.93122517" lon="6.99079935"><ele>3835.0</ele></trkpt>
      <trkpt lat="45.93114755" lon="6.99070271"><ele>3846.8</ele></trkpt>
      <trkpt lat="45.93126750" lon="6.99064697"><ele>3846.8</ele></trkpt>
      <trkpt lat="45.93117647" lon="6.99073305"><ele>3846.8</ele></trkpt>
      <trkpt lat="45.93126792" lon="6.99070238"><ele>3846.4</ele></trkpt>
      <trkpt lat="45.93113573" lon="6.99074068"><ele>3846.4</ele></trkpt>
      <trkpt lat="45.93119457" lon="6.99068536"><ele>3846.6</ele></trkpt>
      <trkpt lat="45.93113699" lon="6.99074579"><ele>3846.8</ele></trkpt>
      <trkpt lat="45.93117949" lon="6.99074579"><ele>3847.0</ele></trkpt>
      <trkpt lat="45.93122131" lon="6.99067086"><ele>3846.8</ele></trkpt>
      <trkpt lat="45.93117278" lon="6.99073741"><ele>3846.8</ele></trkpt>
      <trkpt lat="45.93119022" lon="6.99068838"><ele>3847.2</ele></trkpt>
      <trkpt lat="45.93115325" lon="6.99068771"><ele>3847.2</ele></trkpt>
      <trkpt lat="45.93119717" lon="6.99068930"><ele>3847.8</ele></trkpt>
      <trkpt lat="45.93116901" lon="6.99073842"><ele>3848.0</ele></trkpt>
      <trkpt lat="45.93121209" lon="6.99070238"><ele>3847.6</ele></trkpt>
      <trkpt lat="45.93116323" lon="6.99074923"><ele>3848.0</ele></trkpt>
      <trkpt lat="45.93112224" lon="6.99071436"><ele>3848.2</ele></trkpt>
      <trkpt lat="45.93117747" lon="6.99067581"><ele>3849.2</ele></trkpt>
      <trkpt lat="45.93107848" lon="6.99067790"><ele>3854.0</ele></trkpt>
      <trkpt lat="45.93112819" lon="6.99065686"><ele>3853.8</ele></trkpt>
      <trkpt lat="45.93110757" lon="6.99073062"><ele>3853.8</ele></trkpt>
      <trkpt lat="45.93109516" lon="6.99059366"><ele>3857.4</ele></trkpt>
      <trkpt lat="45.93113037" lon="6.99057656"><ele>3858.4</ele></trkpt>
      <trkpt lat="45.93112601" lon="6.99063834"><ele>3859.0</ele></trkpt>
      <trkpt lat="45.93111268" lon="6.99058075"><ele>3861.2</ele></trkpt>
      <trkpt lat="45.93117354" lon="6.99057715"><ele>3860.6</ele></trkpt>
      <trkpt lat="45.93106616" lon="6.99050683"><ele>3871.8</ele></trkpt>
      <trkpt lat="45.93108955" lon="6.99043466"><ele>3873.4</ele></trkpt>
      <trkpt lat="45.93115484" lon="6.99043843"><ele>3873.4</ele></trkpt>
      <trkpt lat="45.93107044" lon="6.99045628"><ele>3880.0</ele></trkpt>
      <trkpt lat="45.93114202" lon="6.99039367"><ele>3884.2</ele></trkpt>
      <trkpt lat="45.93110321" lon="6.99029753"><ele>3893.0</ele></trkpt>
      <trkpt lat="45.93115459" lon="6.99029091"><ele>3893.2</ele></trkpt>
      <trkpt lat="45.93109910" lon="6.99028756"><ele>3895.4</ele></trkpt>
      <trkpt lat="45.93109692" lon="6.99019820"><ele>3899.4</ele></trkpt>
      <trkpt lat="45.93105334" lon="6.99024037"><ele>3900.6</ele></trkpt>
      <trkpt lat="45.93112073" lon="6.99021438"><ele>3902.2</ele></trkpt>
      <trkpt lat="45.93108586" lon="6.99017306"><ele>3903.8</ele></trkpt>
      <trkpt lat="45.93112886" lon="6.99012000"><ele>3905.4</ele></trkpt>
      <trkpt lat="45.93112970" lon="6.99016728"><ele>3905.4</ele></trkpt>
      <trkpt lat="45.93110363" lon="6.99020114"><ele>3905.4</ele></trkpt>
      <trkpt lat="45.93112132" lon="6.99011371"><ele>3906.6</ele></trkpt>
      <trkpt lat="45.93107295" lon="6.99008094"><ele>3910.2</ele></trkpt>
      <trkpt lat="45.93112618" lon="6.99004306"><ele>3913.2</ele></trkpt>
      <trkpt lat="45.93104990" lon="6.98994448"><ele>3923.4</ele></trkpt>
      <trkpt lat="45.93110296" lon="6.98985614"><ele>3929.8</ele></trkpt>
      <trkpt lat="45.93104529" lon="6.98986921"><ele>3937.8</ele></trkpt>
      <trkpt lat="45.93097983" lon="6.98969571"><ele>3956.2</ele></trkpt>
      <trkpt lat="45.93091437" lon="6.98974919"><ele>3963.0</ele></trkpt>
      <trkpt lat="45.93073131" lon="6.98960384"><ele>3979.0</ele></trkpt>
    </trkseg>
  </trk>
</gpx>