<?xml version="1.0" encoding="UTF-8"?>
<gpx version="1.1" creator="AlpHD" xmlns="http://www.topografix.com/GPX/1/1">
  <trk>
    <name>Les Courtes — Voie normale et traversée</name>
    <trkseg>
      <trkpt lat="45.91029900" lon="6.96552000"><ele>2707.0</ele></trkpt>
      <trkpt lat="45.91035100" lon="6.96595400"><ele>2700.0</ele></trkpt>
      <trkpt lat="45.91030700" lon="6.96599900"><ele>2700.0</ele></trkpt>
      <trkpt lat="45.91031000" lon="6.96634400"><ele>2693.0</ele></trkpt>
      <trkpt lat="45.91028200" lon="6.96645100"><ele>2691.0</ele></trkpt>
      <trkpt lat="45.91023800" lon="6.96641400"><ele>2687.0</ele></trkpt>
      <trkpt lat="45.91018300" lon="6.96669200"><ele>2680.0</ele></trkpt>
      <trkpt lat="45.91008200" lon="6.96675800"><ele>2678.0</ele></trkpt>
      <trkpt lat="45.90990500" lon="6.96677900"><ele>2671.0</ele></trkpt>
      <trkpt lat="45.90978500" lon="6.96657300"><ele>2667.0</ele></trkpt>
      <trkpt lat="45.90952600" lon="6.96641800"><ele>2662.0</ele></trkpt>
      <trkpt lat="45.90934300" lon="6.96644200"><ele>2656.0</ele></trkpt>
      <trkpt lat="45.90911000" lon="6.96619700"><ele>2649.0</ele></trkpt>
      <trkpt lat="45.90893000" lon="6.96627900"><ele>2638.0</ele></trkpt>
      <trkpt lat="45.90869800" lon="6.96603000"><ele>2626.0</ele></trkpt>
      <trkpt lat="45.90850600" lon="6.96601100"><ele>2624.0</ele></trkpt>
      <trkpt lat="45.90813200" lon="6.96553800"><ele>2616.0</ele></trkpt>
      <trkpt lat="45.90811400" lon="6.96595500"><ele>2605.0</ele></trkpt>
      <trkpt lat="45.90816100" lon="6.96607600"><ele>2602.0</ele></trkpt>
      <trkpt lat="45.90810200" lon="6.96618600"><ele>2598.0</ele></trkpt>
      <trkpt lat="45.90803100" lon="6.96628300"><ele>2593.0</ele></trkpt>
      <trkpt lat="45.90785100" lon="6.96632100"><ele>2587.0</ele></trkpt>
      <trkpt lat="45.90766600" lon="6.96621900"><ele>2578.0</ele></trkpt>
      <trkpt lat="45.90758200" lon="6.96627600"><ele>2576.0</ele></trkpt>
      <trkpt lat="45.90751400" lon="6.96636300"><ele>2575.0</ele></trkpt>
      <trkpt lat="45.90743700" lon="6.96682600"><ele>2561.0</ele></trkpt>
      <trkpt lat="45.90784600" lon="6.96770100"><ele>2531.0</ele></trkpt>
      <trkpt lat="45.90809300" lon="6.96841800"><ele>2509.0</ele></trkpt>
      <trkpt lat="45.90811200" lon="6.96870700"><ele>2503.0</ele></trkpt>
      <trkpt lat="45.90818900" lon="6.96876100"><ele>2502.0</ele></trkpt>
      <trkpt lat="45.90805100" lon="6.96905000"><ele>2497.0</ele></trkpt>
      <trkpt lat="45.90814400" lon="6.96904700"><ele>2498.0</ele></trkpt>
      <trkpt lat="45.90817800" lon="6.96946200"><ele>2496.0</ele></trkpt>
      <trkpt lat="45.90864200" lon="6.97000000"><ele>2492.0</ele></trkpt>
      <trkpt lat="45.90848400" lon="6.97012800"><ele>2496.0</ele></trkpt>
      <trkpt lat="45.90869500" lon="6.97014300"><ele>2499.0</ele></trkpt>
      <trkpt lat="45.90864000" lon="6.97025700"><ele>2499.0</ele></trkpt>
      <trkpt lat="45.90893800" lon="6.97058400"><ele>2506.0</ele></trkpt>
      <trkpt lat="45.90933100" lon="6.97073800"><ele>2509.0</ele></trkpt>
      <trkpt lat="45.90938200" lon="6.97085600"><ele>2510.0</ele></trkpt>
      <trkpt lat="45.90958600" lon="6.97093900"><ele>2511.0</ele></trkpt>
      <trkpt lat="45.91008200" lon="6.97133400"><ele>2519.0</ele></trkpt>
      <trkpt lat="45.91039300" lon="6.97142200"><ele>2522.0</ele></trkpt>
      <trkpt lat="45.91060500" lon="6.97137800"><ele>2527.0</ele></trkpt>
      <trkpt lat="45.91080000" lon="6.97148800"><ele>2531.0</ele></trkpt>
      <trkpt lat="45.91097500" lon="6.97163500"><ele>2534.0</ele></trkpt>
      <trkpt lat="45.91156900" lon="6.97256800"><ele>2546.0</ele></trkpt>
      <trkpt lat="45.91175000" lon="6.97265300"><ele>2546.0</ele></trkpt>
      <trkpt lat="45.91214500" lon="6.97322100"><ele>2550.0</ele></trkpt>
      <trkpt lat="45.91241400" lon="6.97336500"><ele>2553.0</ele></trkpt>
      <trkpt lat="45.91246300" lon="6.97350100"><ele>2554.0</ele></trkpt>
      <trkpt lat="45.91290000" lon="6.97380300"><ele>2554.0</ele></trkpt>
      <trkpt lat="45.91270600" lon="6.97443300"><ele>2549.0</ele></trkpt>
      <trkpt lat="45.91276000" lon="6.97521900"><ele>2555.0</ele></trkpt>
      <trkpt lat="45.91274200" lon="6.97574800"><ele>2564.0</ele></trkpt>
      <trkpt lat="45.91293500" lon="6.97600800"><ele>2570.0</ele></trkpt>
      <trkpt lat="45.91277700" lon="6.97614800"><ele>2579.0</ele></trkpt>
      <trkpt lat="45.91292000" lon="6.97631500"><ele>2582.0</ele></trkpt>
      <trkpt lat="45.91291600" lon="6.97658000"><ele>2589.0</ele></trkpt>
      <trkpt lat="45.91256700" lon="6.97703300"><ele>2597.0</ele></trkpt>
      <trkpt lat="45.91249400" lon="6.97769300"><ele>2606.0</ele></trkpt>
      <trkpt lat="45.91274300" lon="6.97814400"><ele>2612.0</ele></trkpt>
      <trkpt lat="45.91269200" lon="6.97826000"><ele>2612.0</ele></trkpt>
      <trkpt lat="45.91285700" lon="6.97848200"><ele>2616.0</ele></trkpt>
      <trkpt lat="45.91277100" lon="6.97853800"><ele>2617.0</ele></trkpt>
      <trkpt lat="45.91284500" lon="6.97880900"><ele>2619.0</ele></trkpt>
      <trkpt lat="45.91284200" lon="6.97937500"><ele>2623.0</ele></trkpt>
      <trkpt lat="45.91304300" lon="6.98052600"><ele>2634.0</ele></trkpt>
      <trkpt lat="45.91303900" lon="6.98094400"><ele>2639.0</ele></trkpt>
      <trkpt lat="45.91320300" lon="6.98107700"><ele>2641.0</ele></trkpt>
      <trkpt lat="45.91317800" lon="6.98135200"><ele>2647.0</ele></trkpt>
      <trkpt lat="45.91337000" lon="6.98170100"><ele>2652.0</ele></trkpt>
      <trkpt lat="45.91349000" lon="6.98240900"><ele>2660.0</ele></trkpt>
      <trkpt lat="45.91350600" lon="6.98251500"><ele>2664.0</ele></trkpt>
      <trkpt lat="45.91342600" lon="6.98259800"><ele>2664.0</ele></trkpt>
      <trkpt lat="45.91350000" lon="6.98267800"><ele>2664.0</ele></trkpt>
      <trkpt lat="45.91352900" lon="6.98295900"><ele>2667.0</ele></trkpt>
      <trkpt lat="45.91347600" lon="6.98313500"><ele>2669.0</ele></trkpt>
      <trkpt lat="45.91345000" lon="6.98382100"><ele>2679.0</ele></trkpt>
      <trkpt lat="45.91359400" lon="6.98400800"><ele>2681.0</ele></trkpt>
      <trkpt lat="45.91369200" lon="6.98425800"><ele>2684.0</ele></trkpt>
      <trkpt lat="45.91358800" lon="6.98431200"><ele>2688.0</ele></trkpt>
      <trkpt lat="45.91359900" lon="6.98444800"><ele>2688.0</ele></trkpt>
      <trkpt lat="45.91371400" lon="6.98467800"><ele>2691.0</ele></trkpt>
      <trkpt lat="45.91370000" lon="6.98533700"><ele>2700.0</ele></trkpt>
      <trkpt lat="45.91395900" lon="6.98608200"><ele>2707.0</ele></trkpt>
      <trkpt lat="45.91393100" lon="6.98621900"><ele>2707.0</ele></trkpt>
      <trkpt lat="45.91402000" lon="6.98646500"><ele>2712.0</ele></trkpt>
      <trkpt lat="45.91402500" lon="6.98689400"><ele>2715.0</ele></trkpt>
      <trkpt lat="45.91409800" lon="6.98728700"><ele>2720.0</ele></trkpt>
      <trkpt lat="45.91416100" lon="6.98738900"><ele>2722.0</ele></trkpt>
      <trkpt lat="45.91411100" lon="6.98750500"><ele>2724.0</ele></trkpt>
      <trkpt lat="45.91415200" lon="6.98762400"><ele>2726.0</ele></trkpt>
      <trkpt lat="45.91409300" lon="6.98772700"><ele>2726.0</ele></trkpt>
      <trkpt lat="45.91417600" lon="6.98779700"><ele>2727.0</ele></trkpt>
      <trkpt lat="45.91413100" lon="6.98768400"><ele>2727.0</ele></trkpt>
      <trkpt lat="45.91406100" lon="6.98778200"><ele>2726.0</ele></trkpt>
      <trkpt lat="45.91415000" lon="6.98775200"><ele>2726.0</ele></trkpt>
      <trkpt lat="45.91431000" lon="6.98786200"><ele>2726.0</ele></trkpt>
      <trkpt lat="45.91423500" lon="6.98810900"><ele>2726.0</ele></trkpt>
      <trkpt lat="45.91436800" lon="6.98831500"><ele>2727.0</ele></trkpt>
      <trkpt lat="45.91436900" lon="6.98871800"><ele>2730.0</ele></trkpt>
      <trkpt lat="45.91444400" lon="6.98896600"><ele>2731.0</ele></trkpt>
      <trkpt lat="45.91444400" lon="6.98924700"><ele>2732.0</ele></trkpt>
      <trkpt lat="45.91464500" lon="6.98949400"><ele>2732.0</ele></trkpt>
      <trkpt lat="45.91465200" lon="6.98969000"><ele>2732.0</ele></trkpt>
      <trkpt lat="45.91472200" lon="6.98978200"><ele>2732.0</ele></trkpt>
      <trkpt lat="45.91473300" lon="6.99005800"><ele>2734.0</ele></trkpt>
      <trkpt lat="45.91511100" lon="6.99035300"><ele>2734.0</ele></trkpt>
      <trkpt lat="45.91515700" lon="6.99046500"><ele>2734.0</ele></trkpt>
      <trkpt lat="45.91534000" lon="6.99051000"><ele>2732.0</ele></trkpt>
      <trkpt lat="45.91548900" lon="6.99031300"><ele>2734.0</ele></trkpt>
      <trkpt lat="45.91558100" lon="6.99031000"><ele>2735.0</ele></trkpt>
      <trkpt lat="45.91576300" lon="6.99041800"><ele>2735.0</ele></trkpt>
      <trkpt lat="45.91651200" lon="6.99042700"><ele>2732.0</ele></trkpt>
      <trkpt lat="45.91660300" lon="6.99046200"><ele>2732.0</ele></trkpt>
      <trkpt lat="45.91673400" lon="6.99066300"><ele>2736.0</ele></trkpt>
      <trkpt lat="45.91691500" lon="6.99067400"><ele>2737.0</ele></trkpt>
      <trkpt lat="45.91689800" lon="6.99092000"><ele>2740.0</ele></trkpt>
      <trkpt lat="45.91703800" lon="6.99109700"><ele>2744.0</ele></trkpt>
      <trkpt lat="45.91699600" lon="6.99122500"><ele>2749.0</ele></trkpt>
      <trkpt lat="45.91706100" lon="6.99131600"><ele>2750.0</ele></trkpt>
      <trkpt lat="45.91710200" lon="6.99156800"><ele>2756.0</ele></trkpt>
      <trkpt lat="45.91733100" lon="6.99180100"><ele>2763.0</ele></trkpt>
      <trkpt lat="45.91734200" lon="6.99193200"><ele>2767.0</ele></trkpt>
      <trkpt lat="45.91743500" lon="6.99197000"><ele>2768.0</ele></trkpt>
      <trkpt lat="45.91740300" lon="6.99209300"><ele>2774.0</ele></trkpt>
      <trkpt lat="45.91754300" lon="6.99225100"><ele>2777.0</ele></trkpt>
      <trkpt lat="45.91751100" lon="6.99238100"><ele>2780.0</ele></trkpt>
      <trkpt lat="45.91794100" lon="6.99261400"><ele>2798.0</ele></trkpt>
      <trkpt lat="45.91795000" lon="6.99312100"><ele>2811.0</ele></trkpt>
      <trkpt lat="45.91805400" lon="6.99310700"><ele>2813.0</ele></trkpt>
      <trkpt lat="45.91803600" lon="6.99295100"><ele>2813.0</ele></trkpt>
      <trkpt lat="45.91790100" lon="6.99310700"><ele>2813.0</ele></trkpt>
      <trkpt lat="45.91798100" lon="6.99301900"><ele>2813.0</ele></trkpt>
      <trkpt lat="45.91805800" lon="6.99311500"><ele>2812.0</ele></trkpt>
      <trkpt lat="45.91797500" lon="6.99317300"><ele>2811.0</ele></trkpt>
      <trkpt lat="45.91804000" lon="6.99308500"><ele>2813.0</ele></trkpt>
      <trkpt lat="45.91794600" lon="6.99307800"><ele>2813.0</ele></trkpt>
      <trkpt lat="45.91822400" lon="6.99302700"><ele>2819.0</ele></trkpt>
      <trkpt lat="45.91839500" lon="6.99335600"><ele>2830.0</ele></trkpt>
      <trkpt lat="45.91839800" lon="6.99363500"><ele>2837.0</ele></trkpt>
      <trkpt lat="45.91848600" lon="6.99367100"><ele>2840.0</ele></trkpt>
      <trkpt lat="45.91858300" lon="6.99365300"><ele>2844.0</ele></trkpt>
      <trkpt lat="45.91855900" lon="6.99352400"><ele>2849.0</ele></trkpt>
      <trkpt lat="45.91872300" lon="6.99342300"><ele>2854.0</ele></trkpt>
      <trkpt lat="45.91890600" lon="6.99337400"><ele>2856.0</ele></trkpt>
      <trkpt lat="45.91895400" lon="6.99348800"><ele>2863.0</ele></trkpt>
      <trkpt lat="45.91905800" lon="6.99354300"><ele>2865.0</ele></trkpt>
      <trkpt lat="45.91912100" lon="6.99344900"><ele>2867.0</ele></trkpt>
      <trkpt lat="45.91926700" lon="6.99362000"><ele>2877.0</ele></trkpt>
      <trkpt lat="45.91930800" lon="6.99389900"><ele>2885.0</ele></trkpt>
      <trkpt lat="45.91939800" lon="6.99392200"><ele>2885.0</ele></trkpt>
      <trkpt lat="45.91949400" lon="6.99390500"><ele>2893.0</ele></trkpt>
      <trkpt lat="45.91952800" lon="6.99377900"><ele>2896.0</ele></trkpt>
      <trkpt lat="45.91961900" lon="6.99370800"><ele>2899.0</ele></trkpt>
      <trkpt lat="45.91972100" lon="6.99372100"><ele>2905.0</ele></trkpt>
      <trkpt lat="45.91990900" lon="6.99360700"><ele>2913.0</ele></trkpt>
      <trkpt lat="45.92018900" lon="6.99362500"><ele>2929.0</ele></trkpt>
      <trkpt lat="45.92009700" lon="6.99370300"><ele>2927.0</ele></trkpt>
      <trkpt lat="45.92019100" lon="6.99369000"><ele>2932.0</ele></trkpt>
      <trkpt lat="45.92022400" lon="6.99341800"><ele>2936.0</ele></trkpt>
      <trkpt lat="45.92039300" lon="6.99332900"><ele>2946.0</ele></trkpt>
      <trkpt lat="45.92050600" lon="6.99311900"><ele>2955.0</ele></trkpt>
      <trkpt lat="45.92059600" lon="6.99309300"><ele>2959.0</ele></trkpt>
      <trkpt lat="45.92068300" lon="6.99273600"><ele>2972.0</ele></trkpt>
      <trkpt lat="45.92099300" lon="6.99210800"><ele>2993.0</ele></trkpt>
      <trkpt lat="45.92122100" lon="6.99189300"><ele>2999.0</ele></trkpt>
      <trkpt lat="45.92134100" lon="6.99153500"><ele>3007.0</ele></trkpt>
      <trkpt lat="45.92161800" lon="6.99120900"><ele>3017.0</ele></trkpt>
      <trkpt lat="45.92171800" lon="6.99099300"><ele>3025.0</ele></trkpt>
      <trkpt lat="45.92200400" lon="6.99076800"><ele>3032.0</ele></trkpt>
      <trkpt lat="45.92210000" lon="6.99076900"><ele>3039.0</ele></trkpt>
      <trkpt lat="45.92216400" lon="6.99087200"><ele>3043.0</ele></trkpt>
      <trkpt lat="45.92223400" lon="6.99111700"><ele>3052.0</ele></trkpt>
      <trkpt lat="45.92234700" lon="6.99134300"><ele>3059.0</ele></trkpt>
      <trkpt lat="45.92243800" lon="6.99136300"><ele>3059.0</ele></trkpt>
      <trkpt lat="45.92263800" lon="6.99182600"><ele>3080.0</ele></trkpt>
      <trkpt lat="45.92288800" lon="6.99200500"><ele>3087.0</ele></trkpt>
      <trkpt lat="45.92288400" lon="6.99214400"><ele>3091.0</ele></trkpt>
      <trkpt lat="45.92294200" lon="6.99224600"><ele>3095.0</ele></trkpt>
      <trkpt lat="45.92303500" lon="6.99221200"><ele>3100.0</ele></trkpt>
      <trkpt lat="45.92314400" lon="6.99199700"><ele>3109.0</ele></trkpt>
      <trkpt lat="45.92331400" lon="6.99105300"><ele>3137.0</ele></trkpt>
      <trkpt lat="45.92335200" lon="6.99117100"><ele>3137.0</ele></trkpt>
      <trkpt lat="45.92392400" lon="6.99142100"><ele>3153.0</ele></trkpt>
      <trkpt lat="45.92372900" lon="6.99123200"><ele>3155.0</ele></trkpt>
      <trkpt lat="45.92377000" lon="6.99135700"><ele>3156.0</ele></trkpt>
      <trkpt lat="45.92386300" lon="6.99130400"><ele>3160.0</ele></trkpt>
      <trkpt lat="45.92396800" lon="6.99085900"><ele>3174.0</ele></trkpt>
      <trkpt lat="45.92393900" lon="6.99073100"><ele>3177.0</ele></trkpt>
      <trkpt lat="45.92400300" lon="6.99062000"><ele>3180.0</ele></trkpt>
      <trkpt lat="45.92458300" lon="6.99105100"><ele>3198.0</ele></trkpt>
      <trkpt lat="45.92448700" lon="6.99103400"><ele>3200.0</ele></trkpt>
      <trkpt lat="45.92441900" lon="6.99092700"><ele>3206.0</ele></trkpt>
      <trkpt lat="45.92449100" lon="6.99083200"><ele>3207.0</ele></trkpt>
      <trkpt lat="45.92443500" lon="6.99069400"><ele>3210.0</ele></trkpt>
      <trkpt lat="45.92455800" lon="6.99047500"><ele>3215.0</ele></trkpt>
      <trkpt lat="45.92455000" lon="6.99033600"><ele>3217.0</ele></trkpt>
      <trkpt lat="45.92457200" lon="6.99047000"><ele>3217.0</ele></trkpt>
      <trkpt lat="45.92466200" lon="6.99041200"><ele>3220.0</ele></trkpt>
      <trkpt lat="45.92498200" lon="6.99048800"><ele>3228.0</ele></trkpt>
      <trkpt lat="45.92512200" lon="6.99066900"><ele>3239.0</ele></trkpt>
      <trkpt lat="45.92519000" lon="6.99093200"><ele>3243.0</ele></trkpt>
      <trkpt lat="45.92509800" lon="6.99094300"><ele>3248.0</ele></trkpt>
      <trkpt lat="45.92519000" lon="6.99092200"><ele>3251.0</ele></trkpt>
      <trkpt lat="45.92500200" lon="6.99112400"><ele>3256.0</ele></trkpt>
      <trkpt lat="45.92518000" lon="6.99120400"><ele>3268.0</ele></trkpt>
      <trkpt lat="45.92534800" lon="6.99172300"><ele>3299.0</ele></trkpt>
      <trkpt lat="45.92529100" lon="6.99196800"><ele>3308.0</ele></trkpt>
      <trkpt lat="45.92535700" lon="6.99206300"><ele>3312.0</ele></trkpt>
      <trkpt lat="45.92526500" lon="6.99201800"><ele>3310.0</ele></trkpt>
      <trkpt lat="45.92545700" lon="6.99210700"><ele>3314.0</ele></trkpt>
      <trkpt lat="45.92557100" lon="6.99232800"><ele>3323.0</ele></trkpt>
      <trkpt lat="45.92649400" lon="6.99333900"><ele>3381.0</ele></trkpt>
      <trkpt lat="45.92713700" lon="6.99364600"><ele>3436.0</ele></trkpt>
      <trkpt lat="45.92728900" lon="6.99413100"><ele>3454.0</ele></trkpt>
      <trkpt lat="45.92731300" lon="6.99451700"><ele>3474.0</ele></trkpt>
      <trkpt lat="45.92724200" lon="6.99459900"><ele>3476.0</ele></trkpt>
      <trkpt lat="45.92731900" lon="6.99467300"><ele>3475.0</ele></trkpt>
      <trkpt lat="45.92723800" lon="6.99461600"><ele>3477.0</ele></trkpt>
      <trkpt lat="45.92740900" lon="6.99491800"><ele>3490.0</ele></trkpt>
      <trkpt lat="45.92761300" lon="6.99565200"><ele>3523.0</ele></trkpt>
      <trkpt lat="45.92794500" lon="6.99639200"><ele>3556.0</ele></trkpt>
      <trkpt lat="45.92811900" lon="6.99652800"><ele>3561.0</ele></trkpt>
      <trkpt lat="45.92828900" lon="6.99681900"><ele>3572.0</ele></trkpt>
      <trkpt lat="45.92822200" lon="6.99691200"><ele>3575.0</ele></trkpt>
      <trkpt lat="45.92824300" lon="6.99703800"><ele>3581.0</ele></trkpt>
      <trkpt lat="45.92840200" lon="6.99719600"><ele>3587.0</ele></trkpt>
      <trkpt lat="45.92828400" lon="6.99696200"><ele>3587.0</ele></trkpt>
      <trkpt lat="45.92834000" lon="6.99700900"><ele>3587.0</ele></trkpt>
      <trkpt lat="45.92837900" lon="6.99741700"><ele>3593.0</ele></trkpt>
      <trkpt lat="45.92851000" lon="6.99763300"><ele>3596.0</ele></trkpt>
      <trkpt lat="45.92842200" lon="6.99758000"><ele>3598.0</ele></trkpt>
      <trkpt lat="45.92851900" lon="6.99761200"><ele>3600.0</ele></trkpt>
      <trkpt lat="45.92843000" lon="6.99758500"><ele>3603.0</ele></trkpt>
      <trkpt lat="45.92848700" lon="6.99769600"><ele>3605.0</ele></trkpt>
      <trkpt lat="45.92843100" lon="6.99757300"><ele>3605.0</ele></trkpt>
      <trkpt lat="45.92861800" lon="6.99786000"><ele>3618.0</ele></trkpt>
      <trkpt lat="45.92860600" lon="6.99799500"><ele>3621.0</ele></trkpt>
      <trkpt lat="45.92846400" lon="6.99779000"><ele>3630.0</ele></trkpt>
      <trkpt lat="45.92855100" lon="6.99789900"><ele>3633.0</ele></trkpt>
      <trkpt lat="45.92846800" lon="6.99796700"><ele>3637.0</ele></trkpt>
      <trkpt lat="45.92837500" lon="6.99793100"><ele>3638.0</ele></trkpt>
      <trkpt lat="45.92842800" lon="6.99820500"><ele>3650.0</ele></trkpt>
      <trkpt lat="45.92834300" lon="6.99844000"><ele>3664.0</ele></trkpt>
      <trkpt lat="45.92848900" lon="6.99877400"><ele>3698.0</ele></trkpt>
      <trkpt lat="45.92829900" lon="6.99923000"><ele>3721.0</ele></trkpt>
      <trkpt lat="45.92815300" lon="6.99939800"><ele>3734.0</ele></trkpt>
      <trkpt lat="45.92803500" lon="6.99975300"><ele>3754.0</ele></trkpt>
      <trkpt lat="45.92800100" lon="7.00000800"><ele>3763.0</ele></trkpt>
      <trkpt lat="45.92805000" lon="7.00026600"><ele>3770.0</ele></trkpt>
      <trkpt lat="45.92805500" lon="7.00080100"><ele>3783.0</ele></trkpt>
      <trkpt lat="45.92800400" lon="7.00118100"><ele>3802.0</ele></trkpt>
      <trkpt lat="45.92791500" lon="7.00115200"><ele>3815.0</ele></trkpt>
      <trkpt lat="45.92783700" lon="7.00140400"><ele>3841.0</ele></trkpt>
      <trkpt lat="45.92790000" lon="7.00150100"><ele>3844.0</ele></trkpt>
      <trkpt lat="45.92793300" lon="7.00175700"><ele>3843.0</ele></trkpt>
      <trkpt lat="45.92781300" lon="7.00210100"><ele>3851.0</ele></trkpt>
      <trkpt lat="45.92777300" lon="7.00250400"><ele>3846.0</ele></trkpt>
      <trkpt lat="45.92758800" lon="7.00280400"><ele>3859.0</ele></trkpt>
      <trkpt lat="45.92738300" lon="7.00339200"><ele>3866.0</ele></trkpt>
    </trkseg>
  </trk>
</gpx>