<?xml version="1.0" encoding="UTF-8"?>
<gpx version="1.1" creator="AlpHD" xmlns="http://www.topografix.com/GPX/1/1">
  <trk>
    <name>Les Courtes — Voie des Autrichiens</name>
    <trkseg>
      <trkpt lat="45.97077400" lon="6.95677700"><ele>2038.0</ele></trkpt>
      <trkpt lat="45.97072700" lon="6.95654300"><ele>2037.8</ele></trkpt>
      <trkpt lat="45.97036000" lon="6.95643100"><ele>2043.6</ele></trkpt>
      <trkpt lat="45.97025200" lon="6.95663400"><ele>2049.0</ele></trkpt>
      <trkpt lat="45.97022800" lon="6.95684800"><ele>2054.8</ele></trkpt>
      <trkpt lat="45.96981400" lon="6.95668000"><ele>2067.6</ele></trkpt>
      <trkpt lat="45.96967600" lon="6.95684800"><ele>2071.4</ele></trkpt>
      <trkpt lat="45.96968600" lon="6.95698100"><ele>2073.8</ele></trkpt>
      <trkpt lat="45.96963600" lon="6.95698100"><ele>2074.8</ele></trkpt>
      <trkpt lat="45.96943800" lon="6.95685600"><ele>2078.2</ele></trkpt>
      <trkpt lat="45.96883500" lon="6.95669900"><ele>2093.0</ele></trkpt>
      <trkpt lat="45.96870100" lon="6.95655400"><ele>2098.4</ele></trkpt>
      <trkpt lat="45.96857300" lon="6.95624900"><ele>2106.0</ele></trkpt>
      <trkpt lat="45.96840800" lon="6.95661500"><ele>2114.0</ele></trkpt>
      <trkpt lat="45.96819600" lon="6.95619500"><ele>2123.2</ele></trkpt>
      <trkpt lat="45.96809600" lon="6.95649700"><ele>2128.4</ele></trkpt>
      <trkpt lat="45.96799800" lon="6.95643300"><ele>2131.8</ele></trkpt>
      <trkpt lat="45.96776900" lon="6.95761600"><ele>2138.2</ele></trkpt>
      <trkpt lat="45.96768800" lon="6.95834800"><ele>2148.0</ele></trkpt>
      <trkpt lat="45.96772300" lon="6.95859600"><ele>2151.0</ele></trkpt>
      <trkpt lat="45.96756300" lon="6.95914900"><ele>2154.4</ele></trkpt>
      <trkpt lat="45.96757000" lon="6.95927400"><ele>2155.4</ele></trkpt>
      <trkpt lat="45.96762200" lon="6.95927300"><ele>2155.6</ele></trkpt>
      <trkpt lat="45.96757800" lon="6.95926600"><ele>2155.4</ele></trkpt>
      <trkpt lat="45.96761200" lon="6.95944500"><ele>2157.0</ele></trkpt>
      <trkpt lat="45.96749600" lon="6.96011500"><ele>2163.2</ele></trkpt>
      <trkpt lat="45.96750500" lon="6.96068600"><ele>2170.2</ele></trkpt>
      <trkpt lat="45.96757700" lon="6.96123800"><ele>2180.0</ele></trkpt>
      <trkpt lat="45.96753000" lon="6.96168300"><ele>2187.2</ele></trkpt>
      <trkpt lat="45.96673800" lon="6.96108200"><ele>2210.2</ele></trkpt>
      <trkpt lat="45.96670200" lon="6.96154000"><ele>2216.4</ele></trkpt>
      <trkpt lat="45.96646500" lon="6.96237100"><ele>2231.4</ele></trkpt>
      <trkpt lat="45.96632500" lon="6.96231800"><ele>2236.0</ele></trkpt>
      <trkpt lat="45.96609600" lon="6.96201400"><ele>2242.6</ele></trkpt>
      <trkpt lat="45.96602900" lon="6.96210400"><ele>2244.6</ele></trkpt>
      <trkpt lat="45.96594300" lon="6.96260000"><ele>2252.8</ele></trkpt>
      <trkpt lat="45.96603600" lon="6.96300500"><ele>2262.2</ele></trkpt>
      <trkpt lat="45.96591000" lon="6.96373400"><ele>2273.4</ele></trkpt>
      <trkpt lat="45.96609900" lon="6.96391000"><ele>2280.0</ele></trkpt>
      <trkpt lat="45.96602400" lon="6.96398900"><ele>2283.2</ele></trkpt>
      <trkpt lat="45.96591500" lon="6.96439300"><ele>2288.4</ele></trkpt>
      <trkpt lat="45.96496300" lon="6.96551100"><ele>2296.6</ele></trkpt>
      <trkpt lat="45.96445700" lon="6.96641800"><ele>2304.4</ele></trkpt>
      <trkpt lat="45.96399800" lon="6.96698600"><ele>2307.6</ele></trkpt>
      <trkpt lat="45.96360400" lon="6.96771900"><ele>2304.4</ele></trkpt>
      <trkpt lat="45.96342600" lon="6.96820100"><ele>2304.2</ele></trkpt>
      <trkpt lat="45.96303200" lon="6.97003000"><ele>2314.8</ele></trkpt>
      <trkpt lat="45.96287200" lon="6.97039200"><ele>2318.2</ele></trkpt>
      <trkpt lat="45.96228000" lon="6.97100900"><ele>2331.2</ele></trkpt>
      <trkpt lat="45.96168900" lon="6.97142700"><ele>2344.4</ele></trkpt>
      <trkpt lat="45.96143700" lon="6.97170900"><ele>2348.4</ele></trkpt>
      <trkpt lat="45.96109300" lon="6.97270100"><ele>2356.8</ele></trkpt>
      <trkpt lat="45.96102700" lon="6.97305700"><ele>2358.0</ele></trkpt>
      <trkpt lat="45.96070900" lon="6.97369000"><ele>2360.6</ele></trkpt>
      <trkpt lat="45.96050600" lon="6.97433000"><ele>2360.6</ele></trkpt>
      <trkpt lat="45.96011100" lon="6.97497700"><ele>2365.2</ele></trkpt>
      <trkpt lat="45.95985900" lon="6.97588200"><ele>2371.8</ele></trkpt>
      <trkpt lat="45.95923800" lon="6.97699200"><ele>2389.4</ele></trkpt>
      <trkpt lat="45.95835700" lon="6.97811000"><ele>2411.4</ele></trkpt>
      <trkpt lat="45.95833300" lon="6.97835100"><ele>2413.6</ele></trkpt>
      <trkpt lat="45.95839700" lon="6.97858000"><ele>2418.2</ele></trkpt>
      <trkpt lat="45.95805200" lon="6.97866700"><ele>2428.8</ele></trkpt>
      <trkpt lat="45.95767800" lon="6.97865700"><ele>2436.2</ele></trkpt>
      <trkpt lat="45.95765700" lon="6.97882700"><ele>2437.2</ele></trkpt>
      <trkpt lat="45.95771200" lon="6.97898800"><ele>2440.4</ele></trkpt>
      <trkpt lat="45.95747400" lon="6.97895100"><ele>2446.0</ele></trkpt>
      <trkpt lat="45.95720300" lon="6.97877000"><ele>2449.6</ele></trkpt>
      <trkpt lat="45.95661900" lon="6.97876700"><ele>2450.8</ele></trkpt>
      <trkpt lat="45.95633700" lon="6.97896300"><ele>2459.6</ele></trkpt>
      <trkpt lat="45.95626200" lon="6.97893000"><ele>2462.4</ele></trkpt>
      <trkpt lat="45.95590400" lon="6.97912400"><ele>2470.4</ele></trkpt>
      <trkpt lat="45.95520600" lon="6.97931400"><ele>2482.2</ele></trkpt>
      <trkpt lat="45.95509300" lon="6.97939900"><ele>2485.2</ele></trkpt>
      <trkpt lat="45.95444400" lon="6.97947200"><ele>2497.4</ele></trkpt>
      <trkpt lat="45.95415600" lon="6.97977700"><ele>2505.4</ele></trkpt>
      <trkpt lat="45.95376900" lon="6.97998600"><ele>2511.0</ele></trkpt>
      <trkpt lat="45.95337600" lon="6.98053800"><ele>2517.8</ele></trkpt>
      <trkpt lat="45.95309300" lon="6.98075000"><ele>2521.4</ele></trkpt>
      <trkpt lat="45.95300600" lon="6.98119900"><ele>2519.2</ele></trkpt>
      <trkpt lat="45.95290000" lon="6.98144000"><ele>2517.0</ele></trkpt>
      <trkpt lat="45.95225600" lon="6.98244800"><ele>2518.8</ele></trkpt>
      <trkpt lat="45.95209900" lon="6.98302700"><ele>2520.0</ele></trkpt>
      <trkpt lat="45.95198100" lon="6.98379700"><ele>2519.4</ele></trkpt>
      <trkpt lat="45.95139000" lon="6.98504700"><ele>2527.4</ele></trkpt>
      <trkpt lat="45.95085100" lon="6.98572800"><ele>2539.2</ele></trkpt>
      <trkpt lat="45.95062200" lon="6.98628800"><ele>2542.8</ele></trkpt>
      <trkpt lat="45.94992200" lon="6.98723300"><ele>2544.2</ele></trkpt>
      <trkpt lat="45.94947400" lon="6.98814700"><ele>2550.2</ele></trkpt>
      <trkpt lat="45.94905700" lon="6.98849500"><ele>2556.2</ele></trkpt>
      <trkpt lat="45.94833000" lon="6.98935700"><ele>2567.8</ele></trkpt>
      <trkpt lat="45.94759500" lon="6.99010400"><ele>2579.4</ele></trkpt>
      <trkpt lat="45.94707500" lon="6.99087200"><ele>2590.2</ele></trkpt>
      <trkpt lat="45.94625400" lon="6.99191000"><ele>2606.0</ele></trkpt>
      <trkpt lat="45.94588300" lon="6.99262700"><ele>2613.2</ele></trkpt>
      <trkpt lat="45.94523900" lon="6.99426600"><ele>2623.8</ele></trkpt>
      <trkpt lat="45.94442300" lon="6.99607100"><ele>2635.6</ele></trkpt>
      <trkpt lat="45.94228500" lon="7.00011800"><ele>2661.2</ele></trkpt>
      <trkpt lat="45.93985000" lon="7.00511800"><ele>2697.6</ele></trkpt>
      <trkpt lat="45.93946300" lon="7.00491600"><ele>2702.4</ele></trkpt>
      <trkpt lat="45.93880000" lon="7.00472400"><ele>2710.4</ele></trkpt>
      <trkpt lat="45.93868400" lon="7.00504900"><ele>2713.6</ele></trkpt>
      <trkpt lat="45.93779800" lon="7.00575900"><ele>2728.2</ele></trkpt>
      <trkpt lat="45.93766500" lon="7.00573300"><ele>2730.8</ele></trkpt>
      <trkpt lat="45.93751900" lon="7.00580700"><ele>2733.6</ele></trkpt>
      <trkpt lat="45.93753600" lon="7.00574500"><ele>2734.4</ele></trkpt>
      <trkpt lat="45.93748700" lon="7.00573800"><ele>2735.4</ele></trkpt>
      <trkpt lat="45.93721900" lon="7.00584700"><ele>2742.4</ele></trkpt>
      <trkpt lat="45.93691100" lon="7.00586200"><ele>2751.8</ele></trkpt>
      <trkpt lat="45.93690400" lon="7.00562300"><ele>2756.8</ele></trkpt>
      <trkpt lat="45.93645500" lon="7.00554800"><ele>2770.4</ele></trkpt>
      <trkpt lat="45.93633000" lon="7.00559600"><ele>2774.0</ele></trkpt>
      <trkpt lat="45.93597100" lon="7.00604600"><ele>2786.4</ele></trkpt>
      <trkpt lat="45.93605400" lon="7.00381000"><ele>2832.6</ele></trkpt>
      <trkpt lat="45.93570900" lon="7.00396900"><ele>2841.8</ele></trkpt>
      <trkpt lat="45.93564500" lon="7.00393500"><ele>2844.8</ele></trkpt>
      <trkpt lat="45.93562300" lon="7.00359300"><ele>2849.8</ele></trkpt>
      <trkpt lat="45.93572200" lon="7.00315100"><ele>2859.2</ele></trkpt>
      <trkpt lat="45.93555400" lon="7.00322900"><ele>2865.2</ele></trkpt>
      <trkpt lat="45.93562000" lon="7.00299900"><ele>2870.2</ele></trkpt>
      <trkpt lat="45.93548900" lon="7.00312300"><ele>2873.0</ele></trkpt>
      <trkpt lat="45.93561500" lon="7.00271000"><ele>2882.8</ele></trkpt>
      <trkpt lat="45.93557800" lon="7.00224400"><ele>2893.4</ele></trkpt>
      <trkpt lat="45.93447700" lon="7.00334800"><ele>2929.6</ele></trkpt>
      <trkpt lat="45.93432300" lon="7.00374900"><ele>2939.6</ele></trkpt>
      <trkpt lat="45.93425000" lon="7.00337600"><ele>2946.6</ele></trkpt>
      <trkpt lat="45.93397500" lon="7.00388300"><ele>2960.0</ele></trkpt>
      <trkpt lat="45.93393500" lon="7.00383400"><ele>2961.0</ele></trkpt>
      <trkpt lat="45.93372300" lon="7.00406500"><ele>2970.4</ele></trkpt>
      <trkpt lat="45.93340700" lon="7.00476200"><ele>2984.6</ele></trkpt>
      <trkpt lat="45.93336900" lon="7.00506400"><ele>2991.0</ele></trkpt>
      <trkpt lat="45.93324200" lon="7.00530400"><ele>2993.0</ele></trkpt>
      <trkpt lat="45.93335500" lon="7.00526400"><ele>2993.4</ele></trkpt>
      <trkpt lat="45.93320300" lon="7.00542000"><ele>3000.4</ele></trkpt>
      <trkpt lat="45.93326300" lon="7.00541900"><ele>3000.8</ele></trkpt>
      <trkpt lat="45.93318600" lon="7.00543600"><ele>3001.0</ele></trkpt>
      <trkpt lat="45.93324000" lon="7.00538200"><ele>3000.8</ele></trkpt>
      <trkpt lat="45.93319000" lon="7.00541700"><ele>2999.6</ele></trkpt>
      <trkpt lat="45.93327400" lon="7.00543200"><ele>2999.6</ele></trkpt>
      <trkpt lat="45.93320100" lon="7.00543800"><ele>2999.6</ele></trkpt>
      <trkpt lat="45.93327600" lon="7.00537600"><ele>2999.8</ele></trkpt>
      <trkpt lat="45.93322300" lon="7.00537000"><ele>2999.8</ele></trkpt>
      <trkpt lat="45.93328000" lon="7.00538500"><ele>2999.8</ele></trkpt>
      <trkpt lat="45.93318100" lon="7.00540800"><ele>3001.0</ele></trkpt>
      <trkpt lat="45.93323500" lon="7.00542700"><ele>3000.4</ele></trkpt>
      <trkpt lat="45.93319000" lon="7.00536000"><ele>3000.2</ele></trkpt>
      <trkpt lat="45.93324300" lon="7.00538800"><ele>3000.4</ele></trkpt>
      <trkpt lat="45.93320700" lon="7.00543200"><ele>3000.4</ele></trkpt>
      <trkpt lat="45.93316400" lon="7.00539700"><ele>3000.8</ele></trkpt>
      <trkpt lat="45.93324700" lon="7.00537300"><ele>3001.0</ele></trkpt>
      <trkpt lat="45.93317700" lon="7.00539200"><ele>3000.2</ele></trkpt>
      <trkpt lat="45.93322600" lon="7.00537700"><ele>3000.6</ele></trkpt>
      <trkpt lat="45.93319400" lon="7.00546600"><ele>3000.8</ele></trkpt>
      <trkpt lat="45.93251800" lon="7.00548800"><ele>3092.2</ele></trkpt>
      <trkpt lat="45.93248900" lon="7.00546900"><ele>3098.0</ele></trkpt>
      <trkpt lat="45.93253500" lon="7.00542600"><ele>3103.8</ele></trkpt>
      <trkpt lat="45.93242700" lon="7.00544800"><ele>3111.8</ele></trkpt>
      <trkpt lat="45.93233100" lon="7.00535800"><ele>3124.8</ele></trkpt>
      <trkpt lat="45.93225700" lon="7.00539600"><ele>3136.6</ele></trkpt>
      <trkpt lat="45.93203100" lon="7.00530700"><ele>3167.8</ele></trkpt>
      <trkpt lat="45.93191000" lon="7.00516800"><ele>3187.2</ele></trkpt>
      <trkpt lat="45.93178700" lon="7.00520600"><ele>3205.4</ele></trkpt>
      <trkpt lat="45.93164600" lon="7.00506500"><ele>3227.2</ele></trkpt>
      <trkpt lat="45.93153900" lon="7.00506700"><ele>3242.4</ele></trkpt>
      <trkpt lat="45.93158100" lon="7.00504300"><ele>3244.0</ele></trkpt>
      <trkpt lat="45.93148400" lon="7.00502500"><ele>3250.6</ele></trkpt>
      <trkpt lat="45.93152600" lon="7.00500500"><ele>3250.8</ele></trkpt>
      <trkpt lat="45.93143400" lon="7.00490700"><ele>3264.0</ele></trkpt>
      <trkpt lat="45.93148200" lon="7.00491200"><ele>3265.4</ele></trkpt>
      <trkpt lat="45.93139300" lon="7.00487300"><ele>3272.6</ele></trkpt>
      <trkpt lat="45.93143900" lon="7.00485700"><ele>3274.6</ele></trkpt>
      <trkpt lat="45.93125200" lon="7.00478000"><ele>3296.4</ele></trkpt>
      <trkpt lat="45.93132100" lon="7.00474300"><ele>3300.2</ele></trkpt>
      <trkpt lat="45.93110500" lon="7.00467400"><ele>3333.0</ele></trkpt>
      <trkpt lat="45.93094200" lon="7.00472800"><ele>3354.6</ele></trkpt>
      <trkpt lat="45.93054700" lon="7.00470300"><ele>3414.0</ele></trkpt>
      <trkpt lat="45.93043500" lon="7.00459300"><ele>3433.6</ele></trkpt>
      <trkpt lat="45.93041200" lon="7.00451900"><ele>3446.2</ele></trkpt>
      <trkpt lat="45.93044600" lon="7.00450200"><ele>3447.4</ele></trkpt>
      <trkpt lat="45.93039200" lon="7.00445300"><ele>3451.2</ele></trkpt>
      <trkpt lat="45.93044500" lon="7.00447100"><ele>3451.6</ele></trkpt>
      <trkpt lat="45.93033200" lon="7.00442200"><ele>3454.8</ele></trkpt>
      <trkpt lat="45.93024200" lon="7.00427900"><ele>3472.0</ele></trkpt>
      <trkpt lat="45.93022900" lon="7.00413400"><ele>3485.8</ele></trkpt>
      <trkpt lat="45.93018800" lon="7.00413600"><ele>3488.0</ele></trkpt>
      <trkpt lat="45.93024900" lon="7.00412500"><ele>3489.8</ele></trkpt>
      <trkpt lat="45.93006700" lon="7.00399900"><ele>3516.2</ele></trkpt>
      <trkpt lat="45.93000800" lon="7.00386500"><ele>3529.4</ele></trkpt>
      <trkpt lat="45.92992200" lon="7.00385600"><ele>3540.0</ele></trkpt>
      <trkpt lat="45.92983900" lon="7.00398000"><ele>3555.6</ele></trkpt>
      <trkpt lat="45.92938300" lon="7.00371200"><ele>3621.2</ele></trkpt>
      <trkpt lat="45.92928000" lon="7.00371400"><ele>3632.2</ele></trkpt>
      <trkpt lat="45.92881000" lon="7.00339400"><ele>3698.6</ele></trkpt>
      <trkpt lat="45.92869200" lon="7.00317000"><ele>3718.4</ele></trkpt>
      <trkpt lat="45.92821000" lon="7.00305300"><ele>3780.0</ele></trkpt>
      <trkpt lat="45.92807200" lon="7.00286400"><ele>3800.0</ele></trkpt>
      <trkpt lat="45.92809300" lon="7.00290600"><ele>3801.2</ele></trkpt>
      <trkpt lat="45.92778000" lon="7.00264800"><ele>3844.8</ele></trkpt>
      <trkpt lat="45.92767100" lon="7.00266500"><ele>3855.6</ele></trkpt>
      <trkpt lat="45.92742100" lon="7.00341100"><ele>3867.0</ele></trkpt>
    </trkseg>
  </trk>
</gpx>