After dedup: 119 pts, 2601m -> max=3659m -> 2616m
<?xml version="1.0" encoding="UTF-8"?>
<gpx version="1.1" creator="AlpHD">
<trk><trkseg>
  <trkpt lat="45.786874" lon="6.765991"><ele>2601</ele></trkpt>
  <trkpt lat="45.786782" lon="6.765588"><ele>2617</ele></trkpt>
  <trkpt lat="45.787867" lon="6.766307"><ele>2659</ele></trkpt>
  <trkpt lat="45.788211" lon="6.766581"><ele>2676</ele></trkpt>
  <trkpt lat="45.788489" lon="6.767200"><ele>2688</ele></trkpt>
  <trkpt lat="45.788630" lon="6.768360"><ele>2694</ele></trkpt>
  <trkpt lat="45.788761" lon="6.768641"><ele>2694</ele></trkpt>
  <trkpt lat="45.788727" lon="6.768920"><ele>2695</ele></trkpt>
  <trkpt lat="45.788939" lon="6.769654"><ele>2701</ele></trkpt>
  <trkpt lat="45.788971" lon="6.770741"><ele>2714</ele></trkpt>
  <trkpt lat="45.789156" lon="6.770893"><ele>2719</ele></trkpt>
  <trkpt lat="45.789236" lon="6.772316"><ele>2729</ele></trkpt>
  <trkpt lat="45.789578" lon="6.774436"><ele>2736</ele></trkpt>
  <trkpt lat="45.790077" lon="6.776284"><ele>2755</ele></trkpt>
  <trkpt lat="45.790708" lon="6.777923"><ele>2771</ele></trkpt>
  <trkpt lat="45.791208" lon="6.778710"><ele>2778</ele></trkpt>
  <trkpt lat="45.791547" lon="6.779572"><ele>2782</ele></trkpt>
  <trkpt lat="45.791570" lon="6.780271"><ele>2797</ele></trkpt>
  <trkpt lat="45.791905" lon="6.780381"><ele>2806</ele></trkpt>
  <trkpt lat="45.793234" lon="6.781780"><ele>2836</ele></trkpt>
  <trkpt lat="45.793358" lon="6.782334"><ele>2843</ele></trkpt>
  <trkpt lat="45.793635" lon="6.782978"><ele>2850</ele></trkpt>
  <trkpt lat="45.794151" lon="6.783417"><ele>2864</ele></trkpt>
  <trkpt lat="45.795461" lon="6.784798"><ele>2892</ele></trkpt>
  <trkpt lat="45.795605" lon="6.785209"><ele>2890</ele></trkpt>
  <trkpt lat="45.795877" lon="6.785599"><ele>2897</ele></trkpt>
  <trkpt lat="45.796428" lon="6.786130"><ele>2912</ele></trkpt>
  <trkpt lat="45.796517" lon="6.786525"><ele>2913</ele></trkpt>
  <trkpt lat="45.797849" lon="6.787852"><ele>2943</ele></trkpt>
  <trkpt lat="45.798811" lon="6.789631"><ele>2949</ele></trkpt>
  <trkpt lat="45.798841" lon="6.790343"><ele>2944</ele></trkpt>
  <trkpt lat="45.799287" lon="6.791246"><ele>2946</ele></trkpt>
  <trkpt lat="45.800389" lon="6.791804"><ele>2967</ele></trkpt>
  <trkpt lat="45.800780" lon="6.792468"><ele>2984</ele></trkpt>
  <trkpt lat="45.800969" lon="6.793125"><ele>2999</ele></trkpt>
  <trkpt lat="45.801617" lon="6.794098"><ele>3022</ele></trkpt>
  <trkpt lat="45.801914" lon="6.795097"><ele>3030</ele></trkpt>
  <trkpt lat="45.802017" lon="6.795889"><ele>3041</ele></trkpt>
  <trkpt lat="45.802381" lon="6.796291"><ele>3053</ele></trkpt>
  <trkpt lat="45.802604" lon="6.796334"><ele>3062</ele></trkpt>
  <trkpt lat="45.802562" lon="6.796930"><ele>3075</ele></trkpt>
  <trkpt lat="45.803814" lon="6.797602"><ele>3118</ele></trkpt>
  <trkpt lat="45.804052" lon="6.799071"><ele>3143</ele></trkpt>
  <trkpt lat="45.804101" lon="6.800197"><ele>3165</ele></trkpt>
  <trkpt lat="45.804183" lon="6.800616"><ele>3176</ele></trkpt>
  <trkpt lat="45.805203" lon="6.800632"><ele>3202</ele></trkpt>
  <trkpt lat="45.805426" lon="6.800854"><ele>3209</ele></trkpt>
  <trkpt lat="45.805633" lon="6.801265"><ele>3214</ele></trkpt>
  <trkpt lat="45.806088" lon="6.801865"><ele>3227</ele></trkpt>
  <trkpt lat="45.807399" lon="6.802192"><ele>3258</ele></trkpt>
  <trkpt lat="45.808977" lon="6.802317"><ele>3302</ele></trkpt>
  <trkpt lat="45.809186" lon="6.801940"><ele>3318</ele></trkpt>
  <trkpt lat="45.809352" lon="6.800494"><ele>3337</ele></trkpt>
  <trkpt lat="45.809215" lon="6.799922"><ele>3340</ele></trkpt>
  <trkpt lat="45.809369" lon="6.799754"><ele>3350</ele></trkpt>
  <trkpt lat="45.810249" lon="6.799753"><ele>3374</ele></trkpt>
  <trkpt lat="45.810912" lon="6.800061"><ele>3395</ele></trkpt>
  <trkpt lat="45.811404" lon="6.799956"><ele>3414</ele></trkpt>
  <trkpt lat="45.811922" lon="6.799711"><ele>3427</ele></trkpt>
  <trkpt lat="45.812010" lon="6.799243"><ele>3438</ele></trkpt>
  <trkpt lat="45.812201" lon="6.798779"><ele>3450</ele></trkpt>
  <trkpt lat="45.812776" lon="6.798500"><ele>3467</ele></trkpt>
  <trkpt lat="45.813294" lon="6.798065"><ele>3488</ele></trkpt>
  <trkpt lat="45.814580" lon="6.796397"><ele>3536</ele></trkpt>
  <trkpt lat="45.814694" lon="6.795861"><ele>3548</ele></trkpt>
  <trkpt lat="45.814628" lon="6.795486"><ele>3556</ele></trkpt>
  <trkpt lat="45.814170" lon="6.795221"><ele>3565</ele></trkpt>
  <trkpt lat="45.814245" lon="6.794711"><ele>3593</ele></trkpt>
  <trkpt lat="45.814121" lon="6.794243"><ele>3615</ele></trkpt>
  <trkpt lat="45.813556" lon="6.793876"><ele>3628</ele></trkpt>
  <trkpt lat="45.811881" lon="6.791706"><ele>3646</ele></trkpt>
  <trkpt lat="45.811531" lon="6.791460"><ele>3659</ele></trkpt>
  <trkpt lat="45.811082" lon="6.790544"><ele>3647</ele></trkpt>
  <trkpt lat="45.810290" lon="6.789549"><ele>3654</ele></trkpt>
  <trkpt lat="45.810077" lon="6.788665"><ele>3613</ele></trkpt>
  <trkpt lat="45.808859" lon="6.786699"><ele>3557</ele></trkpt>
  <trkpt lat="45.808374" lon="6.786269"><ele>3535</ele></trkpt>
  <trkpt lat="45.807117" lon="6.784868"><ele>3465</ele></trkpt>
  <trkpt lat="45.806236" lon="6.783092"><ele>3382</ele></trkpt>
  <trkpt lat="45.805093" lon="6.781805"><ele>3351</ele></trkpt>
  <trkpt lat="45.804708" lon="6.781237"><ele>3357</ele></trkpt>
  <trkpt lat="45.803783" lon="6.779029"><ele>3401</ele></trkpt>
  <trkpt lat="45.803610" lon="6.778919"><ele>3412</ele></trkpt>
  <trkpt lat="45.803127" lon="6.778967"><ele>3416</ele></trkpt>
  <trkpt lat="45.802825" lon="6.778808"><ele>3426</ele></trkpt>
  <trkpt lat="45.802299" lon="6.778998"><ele>3396</ele></trkpt>
  <trkpt lat="45.802029" lon="6.778981"><ele>3377</ele></trkpt>
  <trkpt lat="45.801769" lon="6.778362"><ele>3342</ele></trkpt>
  <trkpt lat="45.800965" lon="6.778275"><ele>3288</ele></trkpt>
  <trkpt lat="45.800396" lon="6.777692"><ele>3262</ele></trkpt>
  <trkpt lat="45.800328" lon="6.777092"><ele>3235</ele></trkpt>
  <trkpt lat="45.800115" lon="6.776521"><ele>3215</ele></trkpt>
  <trkpt lat="45.799153" lon="6.775517"><ele>3202</ele></trkpt>
  <trkpt lat="45.799279" lon="6.775233"><ele>3188</ele></trkpt>
  <trkpt lat="45.798631" lon="6.774593"><ele>3148</ele></trkpt>
  <trkpt lat="45.797837" lon="6.774170"><ele>3111</ele></trkpt>
  <trkpt lat="45.797167" lon="6.773598"><ele>3088</ele></trkpt>
  <trkpt lat="45.796841" lon="6.772907"><ele>3060</ele></trkpt>
  <trkpt lat="45.796111" lon="6.772424"><ele>3012</ele></trkpt>
  <trkpt lat="45.795793" lon="6.772366"><ele>2994</ele></trkpt>
  <trkpt lat="45.795293" lon="6.772094"><ele>2970</ele></trkpt>
  <trkpt lat="45.794775" lon="6.771526"><ele>2944</ele></trkpt>
  <trkpt lat="45.794035" lon="6.771076"><ele>2913</ele></trkpt>
  <trkpt lat="45.793702" lon="6.770447"><ele>2891</ele></trkpt>
  <trkpt lat="45.793683" lon="6.770132"><ele>2884</ele></trkpt>
  <trkpt lat="45.792446" lon="6.769203"><ele>2846</ele></trkpt>
  <trkpt lat="45.791578" lon="6.768023"><ele>2800</ele></trkpt>
  <trkpt lat="45.791291" lon="6.767926"><ele>2790</ele></trkpt>
  <trkpt lat="45.791101" lon="6.767638"><ele>2783</ele></trkpt>
  <trkpt lat="45.790259" lon="6.767466"><ele>2750</ele></trkpt>
  <trkpt lat="45.790151" lon="6.767179"><ele>2743</ele></trkpt>
  <trkpt lat="45.789687" lon="6.766912"><ele>2721</ele></trkpt>
  <trkpt lat="45.789388" lon="6.766571"><ele>2714</ele></trkpt>
  <trkpt lat="45.789144" lon="6.766544"><ele>2709</ele></trkpt>
  <trkpt lat="45.788786" lon="6.766235"><ele>2699</ele></trkpt>
  <trkpt lat="45.787953" lon="6.766277"><ele>2660</ele></trkpt>
  <trkpt lat="45.787731" lon="6.765828"><ele>2645</ele></trkpt>
  <trkpt lat="45.787527" lon="6.765799"><ele>2632</ele></trkpt>
  <trkpt lat="45.786913" lon="6.766017"><ele>2616</ele></trkpt>
</trkseg></trk>
</gpx>
