<?xml version="1.0" encoding="UTF-8"?>
<gpx version="1.1" creator="AlpHD" xmlns="http://www.topografix.com/GPX/1/1">
  <trk>
    <name>Les Droites — Éperon Oriental (voie normale)</name>
    <trkseg>
      <trkpt lat="45.91965230" lon="6.99157920"><ele>2927.8</ele></trkpt>
      <trkpt lat="45.91975710" lon="6.99131060"><ele>2926.4</ele></trkpt>
      <trkpt lat="45.92040690" lon="6.99211650"><ele>2948.5</ele></trkpt>
      <trkpt lat="45.92211710" lon="6.99201950"><ele>3029.7</ele></trkpt>
      <trkpt lat="45.92287820" lon="6.99169520"><ele>3081.4</ele></trkpt>
      <trkpt lat="45.92357670" lon="6.99052190"><ele>3119.4</ele></trkpt>
      <trkpt lat="45.92379970" lon="6.99065010"><ele>3126.7</ele></trkpt>
      <trkpt lat="45.92417080" lon="6.98998580"><ele>3098.8</ele></trkpt>
      <trkpt lat="45.92502480" lon="6.99082820"><ele>3148.2</ele></trkpt>
      <trkpt lat="45.92518340" lon="6.99060840"><ele>3135.3</ele></trkpt>
      <trkpt lat="45.92623100" lon="6.99133570"><ele>3319.4</ele></trkpt>
      <trkpt lat="45.92625410" lon="6.99187050"><ele>3337.0</ele></trkpt>
      <trkpt lat="45.92670090" lon="6.99244730"><ele>3386.1</ele></trkpt>
      <trkpt lat="45.92769050" lon="6.99236560"><ele>3469.5</ele></trkpt>
      <trkpt lat="45.92783600" lon="6.99226840"><ele>3470.8</ele></trkpt>
      <trkpt lat="45.92773780" lon="6.99188070"><ele>3496.6</ele></trkpt>
      <trkpt lat="45.92792660" lon="6.99235020"><ele>3497.1</ele></trkpt>
      <trkpt lat="45.92832850" lon="6.99209350"><ele>3514.0</ele></trkpt>
      <trkpt lat="45.92811560" lon="6.99230750"><ele>3524.6</ele></trkpt>
      <trkpt lat="45.92830730" lon="6.99246830"><ele>3522.1</ele></trkpt>
      <trkpt lat="45.92816430" lon="6.99211040"><ele>3528.9</ele></trkpt>
      <trkpt lat="45.92945010" lon="6.99152510"><ele>3655.5</ele></trkpt>
      <trkpt lat="45.92930210" lon="6.99147450"><ele>3666.0</ele></trkpt>
      <trkpt lat="45.92981180" lon="6.99093430"><ele>3732.1</ele></trkpt>
      <trkpt lat="45.92970630" lon="6.99123480"><ele>3737.3</ele></trkpt>
      <trkpt lat="45.92988430" lon="6.99081010"><ele>3733.9</ele></trkpt>
      <trkpt lat="45.92971280" lon="6.99077600"><ele>3759.5</ele></trkpt>
      <trkpt lat="45.92997080" lon="6.99065430"><ele>3799.9</ele></trkpt>
      <trkpt lat="45.92984200" lon="6.99056540"><ele>3805.2</ele></trkpt>
      <trkpt lat="45.93015460" lon="6.99085990"><ele>3807.3</ele></trkpt>
      <trkpt lat="45.93000140" lon="6.99082010"><ele>3849.5</ele></trkpt>
      <trkpt lat="45.93033920" lon="6.98985070"><ele>3804.3</ele></trkpt>
      <trkpt lat="45.93016830" lon="6.98992910"><ele>3878.5</ele></trkpt>
      <trkpt lat="45.93046660" lon="6.98968010"><ele>3826.9</ele></trkpt>
      <trkpt lat="45.93032050" lon="6.98939140"><ele>3900.0</ele></trkpt>
      <trkpt lat="45.93083980" lon="6.98895240"><ele>3862.2</ele></trkpt>
      <trkpt lat="45.93041460" lon="6.98916160"><ele>3941.6</ele></trkpt>
      <trkpt lat="45.93059100" lon="6.98934090"><ele>3952.4</ele></trkpt>
      <trkpt lat="45.93067250" lon="6.98888070"><ele>3990.1</ele></trkpt>
      <trkpt lat="45.93042330" lon="6.98911410"><ele>4002.9</ele></trkpt>
    </trkseg>
  </trk>
</gpx>