<?xml version="1.0" encoding="UTF-8"?>
<gpx version="1.1" creator="AlpHD-batch" xmlns="http://www.topografix.com/GPX/1/1">
  <trk>
    <name>Éperon Migot</name>
    <trkseg>
      <trkpt lat="46.0036720" lon="6.9466940"><ele>1378.0</ele></trkpt>
      <trkpt lat="46.0038234" lon="6.9470155"><ele>1379.4</ele></trkpt>
      <trkpt lat="46.0039748" lon="6.9473369"><ele>1380.8</ele></trkpt>
      <trkpt lat="46.0041876" lon="6.9475491"><ele>1382.3</ele></trkpt>
      <trkpt lat="46.0041721" lon="6.9477006"><ele>1384.0</ele></trkpt>
      <trkpt lat="46.0041327" lon="6.9480848"><ele>1387.7</ele></trkpt>
      <trkpt lat="46.0041162" lon="6.9483467"><ele>1391.5</ele></trkpt>
      <trkpt lat="46.0040918" lon="6.9487335"><ele>1395.3</ele></trkpt>
      <trkpt lat="46.0040674" lon="6.9491203"><ele>1398.9</ele></trkpt>
      <trkpt lat="46.0041209" lon="6.9494127"><ele>1402.6</ele></trkpt>
      <trkpt lat="46.0041895" lon="6.9497884"><ele>1406.8</ele></trkpt>
      <trkpt lat="46.0042142" lon="6.9501610"><ele>1411.3</ele></trkpt>
      <trkpt lat="46.0042399" lon="6.9505476"><ele>1415.8</ele></trkpt>
      <trkpt lat="46.0042385" lon="6.9506624"><ele>1420.2</ele></trkpt>
      <trkpt lat="46.0042336" lon="6.9510508"><ele>1424.5</ele></trkpt>
      <trkpt lat="46.0042286" lon="6.9514391"><ele>1428.6</ele></trkpt>
      <trkpt lat="46.0041905" lon="6.9516918"><ele>1432.8</ele></trkpt>
      <trkpt lat="46.0041333" lon="6.9520713"><ele>1437.4</ele></trkpt>
      <trkpt lat="46.0041255" lon="6.9523084"><ele>1442.1</ele></trkpt>
      <trkpt lat="46.0041128" lon="6.9526963"><ele>1446.7</ele></trkpt>
      <trkpt lat="46.0041558" lon="6.9528659"><ele>1451.1</ele></trkpt>
      <trkpt lat="46.0042483" lon="6.9532308"><ele>1455.8</ele></trkpt>
      <trkpt lat="46.0042533" lon="6.9534145"><ele>1460.6</ele></trkpt>
      <trkpt lat="46.0042638" lon="6.9538026"><ele>1465.2</ele></trkpt>
      <trkpt lat="46.0042743" lon="6.9541908"><ele>1469.6</ele></trkpt>
      <trkpt lat="46.0042849" lon="6.9545789"><ele>1473.5</ele></trkpt>
      <trkpt lat="46.0042954" lon="6.9549670"><ele>1477.2</ele></trkpt>
      <trkpt lat="46.0043205" lon="6.9552208"><ele>1481.3</ele></trkpt>
      <trkpt lat="46.0043585" lon="6.9556053"><ele>1485.4</ele></trkpt>
      <trkpt lat="46.0043610" lon="6.9556199"><ele>1489.6</ele></trkpt>
      <trkpt lat="46.0044270" lon="6.9559965"><ele>1494.6</ele></trkpt>
      <trkpt lat="46.0044931" lon="6.9563731"><ele>1499.5</ele></trkpt>
      <trkpt lat="46.0045591" lon="6.9567497"><ele>1505.9</ele></trkpt>
      <trkpt lat="46.0046251" lon="6.9571263"><ele>1513.8</ele></trkpt>
      <trkpt lat="46.0046948" lon="6.9573593"><ele>1523.4</ele></trkpt>
      <trkpt lat="46.0047133" lon="6.9574672"><ele>1533.7</ele></trkpt>
      <trkpt lat="46.0047782" lon="6.9578442"><ele>1544.0</ele></trkpt>
      <trkpt lat="46.0048430" lon="6.9582212"><ele>1554.5</ele></trkpt>
      <trkpt lat="46.0049078" lon="6.9585983"><ele>1565.3</ele></trkpt>
      <trkpt lat="46.0047691" lon="6.9589233"><ele>1575.3</ele></trkpt>
      <trkpt lat="46.0047245" lon="6.9592051"><ele>1586.4</ele></trkpt>
      <trkpt lat="46.0046645" lon="6.9595838"><ele>1597.4</ele></trkpt>
      <trkpt lat="46.0044914" lon="6.9598241"><ele>1607.1</ele></trkpt>
      <trkpt lat="46.0044554" lon="6.9599581"><ele>1617.2</ele></trkpt>
      <trkpt lat="46.0043580" lon="6.9603203"><ele>1628.0</ele></trkpt>
      <trkpt lat="46.0042606" lon="6.9606825"><ele>1640.2</ele></trkpt>
      <trkpt lat="46.0042833" lon="6.9607719"><ele>1652.6</ele></trkpt>
      <trkpt lat="46.0043760" lon="6.9611366"><ele>1666.6</ele></trkpt>
      <trkpt lat="46.0044687" lon="6.9615014"><ele>1681.2</ele></trkpt>
      <trkpt lat="46.0045614" lon="6.9618661"><ele>1695.5</ele></trkpt>
      <trkpt lat="46.0045822" lon="6.9620316"><ele>1708.7</ele></trkpt>
      <trkpt lat="46.0046302" lon="6.9624138"><ele>1723.4</ele></trkpt>
      <trkpt lat="46.0045845" lon="6.9627323"><ele>1737.4</ele></trkpt>
      <trkpt lat="46.0044933" lon="6.9629365"><ele>1752.4</ele></trkpt>
      <trkpt lat="46.0044376" lon="6.9629922"><ele>1767.2</ele></trkpt>
      <trkpt lat="46.0042160" lon="6.9632139"><ele>1781.3</ele></trkpt>
      <trkpt lat="46.0041339" lon="6.9633515"><ele>1794.6</ele></trkpt>
      <trkpt lat="46.0039579" lon="6.9636459"><ele>1806.6</ele></trkpt>
      <trkpt lat="46.0037757" lon="6.9638657"><ele>1817.7</ele></trkpt>
      <trkpt lat="46.0037401" lon="6.9639182"><ele>1828.6</ele></trkpt>
      <trkpt lat="46.0035515" lon="6.9641959"><ele>1837.7</ele></trkpt>
      <trkpt lat="46.0035116" lon="6.9642865"><ele>1845.7</ele></trkpt>
      <trkpt lat="46.0033672" lon="6.9646146"><ele>1851.2</ele></trkpt>
      <trkpt lat="46.0032228" lon="6.9649426"><ele>1855.4</ele></trkpt>
      <trkpt lat="46.0030783" lon="6.9652707"><ele>1860.1</ele></trkpt>
      <trkpt lat="46.0029339" lon="6.9655987"><ele>1863.3</ele></trkpt>
      <trkpt lat="46.0028233" lon="6.9658338"><ele>1867.5</ele></trkpt>
      <trkpt lat="46.0026721" lon="6.9661555"><ele>1871.9</ele></trkpt>
      <trkpt lat="46.0025209" lon="6.9664772"><ele>1877.8</ele></trkpt>
      <trkpt lat="46.0024963" lon="6.9665079"><ele>1885.1</ele></trkpt>
      <trkpt lat="46.0022922" lon="6.9667619"><ele>1894.0</ele></trkpt>
      <trkpt lat="46.0022595" lon="6.9668423"><ele>1903.9</ele></trkpt>
      <trkpt lat="46.0021232" lon="6.9671775"><ele>1915.1</ele></trkpt>
      <trkpt lat="46.0019869" lon="6.9675127"><ele>1927.6</ele></trkpt>
      <trkpt lat="46.0018507" lon="6.9678479"><ele>1942.1</ele></trkpt>
      <trkpt lat="46.0018356" lon="6.9681252"><ele>1956.5</ele></trkpt>
      <trkpt lat="46.0018145" lon="6.9685125"><ele>1972.0</ele></trkpt>
      <trkpt lat="46.0017934" lon="6.9688997"><ele>1987.3</ele></trkpt>
      <trkpt lat="46.0017723" lon="6.9692869"><ele>2001.4</ele></trkpt>
      <trkpt lat="46.0017160" lon="6.9695275"><ele>2015.9</ele></trkpt>
      <trkpt lat="46.0016299" lon="6.9698956"><ele>2029.6</ele></trkpt>
      <trkpt lat="46.0016720" lon="6.9701833"><ele>2043.0</ele></trkpt>
      <trkpt lat="46.0016817" lon="6.9702911"><ele>2054.5</ele></trkpt>
      <trkpt lat="46.0017166" lon="6.9706762"><ele>2065.7</ele></trkpt>
      <trkpt lat="46.0016930" lon="6.9708457"><ele>2077.4</ele></trkpt>
      <trkpt lat="46.0016400" lon="6.9712265"><ele>2089.0</ele></trkpt>
      <trkpt lat="46.0016409" lon="6.9712850"><ele>2099.5</ele></trkpt>
      <trkpt lat="46.0016470" lon="6.9716733"><ele>2110.8</ele></trkpt>
      <trkpt lat="46.0016530" lon="6.9720616"><ele>2120.9</ele></trkpt>
      <trkpt lat="46.0015984" lon="6.9723748"><ele>2131.6</ele></trkpt>
      <trkpt lat="46.0016095" lon="6.9724814"><ele>2142.1</ele></trkpt>
      <trkpt lat="46.0016495" lon="6.9728656"><ele>2153.7</ele></trkpt>
      <trkpt lat="46.0016522" lon="6.9731028"><ele>2164.3</ele></trkpt>
      <trkpt lat="46.0016568" lon="6.9734912"><ele>2173.3</ele></trkpt>
      <trkpt lat="46.0016613" lon="6.9738795"><ele>2182.3</ele></trkpt>
      <trkpt lat="46.0016658" lon="6.9742679"><ele>2192.4</ele></trkpt>
      <trkpt lat="46.0016436" lon="6.9744655"><ele>2201.8</ele></trkpt>
      <trkpt lat="46.0016429" lon="6.9744796"><ele>2211.8</ele></trkpt>
      <trkpt lat="46.0016253" lon="6.9748671"><ele>2221.8</ele></trkpt>
      <trkpt lat="46.0016077" lon="6.9752547"><ele>2231.8</ele></trkpt>
      <trkpt lat="46.0015581" lon="6.9754391"><ele>2241.7</ele></trkpt>
      <trkpt lat="46.0014608" lon="6.9758014"><ele>2251.7</ele></trkpt>
      <trkpt lat="46.0013635" lon="6.9761636"><ele>2262.7</ele></trkpt>
      <trkpt lat="46.0012662" lon="6.9765259"><ele>2273.4</ele></trkpt>
      <trkpt lat="46.0011689" lon="6.9768881"><ele>2283.8</ele></trkpt>
      <trkpt lat="46.0011100" lon="6.9770619"><ele>2294.6</ele></trkpt>
      <trkpt lat="46.0009916" lon="6.9774109"><ele>2304.4</ele></trkpt>
      <trkpt lat="46.0008733" lon="6.9777600"><ele>2313.9</ele></trkpt>
      <trkpt lat="46.0007550" lon="6.9781091"><ele>2322.5</ele></trkpt>
      <trkpt lat="46.0006367" lon="6.9784581"><ele>2330.5</ele></trkpt>
      <trkpt lat="46.0006099" lon="6.9786298"><ele>2338.9</ele></trkpt>
      <trkpt lat="46.0005508" lon="6.9790088"><ele>2347.2</ele></trkpt>
      <trkpt lat="46.0004976" lon="6.9792627"><ele>2355.6</ele></trkpt>
      <trkpt lat="46.0004198" lon="6.9796346"><ele>2363.4</ele></trkpt>
      <trkpt lat="46.0003136" lon="6.9799205"><ele>2371.5</ele></trkpt>
      <trkpt lat="46.0001864" lon="6.9802630"><ele>2380.5</ele></trkpt>
      <trkpt lat="46.0000591" lon="6.9806054"><ele>2389.9</ele></trkpt>
      <trkpt lat="45.9999741" lon="6.9807423"><ele>2399.6</ele></trkpt>
      <trkpt lat="45.9997942" lon="6.9810318"><ele>2409.7</ele></trkpt>
      <trkpt lat="45.9996144" lon="6.9813213"><ele>2419.2</ele></trkpt>
      <trkpt lat="45.9994346" lon="6.9816108"><ele>2428.7</ele></trkpt>
      <trkpt lat="45.9993323" lon="6.9818531"><ele>2438.1</ele></trkpt>
      <trkpt lat="45.9991922" lon="6.9821850"><ele>2447.3</ele></trkpt>
      <trkpt lat="45.9991270" lon="6.9822831"><ele>2456.0</ele></trkpt>
      <trkpt lat="45.9989406" lon="6.9825638"><ele>2464.4</ele></trkpt>
      <trkpt lat="45.9987542" lon="6.9828446"><ele>2472.3</ele></trkpt>
      <trkpt lat="45.9987010" lon="6.9829861"><ele>2479.7</ele></trkpt>
      <trkpt lat="45.9985727" lon="6.9833278"><ele>2486.7</ele></trkpt>
      <trkpt lat="45.9984444" lon="6.9836694"><ele>2494.4</ele></trkpt>
      <trkpt lat="45.9983161" lon="6.9840111"><ele>2501.9</ele></trkpt>
      <trkpt lat="45.9982550" lon="6.9841460"><ele>2508.4</ele></trkpt>
      <trkpt lat="45.9981076" lon="6.9844713"><ele>2515.3</ele></trkpt>
      <trkpt lat="45.9979535" lon="6.9848049"><ele>2521.2</ele></trkpt>
      <trkpt lat="45.9978063" lon="6.9851305"><ele>2527.0</ele></trkpt>
      <trkpt lat="45.9977972" lon="6.9851414"><ele>2532.7</ele></trkpt>
      <trkpt lat="45.9975892" lon="6.9853886"><ele>2538.8</ele></trkpt>
      <trkpt lat="45.9975810" lon="6.9854017"><ele>2544.6</ele></trkpt>
      <trkpt lat="45.9974004" lon="6.9856901"><ele>2554.5</ele></trkpt>
      <trkpt lat="45.9972120" lon="6.9859842"><ele>2560.9</ele></trkpt>
      <trkpt lat="45.9969832" lon="6.9860857"><ele>2566.4</ele></trkpt>
      <trkpt lat="45.9968515" lon="6.9863161"><ele>2571.1</ele></trkpt>
      <trkpt lat="45.9966861" lon="6.9866009"><ele>2574.4</ele></trkpt>
      <trkpt lat="45.9964357" lon="6.9867263"><ele>2576.2</ele></trkpt>
      <trkpt lat="45.9961815" lon="6.9868559"><ele>2577.6</ele></trkpt>
      <trkpt lat="45.9961762" lon="6.9868602"><ele>2579.3</ele></trkpt>
      <trkpt lat="45.9959388" lon="6.9870457"><ele>2579.7</ele></trkpt>
      <trkpt lat="45.9957019" lon="6.9872312"><ele>2574.6</ele></trkpt>
      <trkpt lat="45.9955146" lon="6.9873304"><ele>2572.3</ele></trkpt>
      <trkpt lat="45.9952778" lon="6.9874583"><ele>2571.4</ele></trkpt>
      <trkpt lat="45.9950740" lon="6.9874894"><ele>2570.7</ele></trkpt>
      <trkpt lat="45.9948058" lon="6.9874858"><ele>2571.4</ele></trkpt>
      <trkpt lat="45.9946587" lon="6.9874993"><ele>2573.1</ele></trkpt>
      <trkpt lat="45.9943890" lon="6.9875329"><ele>2574.6</ele></trkpt>
      <trkpt lat="45.9941800" lon="6.9876830"><ele>2575.2</ele></trkpt>
      <trkpt lat="45.9941457" lon="6.9876993"><ele>2576.8</ele></trkpt>
      <trkpt lat="45.9938882" lon="6.9878245"><ele>2579.0</ele></trkpt>
      <trkpt lat="45.9936335" lon="6.9879467"><ele>2581.3</ele></trkpt>
      <trkpt lat="45.9933767" lon="6.9880709"><ele>2583.3</ele></trkpt>
      <trkpt lat="45.9931187" lon="6.9881948"><ele>2585.5</ele></trkpt>
      <trkpt lat="45.9928615" lon="6.9883189"><ele>2587.7</ele></trkpt>
      <trkpt lat="45.9927237" lon="6.9883646"><ele>2589.9</ele></trkpt>
      <trkpt lat="45.9924608" lon="6.9884520"><ele>2591.8</ele></trkpt>
      <trkpt lat="45.9921979" lon="6.9885394"><ele>2593.7</ele></trkpt>
      <trkpt lat="45.9919570" lon="6.9886742"><ele>2595.5</ele></trkpt>
      <trkpt lat="45.9917055" lon="6.9888150"><ele>2597.0</ele></trkpt>
      <trkpt lat="45.9916011" lon="6.9887822"><ele>2598.2</ele></trkpt>
      <trkpt lat="45.9913380" lon="6.9887023"><ele>2599.1</ele></trkpt>
      <trkpt lat="45.9910712" lon="6.9886251"><ele>2599.7</ele></trkpt>
      <trkpt lat="45.9909079" lon="6.9886737"><ele>2600.5</ele></trkpt>
      <trkpt lat="45.9908427" lon="6.9886708"><ele>2601.4</ele></trkpt>
      <trkpt lat="45.9905725" lon="6.9886615"><ele>2602.3</ele></trkpt>
      <trkpt lat="45.9904793" lon="6.9886780"><ele>2603.2</ele></trkpt>
      <trkpt lat="45.9902106" lon="6.9887229"><ele>2604.2</ele></trkpt>
      <trkpt lat="45.9899425" lon="6.9887673"><ele>2605.4</ele></trkpt>
      <trkpt lat="45.9898787" lon="6.9887901"><ele>2607.1</ele></trkpt>
      <trkpt lat="45.9896169" lon="6.9888843"><ele>2609.4</ele></trkpt>
      <trkpt lat="45.9893551" lon="6.9889784"><ele>2611.9</ele></trkpt>
      <trkpt lat="45.9893158" lon="6.9890084"><ele>2615.1</ele></trkpt>
      <trkpt lat="45.9890784" lon="6.9891935"><ele>2619.0</ele></trkpt>
      <trkpt lat="45.9888426" lon="6.9893784"><ele>2623.7</ele></trkpt>
      <trkpt lat="45.9887473" lon="6.9893924"><ele>2629.3</ele></trkpt>
      <trkpt lat="45.9884762" lon="6.9894314"><ele>2635.6</ele></trkpt>
      <trkpt lat="45.9882024" lon="6.9894701"><ele>2642.7</ele></trkpt>
      <trkpt lat="45.9879354" lon="6.9895090"><ele>2650.0</ele></trkpt>
      <trkpt lat="45.9876605" lon="6.9895527"><ele>2657.0</ele></trkpt>
      <trkpt lat="45.9873932" lon="6.9895916"><ele>2664.7</ele></trkpt>
      <trkpt lat="45.9871237" lon="6.9896305"><ele>2671.9</ele></trkpt>
      <trkpt lat="45.9869299" lon="6.9898332"><ele>2679.3</ele></trkpt>
      <trkpt lat="45.9868740" lon="6.9898542"><ele>2686.9</ele></trkpt>
      <trkpt lat="45.9866094" lon="6.9899508"><ele>2694.3</ele></trkpt>
      <trkpt lat="45.9865126" lon="6.9900160"><ele>2700.9</ele></trkpt>
      <trkpt lat="45.9862693" lon="6.9901809"><ele>2707.2</ele></trkpt>
      <trkpt lat="45.9860292" lon="6.9903475"><ele>2713.1</ele></trkpt>
      <trkpt lat="45.9858405" lon="6.9902912"><ele>2719.5</ele></trkpt>
      <trkpt lat="45.9857500" lon="6.9903305"><ele>2725.7</ele></trkpt>
      <trkpt lat="45.9854927" lon="6.9904351"><ele>2731.7</ele></trkpt>
      <trkpt lat="45.9854478" lon="6.9904492"><ele>2736.7</ele></trkpt>
      <trkpt lat="45.9851962" lon="6.9905492"><ele>2740.7</ele></trkpt>
      <trkpt lat="45.9849345" lon="6.9906469"><ele>2744.0</ele></trkpt>
      <trkpt lat="45.9846985" lon="6.9905319"><ele>2747.1</ele></trkpt>
      <trkpt lat="45.9844453" lon="6.9904026"><ele>2750.7</ele></trkpt>
      <trkpt lat="45.9843612" lon="6.9903847"><ele>2754.2</ele></trkpt>
      <trkpt lat="45.9841000" lon="6.9903245"><ele>2757.9</ele></trkpt>
      <trkpt lat="45.9840913" lon="6.9903471"><ele>2761.7</ele></trkpt>
      <trkpt lat="45.9839611" lon="6.9906743"><ele>2766.1</ele></trkpt>
      <trkpt lat="45.9839057" lon="6.9907174"><ele>2771.4</ele></trkpt>
      <trkpt lat="45.9836618" lon="6.9909186"><ele>2777.6</ele></trkpt>
      <trkpt lat="45.9834265" lon="6.9911072"><ele>2784.8</ele></trkpt>
      <trkpt lat="45.9831881" lon="6.9912973"><ele>2794.8</ele></trkpt>
      <trkpt lat="45.9829519" lon="6.9914859"><ele>2802.9</ele></trkpt>
      <trkpt lat="45.9827151" lon="6.9916740"><ele>2811.4</ele></trkpt>
      <trkpt lat="45.9824763" lon="6.9918601"><ele>2819.8</ele></trkpt>
      <trkpt lat="45.9822437" lon="6.9920350"><ele>2828.2</ele></trkpt>
      <trkpt lat="45.9820044" lon="6.9922190"><ele>2836.8</ele></trkpt>
      <trkpt lat="45.9817708" lon="6.9924067"><ele>2845.8</ele></trkpt>
      <trkpt lat="45.9815354" lon="6.9925950"><ele>2854.2</ele></trkpt>
      <trkpt lat="45.9813054" lon="6.9927824"><ele>2862.1</ele></trkpt>
      <trkpt lat="45.9810694" lon="6.9929679"><ele>2868.3</ele></trkpt>
      <trkpt lat="45.9808324" lon="6.9931457"><ele>2875.9</ele></trkpt>
      <trkpt lat="45.9805920" lon="6.9933287"><ele>2883.8</ele></trkpt>
      <trkpt lat="45.9803514" lon="6.9935181"><ele>2891.7</ele></trkpt>
      <trkpt lat="45.9801166" lon="6.9937183"><ele>2899.8</ele></trkpt>
      <trkpt lat="45.9798816" lon="6.9939073"><ele>2908.2</ele></trkpt>
      <trkpt lat="45.9796443" lon="6.9940973"><ele>2915.7</ele></trkpt>
      <trkpt lat="45.9794090" lon="6.9942862"><ele>2923.6</ele></trkpt>
      <trkpt lat="45.9791685" lon="6.9944829"><ele>2931.3</ele></trkpt>
      <trkpt lat="45.9789413" lon="6.9946853"><ele>2938.8</ele></trkpt>
      <trkpt lat="45.9787102" lon="6.9948717"><ele>2946.7</ele></trkpt>
      <trkpt lat="45.9784880" lon="6.9950648"><ele>2954.6</ele></trkpt>
      <trkpt lat="45.9782532" lon="6.9952595"><ele>2962.6</ele></trkpt>
      <trkpt lat="45.9780177" lon="6.9954528"><ele>2970.3</ele></trkpt>
      <trkpt lat="45.9777831" lon="6.9956409"><ele>2977.4</ele></trkpt>
      <trkpt lat="45.9775471" lon="6.9958310"><ele>2985.1</ele></trkpt>
      <trkpt lat="45.9773123" lon="6.9960173"><ele>2993.0</ele></trkpt>
      <trkpt lat="45.9770777" lon="6.9962035"><ele>3001.0</ele></trkpt>
      <trkpt lat="45.9768352" lon="6.9964008"><ele>3009.1</ele></trkpt>
      <trkpt lat="45.9765983" lon="6.9965928"><ele>3017.2</ele></trkpt>
      <trkpt lat="45.9763644" lon="6.9967813"><ele>3025.4</ele></trkpt>
      <trkpt lat="45.9761315" lon="6.9969684"><ele>3033.6</ele></trkpt>
      <trkpt lat="45.9758929" lon="6.9971595"><ele>3041.8</ele></trkpt>
      <trkpt lat="45.9756603" lon="6.9973464"><ele>3049.9</ele></trkpt>
      <trkpt lat="45.9754250" lon="6.9975347"><ele>3058.1</ele></trkpt>
      <trkpt lat="45.9751921" lon="6.9977202"><ele>3066.6</ele></trkpt>
      <trkpt lat="45.9749576" lon="6.9979075"><ele>3075.2</ele></trkpt>
      <trkpt lat="45.9747164" lon="6.9980862"><ele>3083.8</ele></trkpt>
      <trkpt lat="45.9744740" lon="6.9982885"><ele>3092.5</ele></trkpt>
      <trkpt lat="45.9742148" lon="6.9985086"><ele>3101.3</ele></trkpt>
      <trkpt lat="45.9739742" lon="6.9986996"><ele>3110.2</ele></trkpt>
      <trkpt lat="45.9737413" lon="6.9988897"><ele>3119.3</ele></trkpt>
      <trkpt lat="45.9735010" lon="6.9990796"><ele>3128.6</ele></trkpt>
      <trkpt lat="45.9732697" lon="6.9992699"><ele>3137.9</ele></trkpt>
      <trkpt lat="45.9730387" lon="6.9994593"><ele>3147.3</ele></trkpt>
      <trkpt lat="45.9728053" lon="6.9996468"><ele>3156.9</ele></trkpt>
      <trkpt lat="45.9725698" lon="6.9998326"><ele>3166.3</ele></trkpt>
      <trkpt lat="45.9723430" lon="7.0000205"><ele>3176.1</ele></trkpt>
      <trkpt lat="45.9721102" lon="7.0002037"><ele>3185.1</ele></trkpt>
      <trkpt lat="45.9718826" lon="7.0003835"><ele>3194.6</ele></trkpt>
      <trkpt lat="45.9716572" lon="7.0005637"><ele>3202.4</ele></trkpt>
      <trkpt lat="45.9714283" lon="7.0007445"><ele>3211.1</ele></trkpt>
      <trkpt lat="45.9714435" lon="7.0007471"><ele>3219.3</ele></trkpt>
      <trkpt lat="45.9716129" lon="7.0008962"><ele>3226.7</ele></trkpt>
      <trkpt lat="45.9717374" lon="7.0009863"><ele>3236.0</ele></trkpt>
      <trkpt lat="45.9719842" lon="7.0011302"><ele>3246.0</ele></trkpt>
      <trkpt lat="45.9722140" lon="7.0010471"><ele>3255.5</ele></trkpt>
      <trkpt lat="45.9720485" lon="7.0012292"><ele>3272.4</ele></trkpt>
      <trkpt lat="45.9719282" lon="7.0015064"><ele>3290.9</ele></trkpt>
      <trkpt lat="45.9718473" lon="7.0017518"><ele>3310.7</ele></trkpt>
      <trkpt lat="45.9718252" lon="7.0017662"><ele>3333.1</ele></trkpt>
      <trkpt lat="45.9716062" lon="7.0019297"><ele>3355.5</ele></trkpt>
      <trkpt lat="45.9713617" lon="7.0020840"><ele>3378.9</ele></trkpt>
      <trkpt lat="45.9712674" lon="7.0021220"><ele>3402.2</ele></trkpt>
      <trkpt lat="45.9710340" lon="7.0022631"><ele>3424.3</ele></trkpt>
      <trkpt lat="45.9707893" lon="7.0023847"><ele>3452.9</ele></trkpt>
      <trkpt lat="45.9706663" lon="7.0023453"><ele>3477.4</ele></trkpt>
      <trkpt lat="45.9704098" lon="7.0022805"><ele>3499.5</ele></trkpt>
      <trkpt lat="45.9703968" lon="7.0022713"><ele>3525.9</ele></trkpt>
      <trkpt lat="45.9702216" lon="7.0020106"><ele>3553.5</ele></trkpt>
      <trkpt lat="45.9700347" lon="7.0017560"><ele>3580.3</ele></trkpt>
      <trkpt lat="45.9698238" lon="7.0015682"><ele>3605.9</ele></trkpt>
      <trkpt lat="45.9695599" lon="7.0015998"><ele>3633.4</ele></trkpt>
      <trkpt lat="45.9692851" lon="7.0016178"><ele>3660.3</ele></trkpt>
      <trkpt lat="45.9691267" lon="7.0013737"><ele>3673.0</ele></trkpt>
      <trkpt lat="45.9691144" lon="7.0013676"><ele>3684.7</ele></trkpt>
      <trkpt lat="45.9688973" lon="7.0014829"><ele>3699.3</ele></trkpt>
      <trkpt lat="45.9689409" lon="7.0011634"><ele>3710.6</ele></trkpt>
    </trkseg>
  </trk>
</gpx>