<?xml version="1.0" encoding="UTF-8"?>
<gpx version="1.1" creator="AlpHD" xmlns="http://www.topografix.com/GPX/1/1">
  <trk>
    <name>Aiguille du Midi — Éperon Frendo</name>
    <trkseg>
      <trkpt lat="45.899837" lon="6.888495"><ele>2355.6</ele></trkpt>
      <trkpt lat="45.899540" lon="6.888382"><ele>2351.6</ele></trkpt>
      <trkpt lat="45.899270" lon="6.888357"><ele>2347.0</ele></trkpt>
      <trkpt lat="45.898670" lon="6.888317"><ele>2354.0</ele></trkpt>
      <trkpt lat="45.898337" lon="6.888502"><ele>2356.0</ele></trkpt>
      <trkpt lat="45.897955" lon="6.888885"><ele>2358.4</ele></trkpt>
      <trkpt lat="45.897562" lon="6.889140"><ele>2358.6</ele></trkpt>
      <trkpt lat="45.897232" lon="6.889125"><ele>2364.0</ele></trkpt>
      <trkpt lat="45.896782" lon="6.889365"><ele>2368.8</ele></trkpt>
      <trkpt lat="45.896575" lon="6.889397"><ele>2369.2</ele></trkpt>
      <trkpt lat="45.896365" lon="6.889382"><ele>2369.8</ele></trkpt>
      <trkpt lat="45.896062" lon="6.889170"><ele>2373.4</ele></trkpt>
      <trkpt lat="45.895855" lon="6.888912"><ele>2375.8</ele></trkpt>
      <trkpt lat="45.895547" lon="6.888532"><ele>2378.8</ele></trkpt>
      <trkpt lat="45.895212" lon="6.888897"><ele>2389.8</ele></trkpt>
      <trkpt lat="45.894600" lon="6.889762"><ele>2405.0</ele></trkpt>
      <trkpt lat="45.894315" lon="6.890307"><ele>2418.2</ele></trkpt>
      <trkpt lat="45.893937" lon="6.891332"><ele>2439.0</ele></trkpt>
      <trkpt lat="45.893792" lon="6.891892"><ele>2453.2</ele></trkpt>
      <trkpt lat="45.893695" lon="6.892317"><ele>2466.2</ele></trkpt>
      <trkpt lat="45.893677" lon="6.892610"><ele>2485.0</ele></trkpt>
      <trkpt lat="45.893515" lon="6.893495"><ele>2518.2</ele></trkpt>
      <trkpt lat="45.893585" lon="6.893837"><ele>2522.6</ele></trkpt>
      <trkpt lat="45.893592" lon="6.894103"><ele>2543.4</ele></trkpt>
      <trkpt lat="45.893727" lon="6.894382"><ele>2545.8</ele></trkpt>
      <trkpt lat="45.893352" lon="6.894560"><ele>2551.8</ele></trkpt>
      <trkpt lat="45.892997" lon="6.895195"><ele>2558.6</ele></trkpt>
      <trkpt lat="45.892307" lon="6.895737"><ele>2567.4</ele></trkpt>
      <trkpt lat="45.891817" lon="6.895437"><ele>2575.8</ele></trkpt>
      <trkpt lat="45.891302" lon="6.895242"><ele>2588.8</ele></trkpt>
      <trkpt lat="45.890622" lon="6.895290"><ele>2606.0</ele></trkpt>
      <trkpt lat="45.890132" lon="6.895065"><ele>2614.2</ele></trkpt>
      <trkpt lat="45.889827" lon="6.895187"><ele>2624.8</ele></trkpt>
      <trkpt lat="45.889540" lon="6.895107"><ele>2630.8</ele></trkpt>
      <trkpt lat="45.889022" lon="6.895382"><ele>2651.6</ele></trkpt>
      <trkpt lat="45.888782" lon="6.895317"><ele>2652.2</ele></trkpt>
      <trkpt lat="45.888467" lon="6.894987"><ele>2645.6</ele></trkpt>
      <trkpt lat="45.888397" lon="6.894712"><ele>2636.4</ele></trkpt>
      <trkpt lat="45.888102" lon="6.894115"><ele>2627.2</ele></trkpt>
      <trkpt lat="45.887972" lon="6.893512"><ele>2633.6</ele></trkpt>
      <trkpt lat="45.887957" lon="6.893217"><ele>2624.0</ele></trkpt>
      <trkpt lat="45.888020" lon="6.892957"><ele>2607.8</ele></trkpt>
      <trkpt lat="45.887960" lon="6.892527"><ele>2594.4</ele></trkpt>
      <trkpt lat="45.887892" lon="6.891700"><ele>2608.0</ele></trkpt>
      <trkpt lat="45.887597" lon="6.891147"><ele>2625.2</ele></trkpt>
      <trkpt lat="45.887282" lon="6.890822"><ele>2633.8</ele></trkpt>
      <trkpt lat="45.887260" lon="6.890467"><ele>2639.4</ele></trkpt>
      <trkpt lat="45.887077" lon="6.890167"><ele>2674.2</ele></trkpt>
      <trkpt lat="45.887005" lon="6.889920"><ele>2677.8</ele></trkpt>
      <trkpt lat="45.886985" lon="6.889525"><ele>2703.6</ele></trkpt>
      <trkpt lat="45.886750" lon="6.889367"><ele>2733.6</ele></trkpt>
      <trkpt lat="45.886632" lon="6.889657"><ele>2763.8</ele></trkpt>
      <trkpt lat="45.886302" lon="6.889847"><ele>2808.6</ele></trkpt>
      <trkpt lat="45.886010" lon="6.889350"><ele>2884.8</ele></trkpt>
      <trkpt lat="45.885832" lon="6.889667"><ele>2936.2</ele></trkpt>
      <trkpt lat="45.885642" lon="6.889742"><ele>2945.8</ele></trkpt>
      <trkpt lat="45.885362" lon="6.889697"><ele>2969.8</ele></trkpt>
      <trkpt lat="45.885300" lon="6.889977"><ele>3005.2</ele></trkpt>
      <trkpt lat="45.884962" lon="6.890323"><ele>3056.6</ele></trkpt>
      <trkpt lat="45.884542" lon="6.890402"><ele>3101.2</ele></trkpt>
      <trkpt lat="45.884162" lon="6.890640"><ele>3181.0</ele></trkpt>
      <trkpt lat="45.883968" lon="6.890692"><ele>3193.8</ele></trkpt>
      <trkpt lat="45.883607" lon="6.890677"><ele>3256.4</ele></trkpt>
      <trkpt lat="45.883485" lon="6.890417"><ele>3297.6</ele></trkpt>
      <trkpt lat="45.883152" lon="6.890037"><ele>3317.2</ele></trkpt>
      <trkpt lat="45.882815" lon="6.889645"><ele>3353.4</ele></trkpt>
      <trkpt lat="45.881537" lon="6.889790"><ele>3473.0</ele></trkpt>
      <trkpt lat="45.881287" lon="6.890152"><ele>3499.0</ele></trkpt>
      <trkpt lat="45.881115" lon="6.890300"><ele>3537.6</ele></trkpt>
      <trkpt lat="45.880400" lon="6.890647"><ele>3617.2</ele></trkpt>
      <trkpt lat="45.880232" lon="6.890255"><ele>3657.8</ele></trkpt>
      <trkpt lat="45.879920" lon="6.889587"><ele>3695.6</ele></trkpt>
      <trkpt lat="45.879727" lon="6.889232"><ele>3704.0</ele></trkpt>
      <trkpt lat="45.879302" lon="6.888687"><ele>3733.0</ele></trkpt>
      <trkpt lat="45.879145" lon="6.888530"><ele>3737.4</ele></trkpt>
      <trkpt lat="45.878897" lon="6.887855"><ele>3769.6</ele></trkpt>
    </trkseg>
  </trk>
</gpx>