<?xml version="1.0" encoding="UTF-8"?>
<gpx version="1.1" creator="AlpHD" xmlns="http://www.topografix.com/GPX/1/1">
  <trk>
    <name>Grandes Jorasses — Éperon Walker</name>
    <trkseg>
      <trkpt lat="45.926807" lon="6.921809"><ele>1789.9</ele></trkpt>
      <trkpt lat="45.926452" lon="6.921823"><ele>1791.6</ele></trkpt>
      <trkpt lat="45.926245" lon="6.921997"><ele>1796.9</ele></trkpt>
      <trkpt lat="45.925899" lon="6.921942"><ele>1803.6</ele></trkpt>
      <trkpt lat="45.925735" lon="6.921726"><ele>1806.7</ele></trkpt>
      <trkpt lat="45.925566" lon="6.921578"><ele>1809.8</ele></trkpt>
      <trkpt lat="45.925101" lon="6.921768"><ele>1815.9</ele></trkpt>
      <trkpt lat="45.924872" lon="6.921786"><ele>1817.9</ele></trkpt>
      <trkpt lat="45.924654" lon="6.921808"><ele>1819.7</ele></trkpt>
      <trkpt lat="45.924348" lon="6.921843"><ele>1825.9</ele></trkpt>
      <trkpt lat="45.924135" lon="6.922214"><ele>1826.8</ele></trkpt>
      <trkpt lat="45.924031" lon="6.922553"><ele>1829.2</ele></trkpt>
      <trkpt lat="45.923709" lon="6.922770"><ele>1832.2</ele></trkpt>
      <trkpt lat="45.923575" lon="6.923014"><ele>1833.9</ele></trkpt>
      <trkpt lat="45.923383" lon="6.922980"><ele>1835.9</ele></trkpt>
      <trkpt lat="45.923144" lon="6.923113"><ele>1840.9</ele></trkpt>
      <trkpt lat="45.922979" lon="6.923302"><ele>1843.6</ele></trkpt>
      <trkpt lat="45.922934" lon="6.923564"><ele>1844.2</ele></trkpt>
      <trkpt lat="45.922540" lon="6.924011"><ele>1849.1</ele></trkpt>
      <trkpt lat="45.922103" lon="6.924250"><ele>1857.7</ele></trkpt>
      <trkpt lat="45.921720" lon="6.925014"><ele>1870.0</ele></trkpt>
      <trkpt lat="45.921444" lon="6.925256"><ele>1875.7</ele></trkpt>
      <trkpt lat="45.921280" lon="6.925675"><ele>1880.8</ele></trkpt>
      <trkpt lat="45.920673" lon="6.926419"><ele>1890.0</ele></trkpt>
      <trkpt lat="45.920422" lon="6.926890"><ele>1893.9</ele></trkpt>
      <trkpt lat="45.920466" lon="6.927180"><ele>1895.1</ele></trkpt>
      <trkpt lat="45.920316" lon="6.927709"><ele>1897.8</ele></trkpt>
      <trkpt lat="45.919558" lon="6.929530"><ele>1916.1</ele></trkpt>
      <trkpt lat="45.919493" lon="6.929789"><ele>1919.1</ele></trkpt>
      <trkpt lat="45.918736" lon="6.930035"><ele>1922.7</ele></trkpt>
      <trkpt lat="45.918495" lon="6.930304"><ele>1924.6</ele></trkpt>
      <trkpt lat="45.918085" lon="6.931042"><ele>1931.9</ele></trkpt>
      <trkpt lat="45.918048" lon="6.931305"><ele>1934.5</ele></trkpt>
      <trkpt lat="45.917770" lon="6.931525"><ele>1936.2</ele></trkpt>
      <trkpt lat="45.917465" lon="6.931985"><ele>1939.0</ele></trkpt>
      <trkpt lat="45.917421" lon="6.932427"><ele>1943.3</ele></trkpt>
      <trkpt lat="45.917300" lon="6.932820"><ele>1946.6</ele></trkpt>
      <trkpt lat="45.917162" lon="6.933013"><ele>1947.9</ele></trkpt>
      <trkpt lat="45.917056" lon="6.933311"><ele>1950.0</ele></trkpt>
      <trkpt lat="45.916803" lon="6.933654"><ele>1952.7</ele></trkpt>
      <trkpt lat="45.916681" lon="6.933957"><ele>1954.7</ele></trkpt>
      <trkpt lat="45.916171" lon="6.934365"><ele>1957.1</ele></trkpt>
      <trkpt lat="45.915570" lon="6.935119"><ele>1966.4</ele></trkpt>
      <trkpt lat="45.914987" lon="6.935712"><ele>1977.7</ele></trkpt>
      <trkpt lat="45.914695" lon="6.936102"><ele>1983.3</ele></trkpt>
      <trkpt lat="45.914164" lon="6.936400"><ele>1993.0</ele></trkpt>
      <trkpt lat="45.913994" lon="6.936573"><ele>1995.4</ele></trkpt>
      <trkpt lat="45.913323" lon="6.936858"><ele>1999.8</ele></trkpt>
      <trkpt lat="45.912944" lon="6.936867"><ele>2003.5</ele></trkpt>
      <trkpt lat="45.912212" lon="6.937022"><ele>2009.6</ele></trkpt>
      <trkpt lat="45.911959" lon="6.937191"><ele>2011.3</ele></trkpt>
      <trkpt lat="45.911557" lon="6.937287"><ele>2014.3</ele></trkpt>
      <trkpt lat="45.911346" lon="6.937576"><ele>2016.6</ele></trkpt>
      <trkpt lat="45.910982" lon="6.937657"><ele>2021.8</ele></trkpt>
      <trkpt lat="45.910454" lon="6.937844"><ele>2029.2</ele></trkpt>
      <trkpt lat="45.909741" lon="6.937909"><ele>2035.8</ele></trkpt>
      <trkpt lat="45.909579" lon="6.938601"><ele>2040.1</ele></trkpt>
      <trkpt lat="45.908958" lon="6.939840"><ele>2041.9</ele></trkpt>
      <trkpt lat="45.908923" lon="6.940152"><ele>2041.1</ele></trkpt>
      <trkpt lat="45.908701" lon="6.940775"><ele>2039.5</ele></trkpt>
      <trkpt lat="45.908541" lon="6.941027"><ele>2039.4</ele></trkpt>
      <trkpt lat="45.908302" lon="6.941256"><ele>2040.1</ele></trkpt>
      <trkpt lat="45.908025" lon="6.941781"><ele>2042.1</ele></trkpt>
      <trkpt lat="45.907744" lon="6.942007"><ele>2047.1</ele></trkpt>
      <trkpt lat="45.907545" lon="6.942405"><ele>2051.5</ele></trkpt>
      <trkpt lat="45.907303" lon="6.942603"><ele>2055.9</ele></trkpt>
      <trkpt lat="45.907120" lon="6.942647"><ele>2059.0</ele></trkpt>
      <trkpt lat="45.906785" lon="6.942956"><ele>2064.7</ele></trkpt>
      <trkpt lat="45.906162" lon="6.943256"><ele>2072.8</ele></trkpt>
      <trkpt lat="45.905886" lon="6.943785"><ele>2080.1</ele></trkpt>
      <trkpt lat="45.905636" lon="6.944104"><ele>2087.6</ele></trkpt>
      <trkpt lat="45.905377" lon="6.944452"><ele>2093.2</ele></trkpt>
      <trkpt lat="45.904901" lon="6.944836"><ele>2097.4</ele></trkpt>
      <trkpt lat="45.904620" lon="6.944726"><ele>2098.2</ele></trkpt>
      <trkpt lat="45.904380" lon="6.944839"><ele>2100.6</ele></trkpt>
      <trkpt lat="45.904253" lon="6.945125"><ele>2105.0</ele></trkpt>
      <trkpt lat="45.903996" lon="6.945271"><ele>2109.7</ele></trkpt>
      <trkpt lat="45.903861" lon="6.945463"><ele>2113.2</ele></trkpt>
      <trkpt lat="45.903598" lon="6.945851"><ele>2116.3</ele></trkpt>
      <trkpt lat="45.903503" lon="6.946189"><ele>2115.4</ele></trkpt>
      <trkpt lat="45.903439" lon="6.946816"><ele>2111.1</ele></trkpt>
      <trkpt lat="45.903266" lon="6.947471"><ele>2108.8</ele></trkpt>
      <trkpt lat="45.903313" lon="6.948137"><ele>2106.1</ele></trkpt>
      <trkpt lat="45.902951" lon="6.948401"><ele>2107.6</ele></trkpt>
      <trkpt lat="45.902839" lon="6.948636"><ele>2107.3</ele></trkpt>
      <trkpt lat="45.902844" lon="6.948944"><ele>2107.8</ele></trkpt>
      <trkpt lat="45.902738" lon="6.949171"><ele>2109.1</ele></trkpt>
      <trkpt lat="45.902482" lon="6.949447"><ele>2111.2</ele></trkpt>
      <trkpt lat="45.902296" lon="6.949925"><ele>2113.7</ele></trkpt>
      <trkpt lat="45.902334" lon="6.950306"><ele>2115.9</ele></trkpt>
      <trkpt lat="45.902341" lon="6.950620"><ele>2118.0</ele></trkpt>
      <trkpt lat="45.902049" lon="6.951191"><ele>2121.5</ele></trkpt>
      <trkpt lat="45.901734" lon="6.952178"><ele>2130.8</ele></trkpt>
      <trkpt lat="45.901559" lon="6.952970"><ele>2138.8</ele></trkpt>
      <trkpt lat="45.901201" lon="6.953596"><ele>2147.2</ele></trkpt>
      <trkpt lat="45.901264" lon="6.954425"><ele>2154.1</ele></trkpt>
      <trkpt lat="45.901199" lon="6.954950"><ele>2155.2</ele></trkpt>
      <trkpt lat="45.901004" lon="6.955463"><ele>2156.2</ele></trkpt>
      <trkpt lat="45.900892" lon="6.956334"><ele>2162.7</ele></trkpt>
      <trkpt lat="45.900333" lon="6.956923"><ele>2170.0</ele></trkpt>
      <trkpt lat="45.900172" lon="6.958077"><ele>2182.2</ele></trkpt>
      <trkpt lat="45.900122" lon="6.959068"><ele>2191.6</ele></trkpt>
      <trkpt lat="45.900043" lon="6.959353"><ele>2193.9</ele></trkpt>
      <trkpt lat="45.900104" lon="6.959704"><ele>2195.3</ele></trkpt>
      <trkpt lat="45.900058" lon="6.960577"><ele>2198.4</ele></trkpt>
      <trkpt lat="45.899829" lon="6.961077"><ele>2202.9</ele></trkpt>
      <trkpt lat="45.900005" lon="6.961169"><ele>2202.0</ele></trkpt>
      <trkpt lat="45.900183" lon="6.961375"><ele>2202.0</ele></trkpt>
      <trkpt lat="45.899743" lon="6.962253"><ele>2208.0</ele></trkpt>
      <trkpt lat="45.899354" lon="6.962882"><ele>2212.2</ele></trkpt>
      <trkpt lat="45.899191" lon="6.963114"><ele>2214.0</ele></trkpt>
      <trkpt lat="45.898688" lon="6.963571"><ele>2220.2</ele></trkpt>
      <trkpt lat="45.898367" lon="6.964165"><ele>2225.4</ele></trkpt>
      <trkpt lat="45.898100" lon="6.964973"><ele>2231.4</ele></trkpt>
      <trkpt lat="45.897953" lon="6.965245"><ele>2234.0</ele></trkpt>
      <trkpt lat="45.897811" lon="6.966203"><ele>2240.5</ele></trkpt>
      <trkpt lat="45.897093" lon="6.968830"><ele>2254.0</ele></trkpt>
      <trkpt lat="45.896587" lon="6.969656"><ele>2258.4</ele></trkpt>
      <trkpt lat="45.896459" lon="6.970093"><ele>2260.5</ele></trkpt>
      <trkpt lat="45.896048" lon="6.970721"><ele>2271.1</ele></trkpt>
      <trkpt lat="45.895632" lon="6.971796"><ele>2282.0</ele></trkpt>
      <trkpt lat="45.895399" lon="6.972204"><ele>2286.7</ele></trkpt>
      <trkpt lat="45.895358" lon="6.972477"><ele>2289.6</ele></trkpt>
      <trkpt lat="45.895131" lon="6.973019"><ele>2295.9</ele></trkpt>
      <trkpt lat="45.894886" lon="6.974357"><ele>2306.6</ele></trkpt>
      <trkpt lat="45.894802" lon="6.974587"><ele>2309.0</ele></trkpt>
      <trkpt lat="45.894476" lon="6.974788"><ele>2313.6</ele></trkpt>
      <trkpt lat="45.894341" lon="6.975002"><ele>2315.3</ele></trkpt>
      <trkpt lat="45.893963" lon="6.975335"><ele>2321.8</ele></trkpt>
      <trkpt lat="45.893688" lon="6.975781"><ele>2326.5</ele></trkpt>
      <trkpt lat="45.893601" lon="6.976225"><ele>2330.6</ele></trkpt>
      <trkpt lat="45.893543" lon="6.976787"><ele>2335.3</ele></trkpt>
      <trkpt lat="45.893621" lon="6.977461"><ele>2338.8</ele></trkpt>
      <trkpt lat="45.893726" lon="6.977862"><ele>2338.8</ele></trkpt>
      <trkpt lat="45.893748" lon="6.978169"><ele>2339.4</ele></trkpt>
      <trkpt lat="45.893759" lon="6.978613"><ele>2340.2</ele></trkpt>
      <trkpt lat="45.893936" lon="6.979023"><ele>2337.9</ele></trkpt>
      <trkpt lat="45.893951" lon="6.979526"><ele>2343.0</ele></trkpt>
      <trkpt lat="45.894074" lon="6.979811"><ele>2349.2</ele></trkpt>
      <trkpt lat="45.894220" lon="6.980166"><ele>2361.5</ele></trkpt>
      <trkpt lat="45.894140" lon="6.980474"><ele>2372.3</ele></trkpt>
      <trkpt lat="45.894445" lon="6.980573"><ele>2392.0</ele></trkpt>
      <trkpt lat="45.894500" lon="6.980825"><ele>2412.0</ele></trkpt>
      <trkpt lat="45.894909" lon="6.980975"><ele>2438.4</ele></trkpt>
      <trkpt lat="45.894745" lon="6.981088"><ele>2440.6</ele></trkpt>
      <trkpt lat="45.894544" lon="6.980993"><ele>2421.5</ele></trkpt>
      <trkpt lat="45.894390" lon="6.980791"><ele>2402.3</ele></trkpt>
      <trkpt lat="45.894295" lon="6.980471"><ele>2377.6</ele></trkpt>
      <trkpt lat="45.894124" lon="6.980359"><ele>2367.9</ele></trkpt>
      <trkpt lat="45.894054" lon="6.979956"><ele>2352.4</ele></trkpt>
      <trkpt lat="45.893882" lon="6.979197"><ele>2340.1</ele></trkpt>
      <trkpt lat="45.893783" lon="6.978932"><ele>2340.2</ele></trkpt>
      <trkpt lat="45.893562" lon="6.978414"><ele>2344.7</ele></trkpt>
      <trkpt lat="45.892955" lon="6.978075"><ele>2350.2</ele></trkpt>
      <trkpt lat="45.892611" lon="6.978170"><ele>2353.8</ele></trkpt>
      <trkpt lat="45.892103" lon="6.978265"><ele>2358.1</ele></trkpt>
      <trkpt lat="45.891824" lon="6.978551"><ele>2363.3</ele></trkpt>
      <trkpt lat="45.891186" lon="6.979306"><ele>2374.8</ele></trkpt>
      <trkpt lat="45.891004" lon="6.979332"><ele>2377.3</ele></trkpt>
      <trkpt lat="45.890678" lon="6.979581"><ele>2384.4</ele></trkpt>
      <trkpt lat="45.890381" lon="6.979294"><ele>2388.7</ele></trkpt>
      <trkpt lat="45.890137" lon="6.979623"><ele>2395.7</ele></trkpt>
      <trkpt lat="45.889960" lon="6.979818"><ele>2401.6</ele></trkpt>
      <trkpt lat="45.889699" lon="6.980072"><ele>2407.8</ele></trkpt>
      <trkpt lat="45.889490" lon="6.980455"><ele>2412.7</ele></trkpt>
      <trkpt lat="45.889297" lon="6.980636"><ele>2415.4</ele></trkpt>
      <trkpt lat="45.888829" lon="6.981214"><ele>2421.7</ele></trkpt>
      <trkpt lat="45.888692" lon="6.981428"><ele>2425.9</ele></trkpt>
      <trkpt lat="45.888401" lon="6.981824"><ele>2437.7</ele></trkpt>
      <trkpt lat="45.887925" lon="6.982112"><ele>2456.5</ele></trkpt>
      <trkpt lat="45.887714" lon="6.982401"><ele>2464.4</ele></trkpt>
      <trkpt lat="45.887544" lon="6.982568"><ele>2471.6</ele></trkpt>
      <trkpt lat="45.887553" lon="6.983006"><ele>2474.4</ele></trkpt>
      <trkpt lat="45.887417" lon="6.983238"><ele>2478.5</ele></trkpt>
      <trkpt lat="45.887196" lon="6.983186"><ele>2483.7</ele></trkpt>
      <trkpt lat="45.886994" lon="6.983316"><ele>2488.1</ele></trkpt>
      <trkpt lat="45.886656" lon="6.983284"><ele>2496.6</ele></trkpt>
      <trkpt lat="45.885839" lon="6.983137"><ele>2517.5</ele></trkpt>
      <trkpt lat="45.885210" lon="6.983062"><ele>2533.3</ele></trkpt>
      <trkpt lat="45.885038" lon="6.982947"><ele>2540.8</ele></trkpt>
      <trkpt lat="45.884748" lon="6.982604"><ele>2557.7</ele></trkpt>
      <trkpt lat="45.884655" lon="6.982312"><ele>2565.3</ele></trkpt>
      <trkpt lat="45.884397" lon="6.982157"><ele>2574.8</ele></trkpt>
      <trkpt lat="45.884182" lon="6.981902"><ele>2585.9</ele></trkpt>
      <trkpt lat="45.883972" lon="6.981360"><ele>2600.2</ele></trkpt>
      <trkpt lat="45.883801" lon="6.980960"><ele>2609.6</ele></trkpt>
      <trkpt lat="45.883537" lon="6.980754"><ele>2617.0</ele></trkpt>
      <trkpt lat="45.883268" lon="6.980230"><ele>2629.7</ele></trkpt>
      <trkpt lat="45.883053" lon="6.980051"><ele>2636.5</ele></trkpt>
      <trkpt lat="45.882078" lon="6.979933"><ele>2654.1</ele></trkpt>
      <trkpt lat="45.881704" lon="6.979769"><ele>2668.5</ele></trkpt>
      <trkpt lat="45.881526" lon="6.979613"><ele>2677.6</ele></trkpt>
      <trkpt lat="45.881137" lon="6.979517"><ele>2691.6</ele></trkpt>
      <trkpt lat="45.880945" lon="6.979505"><ele>2697.8</ele></trkpt>
      <trkpt lat="45.880752" lon="6.979410"><ele>2705.2</ele></trkpt>
      <trkpt lat="45.880377" lon="6.979440"><ele>2718.5</ele></trkpt>
      <trkpt lat="45.879924" lon="6.979725"><ele>2732.4</ele></trkpt>
      <trkpt lat="45.879707" lon="6.980234"><ele>2732.8</ele></trkpt>
      <trkpt lat="45.879226" lon="6.980423"><ele>2748.8</ele></trkpt>
      <trkpt lat="45.878915" lon="6.980756"><ele>2759.6</ele></trkpt>
      <trkpt lat="45.878734" lon="6.980914"><ele>2767.0</ele></trkpt>
      <trkpt lat="45.878914" lon="6.982022"><ele>2752.9</ele></trkpt>
      <trkpt lat="45.878695" lon="6.981966"><ele>2762.7</ele></trkpt>
      <trkpt lat="45.878552" lon="6.982183"><ele>2770.3</ele></trkpt>
      <trkpt lat="45.878339" lon="6.981936"><ele>2779.0</ele></trkpt>
      <trkpt lat="45.878139" lon="6.982012"><ele>2787.3</ele></trkpt>
      <trkpt lat="45.878178" lon="6.981063"><ele>2795.2</ele></trkpt>
      <trkpt lat="45.877983" lon="6.981226"><ele>2801.5</ele></trkpt>
      <trkpt lat="45.877607" lon="6.981855"><ele>2812.0</ele></trkpt>
      <trkpt lat="45.877425" lon="6.981966"><ele>2820.7</ele></trkpt>
      <trkpt lat="45.877214" lon="6.981902"><ele>2832.0</ele></trkpt>
      <trkpt lat="45.876993" lon="6.982483"><ele>2837.1</ele></trkpt>
      <trkpt lat="45.876712" lon="6.982484"><ele>2851.6</ele></trkpt>
      <trkpt lat="45.876558" lon="6.983378"><ele>2860.6</ele></trkpt>
      <trkpt lat="45.876468" lon="6.983689"><ele>2867.4</ele></trkpt>
      <trkpt lat="45.876282" lon="6.983601"><ele>2881.6</ele></trkpt>
      <trkpt lat="45.875966" lon="6.983471"><ele>2901.9</ele></trkpt>
      <trkpt lat="45.875784" lon="6.983532"><ele>2919.7</ele></trkpt>
      <trkpt lat="45.875496" lon="6.983595"><ele>2951.1</ele></trkpt>
      <trkpt lat="45.875171" lon="6.983715"><ele>2993.8</ele></trkpt>
      <trkpt lat="45.874988" lon="6.983272"><ele>3004.0</ele></trkpt>
      <trkpt lat="45.874802" lon="6.983232"><ele>3026.8</ele></trkpt>
      <trkpt lat="45.875000" lon="6.983268"><ele>3003.2</ele></trkpt>
      <trkpt lat="45.875081" lon="6.983565"><ele>2999.4</ele></trkpt>
      <trkpt lat="45.874820" lon="6.983826"><ele>3038.2</ele></trkpt>
      <trkpt lat="45.874629" lon="6.983837"><ele>3063.4</ele></trkpt>
      <trkpt lat="45.874442" lon="6.983650"><ele>3089.9</ele></trkpt>
      <trkpt lat="45.874283" lon="6.983828"><ele>3110.1</ele></trkpt>
      <trkpt lat="45.874225" lon="6.984163"><ele>3115.1</ele></trkpt>
      <trkpt lat="45.874018" lon="6.984139"><ele>3147.0</ele></trkpt>
      <trkpt lat="45.873864" lon="6.984396"><ele>3168.8</ele></trkpt>
      <trkpt lat="45.873660" lon="6.984391"><ele>3204.6</ele></trkpt>
      <trkpt lat="45.873512" lon="6.984598"><ele>3232.1</ele></trkpt>
      <trkpt lat="45.873396" lon="6.985091"><ele>3257.7</ele></trkpt>
      <trkpt lat="45.873108" lon="6.985251"><ele>3306.7</ele></trkpt>
      <trkpt lat="45.873049" lon="6.985496"><ele>3319.1</ele></trkpt>
      <trkpt lat="45.872832" lon="6.985592"><ele>3356.9</ele></trkpt>
      <trkpt lat="45.872663" lon="6.985790"><ele>3392.6</ele></trkpt>
      <trkpt lat="45.872473" lon="6.985900"><ele>3427.3</ele></trkpt>
      <trkpt lat="45.872363" lon="6.985621"><ele>3451.9</ele></trkpt>
      <trkpt lat="45.872376" lon="6.985338"><ele>3451.9</ele></trkpt>
      <trkpt lat="45.872310" lon="6.985013"><ele>3462.3</ele></trkpt>
      <trkpt lat="45.872103" lon="6.984972"><ele>3507.7</ele></trkpt>
      <trkpt lat="45.871911" lon="6.985006"><ele>3546.2</ele></trkpt>
      <trkpt lat="45.871637" lon="6.985292"><ele>3601.7</ele></trkpt>
      <trkpt lat="45.871476" lon="6.985174"><ele>3636.7</ele></trkpt>
      <trkpt lat="45.871354" lon="6.984939"><ele>3661.6</ele></trkpt>
      <trkpt lat="45.871178" lon="6.984846"><ele>3695.1</ele></trkpt>
      <trkpt lat="45.871024" lon="6.985025"><ele>3729.6</ele></trkpt>
      <trkpt lat="45.870846" lon="6.985137"><ele>3767.0</ele></trkpt>
      <trkpt lat="45.870991" lon="6.985294"><ele>3737.5</ele></trkpt>
      <trkpt lat="45.870808" lon="6.985251"><ele>3774.4</ele></trkpt>
      <trkpt lat="45.870938" lon="6.985443"><ele>3749.6</ele></trkpt>
      <trkpt lat="45.870772" lon="6.985690"><ele>3782.3</ele></trkpt>
      <trkpt lat="45.870634" lon="6.985911"><ele>3811.3</ele></trkpt>
      <trkpt lat="45.870598" lon="6.986237"><ele>3815.2</ele></trkpt>
      <trkpt lat="45.870379" lon="6.986544"><ele>3859.6</ele></trkpt>
      <trkpt lat="45.870202" lon="6.986732"><ele>3888.9</ele></trkpt>
      <trkpt lat="45.870007" lon="6.986694"><ele>3928.5</ele></trkpt>
      <trkpt lat="45.869824" lon="6.986778"><ele>3959.4</ele></trkpt>
      <trkpt lat="45.869704" lon="6.986981"><ele>3976.8</ele></trkpt>
      <trkpt lat="45.869515" lon="6.987115"><ele>4002.9</ele></trkpt>
      <trkpt lat="45.869383" lon="6.987367"><ele>4023.7</ele></trkpt>
      <trkpt lat="45.869285" lon="6.987601"><ele>4032.0</ele></trkpt>
    </trkseg>
  </trk>
</gpx>