<?xml version="1.0" encoding="UTF-8"?>
<gpx version="1.1" creator="AlpHD-batch" xmlns="http://www.topografix.com/GPX/1/1">
  <trk>
    <name>Face N (Voie Normale)</name>
    <trkseg>
      <trkpt lat="45.8790249" lon="6.8884655"><ele>3708.2</ele></trkpt>
      <trkpt lat="45.8792538" lon="6.8886738"><ele>3702.4</ele></trkpt>
      <trkpt lat="45.8794716" lon="6.8888737"><ele>3696.3</ele></trkpt>
      <trkpt lat="45.8796071" lon="6.8891251"><ele>3691.5</ele></trkpt>
      <trkpt lat="45.8796375" lon="6.8893832"><ele>3685.8</ele></trkpt>
      <trkpt lat="45.8796566" lon="6.8897799"><ele>3679.5</ele></trkpt>
      <trkpt lat="45.8796693" lon="6.8901588"><ele>3674.4</ele></trkpt>
      <trkpt lat="45.8796639" lon="6.8902114"><ele>3670.9</ele></trkpt>
      <trkpt lat="45.8656516" lon="6.8844009"><ele>3669.1</ele></trkpt>
      <trkpt lat="45.8654070" lon="6.8842457"><ele>3668.1</ele></trkpt>
      <trkpt lat="45.8652092" lon="6.8841915"><ele>3669.6</ele></trkpt>
      <trkpt lat="45.8649575" lon="6.8841147"><ele>3673.5</ele></trkpt>
      <trkpt lat="45.8646818" lon="6.8840380"><ele>3678.6</ele></trkpt>
      <trkpt lat="45.8644232" lon="6.8839466"><ele>3686.8</ele></trkpt>
      <trkpt lat="45.8641544" lon="6.8838705"><ele>3692.9</ele></trkpt>
      <trkpt lat="45.8639004" lon="6.8838124"><ele>3699.3</ele></trkpt>
      <trkpt lat="45.8636339" lon="6.8837321"><ele>3705.6</ele></trkpt>
      <trkpt lat="45.8633833" lon="6.8836589"><ele>3712.3</ele></trkpt>
      <trkpt lat="45.8630966" lon="6.8835879"><ele>3722.1</ele></trkpt>
      <trkpt lat="45.8630103" lon="6.8836362"><ele>3732.0</ele></trkpt>
      <trkpt lat="45.8627414" lon="6.8837605"><ele>3741.9</ele></trkpt>
      <trkpt lat="45.8624855" lon="6.8837455"><ele>3753.4</ele></trkpt>
      <trkpt lat="45.8623685" lon="6.8839846"><ele>3766.6</ele></trkpt>
      <trkpt lat="45.8623721" lon="6.8841628"><ele>3778.4</ele></trkpt>
      <trkpt lat="45.8623040" lon="6.8841236"><ele>3789.2</ele></trkpt>
      <trkpt lat="45.8620559" lon="6.8839595"><ele>3802.0</ele></trkpt>
      <trkpt lat="45.8618209" lon="6.8838026"><ele>3814.7</ele></trkpt>
      <trkpt lat="45.8617231" lon="6.8836659"><ele>3825.4</ele></trkpt>
      <trkpt lat="45.8615361" lon="6.8834068"><ele>3835.9</ele></trkpt>
      <trkpt lat="45.8613549" lon="6.8831303"><ele>3846.6</ele></trkpt>
      <trkpt lat="45.8611797" lon="6.8828522"><ele>3855.3</ele></trkpt>
      <trkpt lat="45.8611302" lon="6.8826719"><ele>3863.5</ele></trkpt>
      <trkpt lat="45.8610747" lon="6.8823280"><ele>3874.6</ele></trkpt>
      <trkpt lat="45.8610077" lon="6.8819234"><ele>3889.0</ele></trkpt>
      <trkpt lat="45.8609521" lon="6.8815565"><ele>3901.3</ele></trkpt>
      <trkpt lat="45.8607701" lon="6.8814192"><ele>3913.4</ele></trkpt>
      <trkpt lat="45.8605365" lon="6.8812316"><ele>3924.7</ele></trkpt>
      <trkpt lat="45.8603111" lon="6.8810591"><ele>3935.7</ele></trkpt>
      <trkpt lat="45.8601589" lon="6.8809597"><ele>3946.1</ele></trkpt>
      <trkpt lat="45.8599238" lon="6.8807592"><ele>3955.6</ele></trkpt>
      <trkpt lat="45.8596786" lon="6.8805694"><ele>3962.9</ele></trkpt>
      <trkpt lat="45.8594479" lon="6.8803763"><ele>3969.3</ele></trkpt>
      <trkpt lat="45.8592188" lon="6.8801913"><ele>3971.8</ele></trkpt>
      <trkpt lat="45.8591124" lon="6.8799989"><ele>3973.8</ele></trkpt>
      <trkpt lat="45.8590750" lon="6.8799567"><ele>3976.0</ele></trkpt>
      <trkpt lat="45.8588544" lon="6.8797460"><ele>3978.4</ele></trkpt>
      <trkpt lat="45.8587669" lon="6.8794099"><ele>3982.2</ele></trkpt>
      <trkpt lat="45.8587381" lon="6.8793456"><ele>3987.6</ele></trkpt>
      <trkpt lat="45.8585724" lon="6.8790329"><ele>3994.8</ele></trkpt>
      <trkpt lat="45.8585541" lon="6.8790983"><ele>4002.7</ele></trkpt>
      <trkpt lat="45.8584658" lon="6.8794727"><ele>4009.4</ele></trkpt>
      <trkpt lat="45.8583734" lon="6.8798238"><ele>4016.9</ele></trkpt>
      <trkpt lat="45.8582765" lon="6.8801868"><ele>4026.0</ele></trkpt>
      <trkpt lat="45.8582226" lon="6.8804283"><ele>4034.7</ele></trkpt>
      <trkpt lat="45.8581429" lon="6.8807924"><ele>4043.9</ele></trkpt>
      <trkpt lat="45.8581316" lon="6.8808731"><ele>4052.2</ele></trkpt>
      <trkpt lat="45.8580844" lon="6.8812271"><ele>4060.1</ele></trkpt>
      <trkpt lat="45.8580739" lon="6.8812816"><ele>4067.2</ele></trkpt>
      <trkpt lat="45.8579947" lon="6.8816496"><ele>4075.0</ele></trkpt>
      <trkpt lat="45.8579680" lon="6.8819408"><ele>4082.9</ele></trkpt>
      <trkpt lat="45.8579423" lon="6.8823318"><ele>4091.6</ele></trkpt>
      <trkpt lat="45.8580152" lon="6.8826567"><ele>4099.3</ele></trkpt>
      <trkpt lat="45.8580962" lon="6.8830087"><ele>4107.7</ele></trkpt>
      <trkpt lat="45.8580424" lon="6.8833667"><ele>4116.0</ele></trkpt>
      <trkpt lat="45.8579809" lon="6.8837503"><ele>4123.6</ele></trkpt>
      <trkpt lat="45.8579702" lon="6.8839123"><ele>4130.8</ele></trkpt>
      <trkpt lat="45.8579453" lon="6.8843032"><ele>4137.2</ele></trkpt>
      <trkpt lat="45.8579222" lon="6.8846645"><ele>4142.9</ele></trkpt>
      <trkpt lat="45.8579078" lon="6.8850409"><ele>4148.3</ele></trkpt>
      <trkpt lat="45.8578642" lon="6.8853281"><ele>4153.5</ele></trkpt>
      <trkpt lat="45.8578459" lon="6.8853956"><ele>4158.5</ele></trkpt>
      <trkpt lat="45.8577470" lon="6.8857685"><ele>4162.9</ele></trkpt>
      <trkpt lat="45.8576529" lon="6.8861366"><ele>4167.3</ele></trkpt>
      <trkpt lat="45.8575550" lon="6.8864776"><ele>4171.6</ele></trkpt>
      <trkpt lat="45.8574477" lon="6.8868271"><ele>4176.4</ele></trkpt>
      <trkpt lat="45.8574208" lon="6.8869029"><ele>4182.2</ele></trkpt>
      <trkpt lat="45.8572719" lon="6.8872405"><ele>4187.4</ele></trkpt>
      <trkpt lat="45.8572205" lon="6.8873139"><ele>4191.5</ele></trkpt>
      <trkpt lat="45.8570253" lon="6.8876022"><ele>4193.8</ele></trkpt>
      <trkpt lat="45.8568747" lon="6.8877302"><ele>4195.5</ele></trkpt>
      <trkpt lat="45.8568387" lon="6.8877655"><ele>4197.0</ele></trkpt>
      <trkpt lat="45.8569402" lon="6.8876717"><ele>4197.1</ele></trkpt>
      <trkpt lat="45.8570610" lon="6.8874331"><ele>4196.7</ele></trkpt>
      <trkpt lat="45.8572034" lon="6.8872657"><ele>4194.3</ele></trkpt>
      <trkpt lat="45.8572338" lon="6.8872007"><ele>4190.0</ele></trkpt>
      <trkpt lat="45.8573834" lon="6.8868639"><ele>4185.0</ele></trkpt>
      <trkpt lat="45.8575246" lon="6.8865495"><ele>4179.8</ele></trkpt>
      <trkpt lat="45.8575659" lon="6.8863498"><ele>4175.2</ele></trkpt>
      <trkpt lat="45.8576538" lon="6.8859689"><ele>4170.5</ele></trkpt>
      <trkpt lat="45.8577308" lon="6.8855947"><ele>4165.2</ele></trkpt>
      <trkpt lat="45.8578046" lon="6.8852342"><ele>4159.6</ele></trkpt>
      <trkpt lat="45.8578060" lon="6.8849918"><ele>4159.4</ele></trkpt>
      <trkpt lat="45.8578089" lon="6.8846250"><ele>4161.1</ele></trkpt>
      <trkpt lat="45.8578046" lon="6.8842359"><ele>4167.4</ele></trkpt>
      <trkpt lat="45.8578106" lon="6.8838487"><ele>4178.3</ele></trkpt>
      <trkpt lat="45.8498410" lon="6.8754608"><ele>4190.2</ele></trkpt>
      <trkpt lat="45.8497598" lon="6.8753618"><ele>4203.0</ele></trkpt>
      <trkpt lat="45.8495542" lon="6.8751111"><ele>4216.7</ele></trkpt>
      <trkpt lat="45.8493485" lon="6.8748603"><ele>4231.4</ele></trkpt>
      <trkpt lat="45.8492103" lon="6.8746859"><ele>4246.8</ele></trkpt>
      <trkpt lat="45.8490076" lon="6.8744303"><ele>4257.1</ele></trkpt>
      <trkpt lat="45.8488049" lon="6.8741746"><ele>4265.5</ele></trkpt>
      <trkpt lat="45.8486023" lon="6.8739189"><ele>4269.8</ele></trkpt>
      <trkpt lat="45.8486132" lon="6.8738570"><ele>4270.0</ele></trkpt>
      <trkpt lat="45.8485903" lon="6.8738163"><ele>4270.0</ele></trkpt>
      <trkpt lat="45.8484211" lon="6.8735146"><ele>4269.3</ele></trkpt>
      <trkpt lat="45.8481814" lon="6.8736208"><ele>4268.0</ele></trkpt>
      <trkpt lat="45.8479236" lon="6.8737350"><ele>4266.0</ele></trkpt>
      <trkpt lat="45.8478986" lon="6.8737417"><ele>4264.3</ele></trkpt>
      <trkpt lat="45.8476334" lon="6.8738132"><ele>4262.8</ele></trkpt>
      <trkpt lat="45.8473683" lon="6.8738847"><ele>4261.9</ele></trkpt>
      <trkpt lat="45.8471031" lon="6.8739561"><ele>4261.5</ele></trkpt>
      <trkpt lat="45.8468786" lon="6.8739367"><ele>4265.0</ele></trkpt>
      <trkpt lat="45.8466093" lon="6.8739133"><ele>4268.6</ele></trkpt>
      <trkpt lat="45.8463400" lon="6.8738900"><ele>4273.3</ele></trkpt>
      <trkpt lat="45.8462739" lon="6.8739387"><ele>4279.0</ele></trkpt>
      <trkpt lat="45.8463370" lon="6.8740816"><ele>4285.8</ele></trkpt>
      <trkpt lat="45.8463557" lon="6.8741111"><ele>4292.5</ele></trkpt>
      <trkpt lat="45.8465372" lon="6.8743977"><ele>4298.7</ele></trkpt>
      <trkpt lat="45.8467187" lon="6.8746842"><ele>4303.4</ele></trkpt>
      <trkpt lat="45.8469002" lon="6.8749708"><ele>4306.3</ele></trkpt>
      <trkpt lat="45.8468971" lon="6.8749678"><ele>4305.0</ele></trkpt>
      <trkpt lat="45.8468726" lon="6.8749452"><ele>4303.5</ele></trkpt>
      <trkpt lat="45.8466459" lon="6.8747352"><ele>4299.9</ele></trkpt>
      <trkpt lat="45.8464192" lon="6.8745252"><ele>4295.7</ele></trkpt>
      <trkpt lat="45.8463272" lon="6.8743979"><ele>4291.1</ele></trkpt>
      <trkpt lat="45.8463162" lon="6.8743701"><ele>4286.9</ele></trkpt>
      <trkpt lat="45.8461833" lon="6.8740331"><ele>4283.0</ele></trkpt>
      <trkpt lat="45.8460447" lon="6.8738454"><ele>4280.7</ele></trkpt>
      <trkpt lat="45.8458485" lon="6.8735797"><ele>4279.8</ele></trkpt>
      <trkpt lat="45.8456522" lon="6.8733140"><ele>4279.5</ele></trkpt>
      <trkpt lat="45.8454901" lon="6.8731893"><ele>4279.3</ele></trkpt>
      <trkpt lat="45.8453506" lon="6.8732636"><ele>4279.9</ele></trkpt>
      <trkpt lat="45.8450977" lon="6.8733984"><ele>4279.8</ele></trkpt>
      <trkpt lat="45.8448447" lon="6.8735331"><ele>4279.0</ele></trkpt>
      <trkpt lat="45.8447880" lon="6.8735565"><ele>4277.5</ele></trkpt>
      <trkpt lat="45.8445287" lon="6.8736634"><ele>4275.2</ele></trkpt>
      <trkpt lat="45.8442694" lon="6.8737703"><ele>4272.7</ele></trkpt>
      <trkpt lat="45.8440101" lon="6.8738772"><ele>4269.8</ele></trkpt>
      <trkpt lat="45.8437508" lon="6.8739841"><ele>4266.5</ele></trkpt>
      <trkpt lat="45.8434914" lon="6.8740910"><ele>4262.9</ele></trkpt>
      <trkpt lat="45.8433207" lon="6.8740816"><ele>4259.4</ele></trkpt>
      <trkpt lat="45.8430511" lon="6.8740668"><ele>4256.0</ele></trkpt>
      <trkpt lat="45.8427815" lon="6.8740520"><ele>4253.1</ele></trkpt>
      <trkpt lat="45.8425119" lon="6.8740372"><ele>4250.7</ele></trkpt>
      <trkpt lat="45.8422423" lon="6.8740224"><ele>4248.9</ele></trkpt>
      <trkpt lat="45.8419727" lon="6.8740076"><ele>4247.7</ele></trkpt>
      <trkpt lat="45.8418832" lon="6.8739703"><ele>4247.6</ele></trkpt>
      <trkpt lat="45.8416241" lon="6.8738621"><ele>4248.4</ele></trkpt>
      <trkpt lat="45.8413650" lon="6.8737539"><ele>4250.2</ele></trkpt>
      <trkpt lat="45.8411950" lon="6.8735921"><ele>4252.7</ele></trkpt>
      <trkpt lat="45.8409702" lon="6.8733781"><ele>4255.9</ele></trkpt>
      <trkpt lat="45.8407453" lon="6.8731641"><ele>4259.9</ele></trkpt>
      <trkpt lat="45.8405204" lon="6.8729501"><ele>4264.6</ele></trkpt>
      <trkpt lat="45.8403986" lon="6.8728689"><ele>4270.1</ele></trkpt>
      <trkpt lat="45.8403370" lon="6.8728073"><ele>4277.8</ele></trkpt>
      <trkpt lat="45.8401155" lon="6.8725861"><ele>4289.4</ele></trkpt>
      <trkpt lat="45.8398940" lon="6.8723649"><ele>4306.3</ele></trkpt>
      <trkpt lat="45.8396726" lon="6.8721437"><ele>4322.9</ele></trkpt>
      <trkpt lat="45.8395410" lon="6.8718881"><ele>4339.4</ele></trkpt>
      <trkpt lat="45.8395142" lon="6.8715931"><ele>4356.1</ele></trkpt>
      <trkpt lat="45.8394792" lon="6.8712091"><ele>4372.3</ele></trkpt>
      <trkpt lat="45.8393994" lon="6.8709530"><ele>4387.6</ele></trkpt>
      <trkpt lat="45.8392892" lon="6.8705995"><ele>4402.0</ele></trkpt>
      <trkpt lat="45.8391790" lon="6.8702459"><ele>4414.0</ele></trkpt>
      <trkpt lat="45.8390689" lon="6.8698924"><ele>4421.6</ele></trkpt>
      <trkpt lat="45.8390448" lon="6.8698641"><ele>4423.3</ele></trkpt>
      <trkpt lat="45.8388361" lon="6.8696188"><ele>4424.9</ele></trkpt>
      <trkpt lat="45.8386274" lon="6.8693734"><ele>4426.3</ele></trkpt>
      <trkpt lat="45.8384187" lon="6.8691280"><ele>4428.0</ele></trkpt>
      <trkpt lat="45.8382788" lon="6.8689507"><ele>4429.9</ele></trkpt>
      <trkpt lat="45.8380766" lon="6.8686944"><ele>4432.5</ele></trkpt>
      <trkpt lat="45.8380572" lon="6.8686643"><ele>4435.7</ele></trkpt>
      <trkpt lat="45.8378742" lon="6.8683798"><ele>4442.1</ele></trkpt>
      <trkpt lat="45.8376911" lon="6.8680953"><ele>4451.9</ele></trkpt>
      <trkpt lat="45.8375081" lon="6.8678109"><ele>4463.5</ele></trkpt>
      <trkpt lat="45.8373250" lon="6.8675264"><ele>4479.2</ele></trkpt>
      <trkpt lat="45.8371714" lon="6.8672200"><ele>4495.1</ele></trkpt>
      <trkpt lat="45.8370139" lon="6.8669056"><ele>4510.5</ele></trkpt>
      <trkpt lat="45.8368974" lon="6.8668360"><ele>4525.6</ele></trkpt>
      <trkpt lat="45.8366484" lon="6.8666871"><ele>4540.3</ele></trkpt>
      <trkpt lat="45.8364737" lon="6.8666069"><ele>4554.6</ele></trkpt>
      <trkpt lat="45.8362168" lon="6.8664888"><ele>4565.7</ele></trkpt>
      <trkpt lat="45.8359598" lon="6.8663708"><ele>4574.1</ele></trkpt>
      <trkpt lat="45.8357029" lon="6.8662528"><ele>4581.9</ele></trkpt>
      <trkpt lat="45.8354459" lon="6.8661347"><ele>4588.6</ele></trkpt>
      <trkpt lat="45.8353345" lon="6.8660928"><ele>4595.6</ele></trkpt>
      <trkpt lat="45.8352259" lon="6.8660961"><ele>4604.3</ele></trkpt>
      <trkpt lat="45.8351097" lon="6.8660081"><ele>4614.8</ele></trkpt>
      <trkpt lat="45.8349686" lon="6.8658996"><ele>4627.1</ele></trkpt>
      <trkpt lat="45.8349013" lon="6.8658792"><ele>4641.1</ele></trkpt>
      <trkpt lat="45.8346374" lon="6.8657989"><ele>4657.0</ele></trkpt>
      <trkpt lat="45.8343735" lon="6.8657186"><ele>4672.3</ele></trkpt>
      <trkpt lat="45.8341095" lon="6.8656382"><ele>4686.3</ele></trkpt>
      <trkpt lat="45.8338456" lon="6.8655579"><ele>4697.3</ele></trkpt>
      <trkpt lat="45.8335817" lon="6.8654776"><ele>4707.7</ele></trkpt>
      <trkpt lat="45.8333285" lon="6.8653470"><ele>4716.2</ele></trkpt>
      <trkpt lat="45.8330746" lon="6.8652159"><ele>4721.7</ele></trkpt>
      <trkpt lat="45.8328207" lon="6.8650849"><ele>4726.1</ele></trkpt>
      <trkpt lat="45.8327758" lon="6.8649875"><ele>4729.0</ele></trkpt>
      <trkpt lat="45.8326269" lon="6.8646646"><ele>4729.3</ele></trkpt>
    </trkseg>
  </trk>
</gpx>