<?xml version="1.0" encoding="UTF-8"?>
<gpx version="1.1" creator="AlpHD" xmlns="http://www.topografix.com/GPX/1/1">
  <trk>
    <name>Arête des Flammes de Pierre — Traversée des Drus</name>
    <trkseg>
      <trkpt lat="45.924023" lon="6.954748"><ele>2806.4</ele></trkpt>
      <trkpt lat="45.923836" lon="6.954462"><ele>2785.6</ele></trkpt>
      <trkpt lat="45.923641" lon="6.954120"><ele>2750.4</ele></trkpt>
      <trkpt lat="45.923628" lon="6.953775"><ele>2735.2</ele></trkpt>
      <trkpt lat="45.923298" lon="6.954073"><ele>2714.2</ele></trkpt>
      <trkpt lat="45.923108" lon="6.953999"><ele>2701.6</ele></trkpt>
      <trkpt lat="45.922900" lon="6.953788"><ele>2684.8</ele></trkpt>
      <trkpt lat="45.922668" lon="6.953149"><ele>2670.0</ele></trkpt>
      <trkpt lat="45.922500" lon="6.952975"><ele>2657.0</ele></trkpt>
      <trkpt lat="45.922431" lon="6.952732"><ele>2645.8</ele></trkpt>
      <trkpt lat="45.922193" lon="6.952471"><ele>2634.4</ele></trkpt>
      <trkpt lat="45.921857" lon="6.952141"><ele>2620.6</ele></trkpt>
      <trkpt lat="45.921725" lon="6.951763"><ele>2603.6</ele></trkpt>
      <trkpt lat="45.921609" lon="6.951403"><ele>2583.0</ele></trkpt>
      <trkpt lat="45.921338" lon="6.951258"><ele>2570.4</ele></trkpt>
      <trkpt lat="45.921118" lon="6.951338"><ele>2566.2</ele></trkpt>
      <trkpt lat="45.921495" lon="6.950837"><ele>2554.6</ele></trkpt>
      <trkpt lat="45.921336" lon="6.950498"><ele>2538.6</ele></trkpt>
      <trkpt lat="45.921069" lon="6.950326"><ele>2524.4</ele></trkpt>
      <trkpt lat="45.921017" lon="6.950021"><ele>2511.6</ele></trkpt>
      <trkpt lat="45.920985" lon="6.949619"><ele>2498.0</ele></trkpt>
      <trkpt lat="45.920970" lon="6.949242"><ele>2483.6</ele></trkpt>
      <trkpt lat="45.920774" lon="6.948841"><ele>2468.2</ele></trkpt>
      <trkpt lat="45.920827" lon="6.948481"><ele>2453.4</ele></trkpt>
      <trkpt lat="45.921169" lon="6.948059"><ele>2437.6</ele></trkpt>
      <trkpt lat="45.921485" lon="6.947764"><ele>2431.8</ele></trkpt>
      <trkpt lat="45.921545" lon="6.947506"><ele>2426.2</ele></trkpt>
      <trkpt lat="45.921702" lon="6.947239"><ele>2422.2</ele></trkpt>
      <trkpt lat="45.921845" lon="6.946380"><ele>2411.0</ele></trkpt>
      <trkpt lat="45.922159" lon="6.946007"><ele>2406.8</ele></trkpt>
      <trkpt lat="45.922476" lon="6.945419"><ele>2401.6</ele></trkpt>
      <trkpt lat="45.922752" lon="6.945084"><ele>2402.2</ele></trkpt>
      <trkpt lat="45.922795" lon="6.944745"><ele>2399.0</ele></trkpt>
      <trkpt lat="45.922748" lon="6.944451"><ele>2398.2</ele></trkpt>
      <trkpt lat="45.922590" lon="6.944189"><ele>2396.6</ele></trkpt>
      <trkpt lat="45.922443" lon="6.943628"><ele>2398.2</ele></trkpt>
      <trkpt lat="45.922114" lon="6.943423"><ele>2376.4</ele></trkpt>
      <trkpt lat="45.921955" lon="6.943291"><ele>2367.2</ele></trkpt>
      <trkpt lat="45.921706" lon="6.943149"><ele>2351.8</ele></trkpt>
      <trkpt lat="45.921948" lon="6.942878"><ele>2344.2</ele></trkpt>
      <trkpt lat="45.922095" lon="6.942542"><ele>2336.0</ele></trkpt>
      <trkpt lat="45.922296" lon="6.942482"><ele>2344.4</ele></trkpt>
      <trkpt lat="45.922407" lon="6.942271"><ele>2356.6</ele></trkpt>
      <trkpt lat="45.922628" lon="6.942483"><ele>2372.0</ele></trkpt>
      <trkpt lat="45.922679" lon="6.942074"><ele>2384.2</ele></trkpt>
      <trkpt lat="45.922836" lon="6.941084"><ele>2389.2</ele></trkpt>
      <trkpt lat="45.922948" lon="6.940648"><ele>2389.8</ele></trkpt>
      <trkpt lat="45.923092" lon="6.940412"><ele>2390.0</ele></trkpt>
      <trkpt lat="45.923120" lon="6.940734"><ele>2398.4</ele></trkpt>
      <trkpt lat="45.923301" lon="6.941097"><ele>2415.2</ele></trkpt>
      <trkpt lat="45.923335" lon="6.941385"><ele>2444.2</ele></trkpt>
      <trkpt lat="45.923551" lon="6.941464"><ele>2477.2</ele></trkpt>
      <trkpt lat="45.923766" lon="6.941421"><ele>2496.2</ele></trkpt>
      <trkpt lat="45.923850" lon="6.941725"><ele>2512.2</ele></trkpt>
      <trkpt lat="45.923981" lon="6.942420"><ele>2550.4</ele></trkpt>
      <trkpt lat="45.924109" lon="6.942624"><ele>2566.2</ele></trkpt>
      <trkpt lat="45.924183" lon="6.943011"><ele>2591.4</ele></trkpt>
      <trkpt lat="45.924216" lon="6.943333"><ele>2617.4</ele></trkpt>
      <trkpt lat="45.924356" lon="6.943529"><ele>2642.4</ele></trkpt>
      <trkpt lat="45.924557" lon="6.943424"><ele>2655.6</ele></trkpt>
      <trkpt lat="45.924790" lon="6.943493"><ele>2695.6</ele></trkpt>
      <trkpt lat="45.925110" lon="6.943580"><ele>2710.4</ele></trkpt>
      <trkpt lat="45.925310" lon="6.943312"><ele>2722.8</ele></trkpt>
      <trkpt lat="45.925545" lon="6.943287"><ele>2743.0</ele></trkpt>
      <trkpt lat="45.925519" lon="6.943671"><ele>2753.0</ele></trkpt>
      <trkpt lat="45.925558" lon="6.944039"><ele>2783.4</ele></trkpt>
      <trkpt lat="45.925590" lon="6.944331"><ele>2796.6</ele></trkpt>
      <trkpt lat="45.925650" lon="6.944591"><ele>2827.0</ele></trkpt>
      <trkpt lat="45.925892" lon="6.944607"><ele>2845.6</ele></trkpt>
      <trkpt lat="45.926048" lon="6.944740"><ele>2865.6</ele></trkpt>
      <trkpt lat="45.926235" lon="6.944762"><ele>2880.4</ele></trkpt>
      <trkpt lat="45.926460" lon="6.944924"><ele>2912.8</ele></trkpt>
      <trkpt lat="45.926279" lon="6.945405"><ele>2946.6</ele></trkpt>
      <trkpt lat="45.926485" lon="6.945538"><ele>2969.2</ele></trkpt>
      <trkpt lat="45.926681" lon="6.945631"><ele>2989.6</ele></trkpt>
      <trkpt lat="45.926506" lon="6.945796"><ele>2980.8</ele></trkpt>
      <trkpt lat="45.926660" lon="6.946108"><ele>2990.8</ele></trkpt>
      <trkpt lat="45.926843" lon="6.946318"><ele>2983.6</ele></trkpt>
      <trkpt lat="45.926657" lon="6.946284"><ele>2970.0</ele></trkpt>
      <trkpt lat="45.926855" lon="6.946528"><ele>2983.2</ele></trkpt>
      <trkpt lat="45.926916" lon="6.946798"><ele>3020.0</ele></trkpt>
      <trkpt lat="45.927084" lon="6.946615"><ele>3040.6</ele></trkpt>
      <trkpt lat="45.927221" lon="6.946855"><ele>3052.4</ele></trkpt>
      <trkpt lat="45.927423" lon="6.947050"><ele>3064.4</ele></trkpt>
      <trkpt lat="45.927631" lon="6.946907"><ele>3070.8</ele></trkpt>
      <trkpt lat="45.927944" lon="6.947169"><ele>3099.4</ele></trkpt>
      <trkpt lat="45.927959" lon="6.947455"><ele>3126.6</ele></trkpt>
      <trkpt lat="45.928143" lon="6.947346"><ele>3141.4</ele></trkpt>
      <trkpt lat="45.928332" lon="6.947886"><ele>3137.4</ele></trkpt>
      <trkpt lat="45.928488" lon="6.948136"><ele>3161.8</ele></trkpt>
      <trkpt lat="45.928571" lon="6.948458"><ele>3201.0</ele></trkpt>
      <trkpt lat="45.928467" lon="6.948757"><ele>3211.6</ele></trkpt>
      <trkpt lat="45.928677" lon="6.948937"><ele>3193.2</ele></trkpt>
      <trkpt lat="45.928924" lon="6.949204"><ele>3211.0</ele></trkpt>
      <trkpt lat="45.929152" lon="6.949255"><ele>3196.4</ele></trkpt>
      <trkpt lat="45.929321" lon="6.949442"><ele>3206.6</ele></trkpt>
      <trkpt lat="45.929574" lon="6.949531"><ele>3207.0</ele></trkpt>
      <trkpt lat="45.929730" lon="6.949856"><ele>3233.4</ele></trkpt>
      <trkpt lat="45.929676" lon="6.950128"><ele>3261.6</ele></trkpt>
      <trkpt lat="45.929718" lon="6.950387"><ele>3280.2</ele></trkpt>
      <trkpt lat="45.929777" lon="6.950974"><ele>3297.4</ele></trkpt>
      <trkpt lat="45.929876" lon="6.951278"><ele>3315.4</ele></trkpt>
      <trkpt lat="45.930148" lon="6.951445"><ele>3304.4</ele></trkpt>
      <trkpt lat="45.930159" lon="6.951721"><ele>3302.4</ele></trkpt>
      <trkpt lat="45.930262" lon="6.951963"><ele>3303.0</ele></trkpt>
      <trkpt lat="45.930441" lon="6.952044"><ele>3311.8</ele></trkpt>
      <trkpt lat="45.930464" lon="6.952368"><ele>3300.2</ele></trkpt>
      <trkpt lat="45.930644" lon="6.952469"><ele>3300.4</ele></trkpt>
      <trkpt lat="45.930641" lon="6.952880"><ele>3307.2</ele></trkpt>
      <trkpt lat="45.930682" lon="6.953160"><ele>3324.0</ele></trkpt>
      <trkpt lat="45.930916" lon="6.953146"><ele>3342.2</ele></trkpt>
      <trkpt lat="45.931054" lon="6.953398"><ele>3346.0</ele></trkpt>
      <trkpt lat="45.931240" lon="6.953408"><ele>3367.2</ele></trkpt>
      <trkpt lat="45.931309" lon="6.953663"><ele>3381.4</ele></trkpt>
      <trkpt lat="45.931566" lon="6.953911"><ele>3397.8</ele></trkpt>
      <trkpt lat="45.931555" lon="6.954182"><ele>3401.2</ele></trkpt>
      <trkpt lat="45.931525" lon="6.954465"><ele>3423.4</ele></trkpt>
      <trkpt lat="45.931726" lon="6.954365"><ele>3460.2</ele></trkpt>
      <trkpt lat="45.931894" lon="6.954134"><ele>3493.0</ele></trkpt>
      <trkpt lat="45.932012" lon="6.954377"><ele>3528.6</ele></trkpt>
      <trkpt lat="45.932089" lon="6.954735"><ele>3570.8</ele></trkpt>
      <trkpt lat="45.932211" lon="6.954517"><ele>3588.8</ele></trkpt>
      <trkpt lat="45.932391" lon="6.954483"><ele>3612.4</ele></trkpt>
      <trkpt lat="45.932434" lon="6.954739"><ele>3642.2</ele></trkpt>
      <trkpt lat="45.932670" lon="6.954691"><ele>3668.8</ele></trkpt>
      <trkpt lat="45.932540" lon="6.954954"><ele>3682.0</ele></trkpt>
      <trkpt lat="45.932725" lon="6.954880"><ele>3700.8</ele></trkpt>
      <trkpt lat="45.932855" lon="6.955155"><ele>3725.8</ele></trkpt>
      <trkpt lat="45.932827" lon="6.955417"><ele>3718.2</ele></trkpt>
      <trkpt lat="45.932934" lon="6.955830"><ele>3710.8</ele></trkpt>
      <trkpt lat="45.932772" lon="6.956030"><ele>3714.2</ele></trkpt>
      <trkpt lat="45.932976" lon="6.955809"><ele>3730.0</ele></trkpt>
      <trkpt lat="45.932767" lon="6.956156"><ele>3733.8</ele></trkpt>
      <trkpt lat="45.932638" lon="6.956479"><ele>3747.6</ele></trkpt>
      <trkpt lat="45.932664" lon="6.956807"><ele>3727.6</ele></trkpt>
      <trkpt lat="45.932412" lon="6.956881"><ele>3706.2</ele></trkpt>
      <trkpt lat="45.932238" lon="6.956973"><ele>3658.4</ele></trkpt>
      <trkpt lat="45.932010" lon="6.957030"><ele>3533.4</ele></trkpt>
      <trkpt lat="45.931808" lon="6.957154"><ele>3470.6</ele></trkpt>
      <trkpt lat="45.931682" lon="6.957388"><ele>3445.0</ele></trkpt>
      <trkpt lat="45.931708" lon="6.957672"><ele>3440.4</ele></trkpt>
      <trkpt lat="45.931940" lon="6.957708"><ele>3442.6</ele></trkpt>
      <trkpt lat="45.931777" lon="6.957891"><ele>3426.6</ele></trkpt>
      <trkpt lat="45.931767" lon="6.958201"><ele>3401.4</ele></trkpt>
      <trkpt lat="45.931703" lon="6.958538"><ele>3377.8</ele></trkpt>
      <trkpt lat="45.931633" lon="6.958812"><ele>3341.2</ele></trkpt>
      <trkpt lat="45.931395" lon="6.958777"><ele>3300.8</ele></trkpt>
      <trkpt lat="45.931287" lon="6.959043"><ele>3265.2</ele></trkpt>
      <trkpt lat="45.931090" lon="6.958897"><ele>3248.8</ele></trkpt>
      <trkpt lat="45.930734" lon="6.959056"><ele>3220.0</ele></trkpt>
      <trkpt lat="45.930486" lon="6.958927"><ele>3199.0</ele></trkpt>
      <trkpt lat="45.930047" lon="6.958941"><ele>3165.8</ele></trkpt>
      <trkpt lat="45.929856" lon="6.959349"><ele>3158.2</ele></trkpt>
      <trkpt lat="45.929587" lon="6.959454"><ele>3142.8</ele></trkpt>
      <trkpt lat="45.929303" lon="6.960135"><ele>3139.8</ele></trkpt>
      <trkpt lat="45.929046" lon="6.960462"><ele>3143.4</ele></trkpt>
      <trkpt lat="45.928976" lon="6.960718"><ele>3152.4</ele></trkpt>
      <trkpt lat="45.928514" lon="6.960522"><ele>3149.2</ele></trkpt>
      <trkpt lat="45.928333" lon="6.960828"><ele>3141.8</ele></trkpt>
      <trkpt lat="45.927903" lon="6.960866"><ele>3141.6</ele></trkpt>
      <trkpt lat="45.927460" lon="6.960967"><ele>3134.0</ele></trkpt>
      <trkpt lat="45.927224" lon="6.960941"><ele>3126.0</ele></trkpt>
      <trkpt lat="45.927031" lon="6.960661"><ele>3108.0</ele></trkpt>
      <trkpt lat="45.927076" lon="6.960355"><ele>3092.4</ele></trkpt>
      <trkpt lat="45.926996" lon="6.960061"><ele>3074.2</ele></trkpt>
      <trkpt lat="45.926896" lon="6.959636"><ele>3049.0</ele></trkpt>
      <trkpt lat="45.926572" lon="6.959014"><ele>3019.0</ele></trkpt>
      <trkpt lat="45.926096" lon="6.958314"><ele>2984.8</ele></trkpt>
      <trkpt lat="45.925793" lon="6.957713"><ele>2957.6</ele></trkpt>
      <trkpt lat="45.925664" lon="6.956990"><ele>2939.6</ele></trkpt>
      <trkpt lat="45.925342" lon="6.956511"><ele>2929.8</ele></trkpt>
      <trkpt lat="45.925223" lon="6.956245"><ele>2917.8</ele></trkpt>
      <trkpt lat="45.924963" lon="6.956236"><ele>2911.6</ele></trkpt>
      <trkpt lat="45.924631" lon="6.956052"><ele>2898.8</ele></trkpt>
      <trkpt lat="45.924469" lon="6.955869"><ele>2891.2</ele></trkpt>
      <trkpt lat="45.924220" lon="6.955522"><ele>2882.6</ele></trkpt>
      <trkpt lat="45.924083" lon="6.955326"><ele>2867.8</ele></trkpt>
      <trkpt lat="45.924628" lon="6.955512"><ele>2861.6</ele></trkpt>
      <trkpt lat="45.924290" lon="6.955404"><ele>2862.6</ele></trkpt>
      <trkpt lat="45.923809" lon="6.955162"><ele>2862.0</ele></trkpt>
      <trkpt lat="45.924146" lon="6.955316"><ele>2863.4</ele></trkpt>
      <trkpt lat="45.924017" lon="6.954900"><ele>2845.4</ele></trkpt>
      <trkpt lat="45.923936" lon="6.954612"><ele>2825.0</ele></trkpt>
      <trkpt lat="45.923747" lon="6.954312"><ele>2798.8</ele></trkpt>
      <trkpt lat="45.923656" lon="6.953714"><ele>2766.2</ele></trkpt>
      <trkpt lat="45.923386" lon="6.953988"><ele>2751.0</ele></trkpt>
      <trkpt lat="45.923107" lon="6.954004"><ele>2732.4</ele></trkpt>
      <trkpt lat="45.922947" lon="6.953862"><ele>2714.2</ele></trkpt>
      <trkpt lat="45.922695" lon="6.953159"><ele>2699.6</ele></trkpt>
      <trkpt lat="45.922562" lon="6.952938"><ele>2688.6</ele></trkpt>
      <trkpt lat="45.922421" lon="6.952721"><ele>2673.6</ele></trkpt>
      <trkpt lat="45.922223" lon="6.952467"><ele>2662.0</ele></trkpt>
      <trkpt lat="45.922033" lon="6.952420"><ele>2658.0</ele></trkpt>
      <trkpt lat="45.921751" lon="6.951908"><ele>2635.6</ele></trkpt>
      <trkpt lat="45.921753" lon="6.951568"><ele>2617.8</ele></trkpt>
      <trkpt lat="45.921473" lon="6.951280"><ele>2599.2</ele></trkpt>
      <trkpt lat="45.920960" lon="6.951454"><ele>2586.4</ele></trkpt>
      <trkpt lat="45.920693" lon="6.951403"><ele>2577.2</ele></trkpt>
      <trkpt lat="45.920384" lon="6.951482"><ele>2569.6</ele></trkpt>
      <trkpt lat="45.920116" lon="6.951629"><ele>2563.8</ele></trkpt>
      <trkpt lat="45.919630" lon="6.951448"><ele>2555.2</ele></trkpt>
      <trkpt lat="45.919163" lon="6.951082"><ele>2545.2</ele></trkpt>
      <trkpt lat="45.918926" lon="6.950812"><ele>2542.0</ele></trkpt>
      <trkpt lat="45.918780" lon="6.950516"><ele>2538.8</ele></trkpt>
      <trkpt lat="45.918872" lon="6.950133"><ele>2536.8</ele></trkpt>
      <trkpt lat="45.918702" lon="6.949843"><ele>2529.2</ele></trkpt>
      <trkpt lat="45.918456" lon="6.949659"><ele>2519.6</ele></trkpt>
      <trkpt lat="45.918552" lon="6.949202"><ele>2505.2</ele></trkpt>
      <trkpt lat="45.918478" lon="6.948898"><ele>2493.8</ele></trkpt>
      <trkpt lat="45.918355" lon="6.948614"><ele>2487.4</ele></trkpt>
      <trkpt lat="45.918057" lon="6.948591"><ele>2462.8</ele></trkpt>
      <trkpt lat="45.917746" lon="6.949257"><ele>2466.0</ele></trkpt>
      <trkpt lat="45.917647" lon="6.949644"><ele>2465.0</ele></trkpt>
      <trkpt lat="45.917341" lon="6.949898"><ele>2462.6</ele></trkpt>
      <trkpt lat="45.917103" lon="6.949993"><ele>2459.2</ele></trkpt>
      <trkpt lat="45.916657" lon="6.949875"><ele>2442.8</ele></trkpt>
      <trkpt lat="45.916630" lon="6.949604"><ele>2433.2</ele></trkpt>
      <trkpt lat="45.916151" lon="6.949410"><ele>2409.6</ele></trkpt>
      <trkpt lat="45.916114" lon="6.949138"><ele>2398.6</ele></trkpt>
      <trkpt lat="45.915932" lon="6.948944"><ele>2384.2</ele></trkpt>
      <trkpt lat="45.915535" lon="6.949106"><ele>2367.2</ele></trkpt>
      <trkpt lat="45.915361" lon="6.948944"><ele>2352.2</ele></trkpt>
      <trkpt lat="45.914699" lon="6.948717"><ele>2347.2</ele></trkpt>
      <trkpt lat="45.914833" lon="6.948433"><ele>2335.6</ele></trkpt>
      <trkpt lat="45.914488" lon="6.948387"><ele>2328.4</ele></trkpt>
      <trkpt lat="45.914260" lon="6.948214"><ele>2323.4</ele></trkpt>
      <trkpt lat="45.913438" lon="6.948579"><ele>2324.2</ele></trkpt>
      <trkpt lat="45.912882" lon="6.948667"><ele>2316.8</ele></trkpt>
      <trkpt lat="45.912352" lon="6.948915"><ele>2314.6</ele></trkpt>
      <trkpt lat="45.911828" lon="6.949147"><ele>2313.4</ele></trkpt>
      <trkpt lat="45.911594" lon="6.949205"><ele>2310.0</ele></trkpt>
      <trkpt lat="45.911276" lon="6.949218"><ele>2290.6</ele></trkpt>
      <trkpt lat="45.911261" lon="6.948923"><ele>2276.8</ele></trkpt>
      <trkpt lat="45.911013" lon="6.949036"><ele>2268.2</ele></trkpt>
      <trkpt lat="45.910836" lon="6.948884"><ele>2257.4</ele></trkpt>
      <trkpt lat="45.910517" lon="6.949064"><ele>2255.2</ele></trkpt>
      <trkpt lat="45.909880" lon="6.949046"><ele>2244.8</ele></trkpt>
      <trkpt lat="45.910177" lon="6.948627"><ele>2222.6</ele></trkpt>
      <trkpt lat="45.909884" lon="6.948461"><ele>2210.6</ele></trkpt>
      <trkpt lat="45.910202" lon="6.948269"><ele>2203.6</ele></trkpt>
      <trkpt lat="45.909930" lon="6.947808"><ele>2143.4</ele></trkpt>
      <trkpt lat="45.909732" lon="6.947516"><ele>2097.4</ele></trkpt>
      <trkpt lat="45.909482" lon="6.947083"><ele>2069.0</ele></trkpt>
      <trkpt lat="45.909326" lon="6.946525"><ele>2044.4</ele></trkpt>
      <trkpt lat="45.909514" lon="6.946143"><ele>2025.4</ele></trkpt>
      <trkpt lat="45.909527" lon="6.945624"><ele>2005.0</ele></trkpt>
      <trkpt lat="45.909691" lon="6.945408"><ele>1994.8</ele></trkpt>
      <trkpt lat="45.909763" lon="6.944720"><ele>1983.8</ele></trkpt>
      <trkpt lat="45.909974" lon="6.944452"><ele>1973.4</ele></trkpt>
      <trkpt lat="45.910136" lon="6.943794"><ele>1973.0</ele></trkpt>
      <trkpt lat="45.910358" lon="6.943245"><ele>1965.4</ele></trkpt>
      <trkpt lat="45.910341" lon="6.942743"><ele>1960.8</ele></trkpt>
      <trkpt lat="45.910415" lon="6.942371"><ele>1954.2</ele></trkpt>
      <trkpt lat="45.910450" lon="6.941748"><ele>1944.8</ele></trkpt>
      <trkpt lat="45.910835" lon="6.941299"><ele>1946.4</ele></trkpt>
      <trkpt lat="45.911189" lon="6.941013"><ele>1942.8</ele></trkpt>
      <trkpt lat="45.911927" lon="6.940623"><ele>1935.4</ele></trkpt>
      <trkpt lat="45.913738" lon="6.939389"><ele>1916.4</ele></trkpt>
      <trkpt lat="45.913797" lon="6.938782"><ele>1912.6</ele></trkpt>
      <trkpt lat="45.914699" lon="6.937979"><ele>1903.4</ele></trkpt>
      <trkpt lat="45.915983" lon="6.936740"><ele>1887.0</ele></trkpt>
      <trkpt lat="45.915780" lon="6.937196"><ele>1888.8</ele></trkpt>
      <trkpt lat="45.916014" lon="6.937406"><ele>1890.8</ele></trkpt>
      <trkpt lat="45.916306" lon="6.937306"><ele>1884.8</ele></trkpt>
      <trkpt lat="45.916506" lon="6.936693"><ele>1877.6</ele></trkpt>
      <trkpt lat="45.916665" lon="6.936380"><ele>1874.2</ele></trkpt>
      <trkpt lat="45.916773" lon="6.935902"><ele>1872.4</ele></trkpt>
      <trkpt lat="45.917014" lon="6.935649"><ele>1868.6</ele></trkpt>
      <trkpt lat="45.917426" lon="6.934907"><ele>1861.2</ele></trkpt>
      <trkpt lat="45.917810" lon="6.934353"><ele>1859.0</ele></trkpt>
      <trkpt lat="45.918300" lon="6.933369"><ele>1850.2</ele></trkpt>
      <trkpt lat="45.918464" lon="6.932889"><ele>1843.4</ele></trkpt>
      <trkpt lat="45.918667" lon="6.932009"><ele>1832.2</ele></trkpt>
      <trkpt lat="45.918929" lon="6.931495"><ele>1827.6</ele></trkpt>
      <trkpt lat="45.918981" lon="6.931230"><ele>1825.8</ele></trkpt>
      <trkpt lat="45.919081" lon="6.930823"><ele>1825.0</ele></trkpt>
      <trkpt lat="45.919377" lon="6.930134"><ele>1817.2</ele></trkpt>
      <trkpt lat="45.919949" lon="6.928670"><ele>1806.2</ele></trkpt>
      <trkpt lat="45.920114" lon="6.928403"><ele>1803.2</ele></trkpt>
      <trkpt lat="45.920273" lon="6.927749"><ele>1796.8</ele></trkpt>
      <trkpt lat="45.920743" lon="6.926959"><ele>1789.6</ele></trkpt>
      <trkpt lat="45.920908" lon="6.926550"><ele>1784.6</ele></trkpt>
      <trkpt lat="45.921594" lon="6.925899"><ele>1776.6</ele></trkpt>
      <trkpt lat="45.921824" lon="6.925576"><ele>1771.2</ele></trkpt>
      <trkpt lat="45.921794" lon="6.925268"><ele>1767.6</ele></trkpt>
      <trkpt lat="45.921964" lon="6.924855"><ele>1763.2</ele></trkpt>
      <trkpt lat="45.922293" lon="6.924403"><ele>1759.6</ele></trkpt>
      <trkpt lat="45.922583" lon="6.924173"><ele>1756.4</ele></trkpt>
      <trkpt lat="45.922857" lon="6.923747"><ele>1754.4</ele></trkpt>
      <trkpt lat="45.923253" lon="6.923377"><ele>1746.2</ele></trkpt>
      <trkpt lat="45.923552" lon="6.923325"><ele>1742.0</ele></trkpt>
      <trkpt lat="45.923982" lon="6.922508"><ele>1734.2</ele></trkpt>
      <trkpt lat="45.924241" lon="6.922215"><ele>1728.6</ele></trkpt>
      <trkpt lat="45.924537" lon="6.922258"><ele>1727.6</ele></trkpt>
      <trkpt lat="45.924813" lon="6.922059"><ele>1725.4</ele></trkpt>
      <trkpt lat="45.924829" lon="6.921798"><ele>1718.4</ele></trkpt>
      <trkpt lat="45.925358" lon="6.921595"><ele>1720.0</ele></trkpt>
      <trkpt lat="45.926125" lon="6.921974"><ele>1707.6</ele></trkpt>
      <trkpt lat="45.926556" lon="6.921709"><ele>1705.6</ele></trkpt>
      <trkpt lat="45.926802" lon="6.921767"><ele>1711.4</ele></trkpt>
      <trkpt lat="45.926719" lon="6.921520"><ele>1721.8</ele></trkpt>
    </trkseg>
  </trk>
</gpx>