<?xml version="1.0" encoding="UTF-8"?>
<gpx version="1.1" creator="AlpHD-batch" xmlns="http://www.topografix.com/GPX/1/1">
  <trk>
    <name>Forbes ridge</name>
    <trkseg>
      <trkpt lat="46.0036820" lon="6.9467033"><ele>1392.5</ele></trkpt>
      <trkpt lat="46.0038205" lon="6.9470176"><ele>1393.6</ele></trkpt>
      <trkpt lat="46.0039766" lon="6.9473346"><ele>1394.9</ele></trkpt>
      <trkpt lat="46.0041739" lon="6.9475442"><ele>1396.3</ele></trkpt>
      <trkpt lat="46.0041728" lon="6.9477180"><ele>1397.7</ele></trkpt>
      <trkpt lat="46.0041375" lon="6.9481019"><ele>1402.8</ele></trkpt>
      <trkpt lat="46.0041216" lon="6.9483297"><ele>1406.1</ele></trkpt>
      <trkpt lat="46.0041008" lon="6.9487176"><ele>1409.2</ele></trkpt>
      <trkpt lat="46.0040782" lon="6.9491060"><ele>1412.2</ele></trkpt>
      <trkpt lat="46.0041276" lon="6.9494049"><ele>1415.5</ele></trkpt>
      <trkpt lat="46.0041798" lon="6.9497940"><ele>1419.1</ele></trkpt>
      <trkpt lat="46.0042018" lon="6.9501673"><ele>1423.0</ele></trkpt>
      <trkpt lat="46.0042266" lon="6.9505379"><ele>1427.9</ele></trkpt>
      <trkpt lat="46.0042245" lon="6.9506618"><ele>1432.3</ele></trkpt>
      <trkpt lat="46.0042199" lon="6.9510497"><ele>1434.7</ele></trkpt>
      <trkpt lat="46.0042154" lon="6.9514376"><ele>1438.0</ele></trkpt>
      <trkpt lat="46.0041814" lon="6.9517025"><ele>1441.6</ele></trkpt>
      <trkpt lat="46.0041469" lon="6.9520772"><ele>1446.0</ele></trkpt>
      <trkpt lat="46.0041358" lon="6.9522915"><ele>1450.5</ele></trkpt>
      <trkpt lat="46.0041265" lon="6.9526834"><ele>1454.9</ele></trkpt>
      <trkpt lat="46.0041721" lon="6.9528681"><ele>1459.1</ele></trkpt>
      <trkpt lat="46.0042633" lon="6.9532385"><ele>1462.6</ele></trkpt>
      <trkpt lat="46.0042685" lon="6.9534081"><ele>1466.6</ele></trkpt>
      <trkpt lat="46.0042796" lon="6.9537996"><ele>1471.0</ele></trkpt>
      <trkpt lat="46.0042898" lon="6.9541839"><ele>1475.5</ele></trkpt>
      <trkpt lat="46.0043004" lon="6.9545723"><ele>1479.7</ele></trkpt>
      <trkpt lat="46.0043115" lon="6.9549632"><ele>1483.4</ele></trkpt>
      <trkpt lat="46.0043365" lon="6.9552245"><ele>1487.5</ele></trkpt>
      <trkpt lat="46.0043740" lon="6.9556099"><ele>1491.7</ele></trkpt>
      <trkpt lat="46.0043766" lon="6.9556234"><ele>1496.2</ele></trkpt>
      <trkpt lat="46.0044415" lon="6.9559879"><ele>1501.6</ele></trkpt>
      <trkpt lat="46.0045060" lon="6.9563740"><ele>1506.5</ele></trkpt>
      <trkpt lat="46.0045734" lon="6.9567451"><ele>1512.8</ele></trkpt>
      <trkpt lat="46.0046393" lon="6.9571317"><ele>1520.6</ele></trkpt>
      <trkpt lat="46.0047043" lon="6.9573476"><ele>1530.6</ele></trkpt>
      <trkpt lat="46.0047178" lon="6.9574469"><ele>1541.1</ele></trkpt>
      <trkpt lat="46.0047892" lon="6.9578386"><ele>1552.4</ele></trkpt>
      <trkpt lat="46.0048536" lon="6.9582359"><ele>1563.4</ele></trkpt>
      <trkpt lat="46.0049017" lon="6.9586066"><ele>1574.3</ele></trkpt>
      <trkpt lat="46.0047818" lon="6.9589308"><ele>1584.6</ele></trkpt>
      <trkpt lat="46.0047363" lon="6.9591998"><ele>1596.3</ele></trkpt>
      <trkpt lat="46.0046599" lon="6.9595821"><ele>1608.1</ele></trkpt>
      <trkpt lat="46.0044790" lon="6.9598183"><ele>1618.0</ele></trkpt>
      <trkpt lat="46.0044509" lon="6.9599468"><ele>1627.8</ele></trkpt>
      <trkpt lat="46.0043553" lon="6.9603023"><ele>1638.8</ele></trkpt>
      <trkpt lat="46.0042643" lon="6.9606729"><ele>1650.3</ele></trkpt>
      <trkpt lat="46.0042768" lon="6.9607692"><ele>1662.4</ele></trkpt>
      <trkpt lat="46.0043633" lon="6.9611457"><ele>1676.4</ele></trkpt>
      <trkpt lat="46.0044576" lon="6.9615073"><ele>1690.7</ele></trkpt>
      <trkpt lat="46.0045499" lon="6.9618740"><ele>1704.6</ele></trkpt>
      <trkpt lat="46.0045687" lon="6.9620333"><ele>1717.0</ele></trkpt>
      <trkpt lat="46.0046190" lon="6.9624184"><ele>1731.9</ele></trkpt>
      <trkpt lat="46.0045810" lon="6.9627351"><ele>1746.0</ele></trkpt>
      <trkpt lat="46.0044857" lon="6.9629312"><ele>1760.4</ele></trkpt>
      <trkpt lat="46.0044412" lon="6.9629764"><ele>1775.0</ele></trkpt>
      <trkpt lat="46.0042137" lon="6.9632012"><ele>1788.7</ele></trkpt>
      <trkpt lat="46.0041260" lon="6.9633483"><ele>1801.6</ele></trkpt>
      <trkpt lat="46.0039544" lon="6.9636268"><ele>1813.2</ele></trkpt>
      <trkpt lat="46.0037729" lon="6.9638464"><ele>1824.3</ele></trkpt>
      <trkpt lat="46.0037300" lon="6.9639089"><ele>1835.4</ele></trkpt>
      <trkpt lat="46.0035420" lon="6.9641795"><ele>1844.4</ele></trkpt>
      <trkpt lat="46.0034989" lon="6.9642845"><ele>1852.3</ele></trkpt>
      <trkpt lat="46.0033554" lon="6.9646149"><ele>1858.3</ele></trkpt>
      <trkpt lat="46.0032187" lon="6.9649418"><ele>1862.8</ele></trkpt>
      <trkpt lat="46.0030802" lon="6.9652716"><ele>1867.5</ele></trkpt>
      <trkpt lat="46.0029322" lon="6.9655976"><ele>1870.8</ele></trkpt>
      <trkpt lat="46.0028140" lon="6.9658293"><ele>1875.2</ele></trkpt>
      <trkpt lat="46.0026607" lon="6.9661450"><ele>1879.2</ele></trkpt>
      <trkpt lat="46.0025089" lon="6.9664645"><ele>1884.8</ele></trkpt>
      <trkpt lat="46.0024864" lon="6.9664919"><ele>1891.9</ele></trkpt>
      <trkpt lat="46.0022904" lon="6.9667618"><ele>1901.3</ele></trkpt>
      <trkpt lat="46.0022611" lon="6.9668387"><ele>1910.7</ele></trkpt>
      <trkpt lat="46.0021157" lon="6.9671597"><ele>1921.5</ele></trkpt>
      <trkpt lat="46.0019731" lon="6.9675103"><ele>1934.7</ele></trkpt>
      <trkpt lat="46.0018417" lon="6.9678534"><ele>1949.2</ele></trkpt>
      <trkpt lat="46.0018273" lon="6.9681422"><ele>1964.0</ele></trkpt>
      <trkpt lat="46.0018102" lon="6.9685109"><ele>1980.1</ele></trkpt>
      <trkpt lat="46.0017993" lon="6.9688947"><ele>1995.7</ele></trkpt>
      <trkpt lat="46.0017799" lon="6.9692718"><ele>2010.2</ele></trkpt>
      <trkpt lat="46.0017281" lon="6.9695298"><ele>2024.1</ele></trkpt>
      <trkpt lat="46.0016432" lon="6.9699053"><ele>2037.5</ele></trkpt>
      <trkpt lat="46.0016743" lon="6.9702028"><ele>2050.9</ele></trkpt>
      <trkpt lat="46.0016840" lon="6.9702954"><ele>2061.4</ele></trkpt>
      <trkpt lat="46.0017077" lon="6.9706704"><ele>2072.0</ele></trkpt>
      <trkpt lat="46.0016918" lon="6.9708449"><ele>2082.8</ele></trkpt>
      <trkpt lat="46.0016411" lon="6.9712092"><ele>2093.9</ele></trkpt>
      <trkpt lat="46.0016415" lon="6.9712648"><ele>2104.0</ele></trkpt>
      <trkpt lat="46.0016394" lon="6.9716605"><ele>2114.5</ele></trkpt>
      <trkpt lat="46.0016431" lon="6.9720469"><ele>2124.0</ele></trkpt>
      <trkpt lat="46.0015866" lon="6.9723682"><ele>2134.5</ele></trkpt>
      <trkpt lat="46.0015985" lon="6.9724798"><ele>2144.6</ele></trkpt>
      <trkpt lat="46.0016352" lon="6.9728559"><ele>2156.1</ele></trkpt>
      <trkpt lat="46.0016367" lon="6.9731050"><ele>2166.6</ele></trkpt>
      <trkpt lat="46.0016410" lon="6.9734932"><ele>2175.6</ele></trkpt>
      <trkpt lat="46.0016459" lon="6.9738841"><ele>2184.5</ele></trkpt>
      <trkpt lat="46.0016501" lon="6.9742719"><ele>2194.5</ele></trkpt>
      <trkpt lat="46.0016283" lon="6.9744584"><ele>2203.8</ele></trkpt>
      <trkpt lat="46.0016272" lon="6.9744816"><ele>2213.7</ele></trkpt>
      <trkpt lat="46.0016093" lon="6.9748699"><ele>2223.7</ele></trkpt>
      <trkpt lat="46.0015920" lon="6.9752483"><ele>2233.6</ele></trkpt>
      <trkpt lat="46.0015428" lon="6.9754323"><ele>2243.6</ele></trkpt>
      <trkpt lat="46.0014518" lon="6.9758056"><ele>2253.6</ele></trkpt>
      <trkpt lat="46.0013551" lon="6.9761694"><ele>2264.7</ele></trkpt>
      <trkpt lat="46.0012554" lon="6.9765382"><ele>2275.6</ele></trkpt>
      <trkpt lat="46.0011586" lon="6.9768941"><ele>2286.2</ele></trkpt>
      <trkpt lat="46.0011054" lon="6.9770549"><ele>2297.2</ele></trkpt>
      <trkpt lat="46.0009846" lon="6.9774069"><ele>2307.3</ele></trkpt>
      <trkpt lat="46.0008663" lon="6.9777668"><ele>2317.4</ele></trkpt>
      <trkpt lat="46.0007457" lon="6.9781063"><ele>2326.4</ele></trkpt>
      <trkpt lat="46.0006304" lon="6.9784544"><ele>2334.8</ele></trkpt>
      <trkpt lat="46.0005992" lon="6.9786528"><ele>2343.5</ele></trkpt>
      <trkpt lat="46.0005444" lon="6.9790069"><ele>2352.3</ele></trkpt>
      <trkpt lat="46.0004857" lon="6.9792675"><ele>2361.4</ele></trkpt>
      <trkpt lat="46.0004087" lon="6.9796379"><ele>2371.4</ele></trkpt>
      <trkpt lat="46.0002995" lon="6.9799287"><ele>2380.1</ele></trkpt>
      <trkpt lat="46.0001748" lon="6.9802673"><ele>2389.1</ele></trkpt>
      <trkpt lat="46.0000440" lon="6.9805956"><ele>2398.3</ele></trkpt>
      <trkpt lat="45.9999632" lon="6.9807253"><ele>2407.9</ele></trkpt>
      <trkpt lat="45.9997816" lon="6.9810077"><ele>2418.0</ele></trkpt>
      <trkpt lat="45.9996051" lon="6.9812930"><ele>2427.5</ele></trkpt>
      <trkpt lat="45.9994165" lon="6.9815902"><ele>2437.1</ele></trkpt>
      <trkpt lat="45.9993104" lon="6.9818405"><ele>2446.3</ele></trkpt>
      <trkpt lat="45.9991698" lon="6.9821749"><ele>2453.9</ele></trkpt>
      <trkpt lat="45.9991092" lon="6.9822621"><ele>2462.6</ele></trkpt>
      <trkpt lat="45.9989233" lon="6.9825450"><ele>2471.3</ele></trkpt>
      <trkpt lat="45.9987406" lon="6.9828290"><ele>2479.5</ele></trkpt>
      <trkpt lat="45.9986921" lon="6.9829708"><ele>2487.1</ele></trkpt>
      <trkpt lat="45.9985556" lon="6.9833260"><ele>2494.5</ele></trkpt>
      <trkpt lat="45.9984263" lon="6.9836656"><ele>2502.5</ele></trkpt>
      <trkpt lat="45.9982985" lon="6.9839974"><ele>2510.3</ele></trkpt>
      <trkpt lat="45.9982360" lon="6.9841400"><ele>2516.8</ele></trkpt>
      <trkpt lat="45.9980659" lon="6.9844968"><ele>2523.8</ele></trkpt>
      <trkpt lat="45.9979113" lon="6.9848282"><ele>2529.9</ele></trkpt>
      <trkpt lat="45.9977562" lon="6.9851585"><ele>2536.2</ele></trkpt>
      <trkpt lat="45.9977481" lon="6.9851683"><ele>2543.1</ele></trkpt>
      <trkpt lat="45.9975412" lon="6.9854173"><ele>2550.1</ele></trkpt>
      <trkpt lat="45.9975338" lon="6.9854294"><ele>2557.5</ele></trkpt>
      <trkpt lat="45.9973509" lon="6.9857327"><ele>2567.3</ele></trkpt>
      <trkpt lat="45.9971970" lon="6.9860285"><ele>2574.1</ele></trkpt>
      <trkpt lat="45.9969708" lon="6.9861554"><ele>2579.5</ele></trkpt>
      <trkpt lat="45.9968554" lon="6.9863732"><ele>2584.0</ele></trkpt>
      <trkpt lat="45.9966909" lon="6.9866430"><ele>2587.7</ele></trkpt>
      <trkpt lat="45.9964795" lon="6.9867668"><ele>2589.4</ele></trkpt>
      <trkpt lat="45.9962447" lon="6.9868600"><ele>2589.2</ele></trkpt>
      <trkpt lat="45.9962399" lon="6.9868635"><ele>2589.4</ele></trkpt>
      <trkpt lat="45.9960131" lon="6.9870657"><ele>2587.2</ele></trkpt>
      <trkpt lat="45.9957755" lon="6.9872608"><ele>2581.9</ele></trkpt>
      <trkpt lat="45.9955910" lon="6.9873721"><ele>2578.8</ele></trkpt>
      <trkpt lat="45.9953337" lon="6.9875201"><ele>2577.6</ele></trkpt>
      <trkpt lat="45.9951378" lon="6.9875223"><ele>2576.6</ele></trkpt>
      <trkpt lat="45.9948718" lon="6.9875236"><ele>2576.3</ele></trkpt>
      <trkpt lat="45.9947178" lon="6.9875423"><ele>2576.8</ele></trkpt>
      <trkpt lat="45.9944549" lon="6.9875809"><ele>2577.6</ele></trkpt>
      <trkpt lat="45.9942442" lon="6.9877202"><ele>2577.9</ele></trkpt>
      <trkpt lat="45.9942100" lon="6.9877354"><ele>2579.3</ele></trkpt>
      <trkpt lat="45.9939178" lon="6.9878345"><ele>2580.8</ele></trkpt>
      <trkpt lat="45.9936563" lon="6.9879484"><ele>2582.2</ele></trkpt>
      <trkpt lat="45.9933827" lon="6.9880633"><ele>2583.5</ele></trkpt>
      <trkpt lat="45.9931289" lon="6.9881834"><ele>2585.0</ele></trkpt>
      <trkpt lat="45.9928652" lon="6.9883018"><ele>2586.5</ele></trkpt>
      <trkpt lat="45.9927242" lon="6.9883603"><ele>2588.3</ele></trkpt>
      <trkpt lat="45.9924610" lon="6.9884484"><ele>2590.1</ele></trkpt>
      <trkpt lat="45.9921997" lon="6.9885345"><ele>2591.9</ele></trkpt>
      <trkpt lat="45.9919597" lon="6.9886680"><ele>2593.7</ele></trkpt>
      <trkpt lat="45.9917076" lon="6.9888110"><ele>2595.2</ele></trkpt>
      <trkpt lat="45.9916019" lon="6.9887789"><ele>2596.5</ele></trkpt>
      <trkpt lat="45.9913311" lon="6.9886932"><ele>2597.4</ele></trkpt>
      <trkpt lat="45.9910671" lon="6.9886140"><ele>2598.0</ele></trkpt>
      <trkpt lat="45.9909014" lon="6.9886642"><ele>2598.9</ele></trkpt>
      <trkpt lat="45.9908358" lon="6.9886617"><ele>2599.8</ele></trkpt>
      <trkpt lat="45.9905639" lon="6.9886395"><ele>2600.8</ele></trkpt>
      <trkpt lat="45.9904727" lon="6.9886546"><ele>2601.7</ele></trkpt>
      <trkpt lat="45.9902047" lon="6.9886989"><ele>2602.7</ele></trkpt>
      <trkpt lat="45.9899366" lon="6.9887433"><ele>2603.9</ele></trkpt>
      <trkpt lat="45.9898738" lon="6.9887659"><ele>2605.6</ele></trkpt>
      <trkpt lat="45.9896120" lon="6.9888600"><ele>2607.9</ele></trkpt>
      <trkpt lat="45.9893503" lon="6.9889542"><ele>2610.5</ele></trkpt>
      <trkpt lat="45.9893118" lon="6.9889842"><ele>2613.7</ele></trkpt>
      <trkpt lat="45.9890759" lon="6.9891820"><ele>2617.6</ele></trkpt>
      <trkpt lat="45.9888397" lon="6.9893667"><ele>2622.3</ele></trkpt>
      <trkpt lat="45.9887453" lon="6.9893802"><ele>2627.8</ele></trkpt>
      <trkpt lat="45.9884778" lon="6.9894182"><ele>2633.9</ele></trkpt>
      <trkpt lat="45.9882057" lon="6.9894452"><ele>2641.0</ele></trkpt>
      <trkpt lat="45.9879372" lon="6.9894838"><ele>2648.0</ele></trkpt>
      <trkpt lat="45.9876687" lon="6.9895224"><ele>2654.7</ele></trkpt>
      <trkpt lat="45.9874003" lon="6.9895610"><ele>2662.1</ele></trkpt>
      <trkpt lat="45.9871318" lon="6.9895996"><ele>2669.0</ele></trkpt>
      <trkpt lat="45.9869393" lon="6.9898030"><ele>2676.1</ele></trkpt>
      <trkpt lat="45.9868826" lon="6.9898238"><ele>2683.2</ele></trkpt>
      <trkpt lat="45.9866212" lon="6.9899199"><ele>2690.0</ele></trkpt>
      <trkpt lat="45.9865248" lon="6.9899849"><ele>2696.1</ele></trkpt>
      <trkpt lat="45.9862804" lon="6.9901495"><ele>2701.8</ele></trkpt>
      <trkpt lat="45.9860361" lon="6.9903141"><ele>2707.1</ele></trkpt>
      <trkpt lat="45.9858457" lon="6.9902559"><ele>2712.8</ele></trkpt>
      <trkpt lat="45.9857501" lon="6.9902948"><ele>2718.1</ele></trkpt>
      <trkpt lat="45.9854904" lon="6.9904004"><ele>2723.5</ele></trkpt>
      <trkpt lat="45.9854511" lon="6.9904157"><ele>2728.3</ele></trkpt>
      <trkpt lat="45.9851906" lon="6.9905169"><ele>2732.1</ele></trkpt>
      <trkpt lat="45.9849302" lon="6.9906182"><ele>2735.6</ele></trkpt>
      <trkpt lat="45.9846955" lon="6.9904985"><ele>2739.0</ele></trkpt>
      <trkpt lat="45.9844412" lon="6.9903688"><ele>2742.8</ele></trkpt>
      <trkpt lat="45.9843551" lon="6.9903501"><ele>2746.8</ele></trkpt>
      <trkpt lat="45.9840884" lon="6.9902920"><ele>2751.0</ele></trkpt>
      <trkpt lat="45.9840790" lon="6.9903152"><ele>2755.4</ele></trkpt>
      <trkpt lat="45.9839437" lon="6.9906511"><ele>2760.3</ele></trkpt>
      <trkpt lat="45.9838869" lon="6.9906967"><ele>2765.8</ele></trkpt>
      <trkpt lat="45.9836512" lon="6.9908856"><ele>2772.0</ele></trkpt>
      <trkpt lat="45.9834155" lon="6.9910745"><ele>2778.8</ele></trkpt>
      <trkpt lat="45.9831798" lon="6.9912634"><ele>2786.4</ele></trkpt>
      <trkpt lat="45.9829441" lon="6.9914524"><ele>2793.9</ele></trkpt>
      <trkpt lat="45.9827084" lon="6.9916413"><ele>2802.2</ele></trkpt>
      <trkpt lat="45.9824727" lon="6.9918302"><ele>2810.4</ele></trkpt>
      <trkpt lat="45.9822370" lon="6.9920191"><ele>2818.6</ele></trkpt>
      <trkpt lat="45.9820013" lon="6.9922081"><ele>2826.9</ele></trkpt>
      <trkpt lat="45.9817656" lon="6.9923970"><ele>2835.1</ele></trkpt>
      <trkpt lat="45.9815299" lon="6.9925859"><ele>2843.3</ele></trkpt>
      <trkpt lat="45.9812942" lon="6.9927749"><ele>2851.6</ele></trkpt>
      <trkpt lat="45.9810585" lon="6.9929638"><ele>2859.8</ele></trkpt>
      <trkpt lat="45.9808228" lon="6.9931527"><ele>2868.0</ele></trkpt>
      <trkpt lat="45.9805871" lon="6.9933416"><ele>2876.3</ele></trkpt>
      <trkpt lat="45.9803514" lon="6.9935306"><ele>2884.5</ele></trkpt>
      <trkpt lat="45.9801158" lon="6.9937195"><ele>2892.7</ele></trkpt>
      <trkpt lat="45.9798801" lon="6.9939084"><ele>2901.0</ele></trkpt>
      <trkpt lat="45.9796444" lon="6.9940974"><ele>2909.2</ele></trkpt>
      <trkpt lat="45.9794087" lon="6.9942863"><ele>2917.4</ele></trkpt>
      <trkpt lat="45.9791730" lon="6.9944752"><ele>2925.6</ele></trkpt>
      <trkpt lat="45.9789373" lon="6.9946641"><ele>2933.9</ele></trkpt>
      <trkpt lat="45.9787016" lon="6.9948531"><ele>2942.2</ele></trkpt>
      <trkpt lat="45.9784659" lon="6.9950420"><ele>2950.4</ele></trkpt>
      <trkpt lat="45.9782302" lon="6.9952309"><ele>2958.7</ele></trkpt>
      <trkpt lat="45.9779979" lon="6.9954317"><ele>2966.9</ele></trkpt>
      <trkpt lat="45.9777622" lon="6.9956207"><ele>2975.2</ele></trkpt>
      <trkpt lat="45.9775265" lon="6.9958096"><ele>2983.4</ele></trkpt>
      <trkpt lat="45.9772917" lon="6.9959978"><ele>2991.7</ele></trkpt>
      <trkpt lat="45.9770570" lon="6.9961859"><ele>2999.9</ele></trkpt>
      <trkpt lat="45.9768221" lon="6.9963739"><ele>3008.1</ele></trkpt>
      <trkpt lat="45.9765803" lon="6.9965534"><ele>3016.3</ele></trkpt>
      <trkpt lat="45.9763446" lon="6.9967423"><ele>3024.5</ele></trkpt>
      <trkpt lat="45.9761089" lon="6.9969313"><ele>3032.7</ele></trkpt>
      <trkpt lat="45.9758732" lon="6.9971202"><ele>3040.9</ele></trkpt>
      <trkpt lat="45.9756375" lon="6.9973091"><ele>3049.1</ele></trkpt>
      <trkpt lat="45.9754019" lon="6.9974981"><ele>3057.3</ele></trkpt>
      <trkpt lat="45.9751662" lon="6.9976870"><ele>3065.6</ele></trkpt>
      <trkpt lat="45.9749305" lon="6.9978759"><ele>3073.8</ele></trkpt>
      <trkpt lat="45.9746948" lon="6.9980648"><ele>3082.0</ele></trkpt>
      <trkpt lat="45.9744591" lon="6.9982538"><ele>3090.3</ele></trkpt>
      <trkpt lat="45.9742234" lon="6.9984427"><ele>3098.5</ele></trkpt>
      <trkpt lat="45.9739877" lon="6.9986316"><ele>3106.7</ele></trkpt>
      <trkpt lat="45.9737520" lon="6.9988205"><ele>3115.0</ele></trkpt>
      <trkpt lat="45.9735163" lon="6.9990095"><ele>3123.2</ele></trkpt>
      <trkpt lat="45.9732806" lon="6.9991984"><ele>3131.4</ele></trkpt>
      <trkpt lat="45.9730449" lon="6.9993873"><ele>3139.7</ele></trkpt>
      <trkpt lat="45.9728092" lon="6.9995763"><ele>3147.9</ele></trkpt>
      <trkpt lat="45.9725735" lon="6.9997652"><ele>3156.1</ele></trkpt>
      <trkpt lat="45.9723378" lon="6.9999541"><ele>3164.4</ele></trkpt>
      <trkpt lat="45.9721021" lon="7.0001430"><ele>3171.8</ele></trkpt>
      <trkpt lat="45.9718664" lon="7.0003320"><ele>3178.8</ele></trkpt>
      <trkpt lat="45.9716307" lon="7.0005209"><ele>3184.8</ele></trkpt>
      <trkpt lat="45.9713950" lon="7.0007098"><ele>3189.9</ele></trkpt>
      <trkpt lat="45.9714118" lon="7.0007116"><ele>3194.1</ele></trkpt>
      <trkpt lat="45.9715871" lon="7.0008736"><ele>3199.1</ele></trkpt>
      <trkpt lat="45.9717268" lon="7.0009654"><ele>3206.0</ele></trkpt>
      <trkpt lat="45.9719722" lon="7.0011267"><ele>3214.7</ele></trkpt>
      <trkpt lat="45.9722098" lon="7.0010571"><ele>3223.1</ele></trkpt>
      <trkpt lat="45.9720600" lon="7.0012547"><ele>3236.6</ele></trkpt>
      <trkpt lat="45.9719262" lon="7.0015391"><ele>3255.0</ele></trkpt>
      <trkpt lat="45.9718714" lon="7.0017616"><ele>3274.4</ele></trkpt>
      <trkpt lat="45.9718477" lon="7.0017777"><ele>3297.1</ele></trkpt>
      <trkpt lat="45.9716035" lon="7.0019427"><ele>3323.3</ele></trkpt>
      <trkpt lat="45.9713592" lon="7.0021077"><ele>3348.8</ele></trkpt>
      <trkpt lat="45.9712821" lon="7.0021512"><ele>3374.0</ele></trkpt>
      <trkpt lat="45.9710310" lon="7.0022929"><ele>3396.6</ele></trkpt>
      <trkpt lat="45.9707622" lon="7.0024377"><ele>3423.8</ele></trkpt>
      <trkpt lat="45.9706512" lon="7.0024045"><ele>3451.2</ele></trkpt>
      <trkpt lat="45.9703866" lon="7.0023276"><ele>3476.6</ele></trkpt>
      <trkpt lat="45.9703803" lon="7.0023173"><ele>3506.5</ele></trkpt>
      <trkpt lat="45.9701835" lon="7.0020414"><ele>3538.3</ele></trkpt>
      <trkpt lat="45.9699737" lon="7.0017763"><ele>3568.0</ele></trkpt>
      <trkpt lat="45.9697294" lon="7.0016036"><ele>3596.6</ele></trkpt>
      <trkpt lat="45.9694597" lon="7.0015835"><ele>3626.7</ele></trkpt>
      <trkpt lat="45.9692020" lon="7.0016235"><ele>3657.0</ele></trkpt>
      <trkpt lat="45.9690750" lon="7.0013706"><ele>3674.5</ele></trkpt>
      <trkpt lat="45.9690718" lon="7.0013720"><ele>3689.8</ele></trkpt>
      <trkpt lat="45.9688816" lon="7.0015277"><ele>3705.4</ele></trkpt>
      <trkpt lat="45.9689211" lon="7.0011986"><ele>3717.3</ele></trkpt>
    </trkseg>
  </trk>
</gpx>