<?xml version="1.0" encoding="UTF-8"?>
<gpx version="1.1" creator="AlpHD" xmlns="http://www.topografix.com/GPX/1/1">
  <trk>
    <name>Triangle du Tacul — Goulotte Chéré</name>
    <trkseg>
      <trkpt lat="45.873350" lon="6.885860"><ele>3628.2</ele></trkpt>
      <trkpt lat="45.873564" lon="6.886260"><ele>3611.6</ele></trkpt>
      <trkpt lat="45.873939" lon="6.886280"><ele>3593.6</ele></trkpt>
      <trkpt lat="45.874094" lon="6.886527"><ele>3586.6</ele></trkpt>
      <trkpt lat="45.874060" lon="6.886896"><ele>3578.2</ele></trkpt>
      <trkpt lat="45.873858" lon="6.887312"><ele>3567.6</ele></trkpt>
      <trkpt lat="45.873286" lon="6.887736"><ele>3554.4</ele></trkpt>
      <trkpt lat="45.872210" lon="6.887645"><ele>3553.2</ele></trkpt>
      <trkpt lat="45.871836" lon="6.887753"><ele>3552.0</ele></trkpt>
      <trkpt lat="45.870926" lon="6.887781"><ele>3549.4</ele></trkpt>
      <trkpt lat="45.870231" lon="6.887486"><ele>3550.8</ele></trkpt>
      <trkpt lat="45.869951" lon="6.887560"><ele>3551.8</ele></trkpt>
      <trkpt lat="45.869516" lon="6.887557"><ele>3552.2</ele></trkpt>
      <trkpt lat="45.868050" lon="6.887446"><ele>3557.0</ele></trkpt>
      <trkpt lat="45.867076" lon="6.887569"><ele>3563.6</ele></trkpt>
      <trkpt lat="45.866249" lon="6.886919"><ele>3578.4</ele></trkpt>
      <trkpt lat="45.865555" lon="6.886036"><ele>3637.2</ele></trkpt>
      <trkpt lat="45.864795" lon="6.885349"><ele>3634.0</ele></trkpt>
      <trkpt lat="45.864582" lon="6.885515"><ele>3634.0</ele></trkpt>
      <trkpt lat="45.864780" lon="6.885501"><ele>3634.6</ele></trkpt>
      <trkpt lat="45.864462" lon="6.885472"><ele>3683.6</ele></trkpt>
      <trkpt lat="45.864265" lon="6.885673"><ele>3683.0</ele></trkpt>
      <trkpt lat="45.864252" lon="6.885325"><ele>3682.6</ele></trkpt>
      <trkpt lat="45.864249" lon="6.885595"><ele>3687.2</ele></trkpt>
      <trkpt lat="45.864026" lon="6.885526"><ele>3710.8</ele></trkpt>
      <trkpt lat="45.864190" lon="6.885635"><ele>3710.8</ele></trkpt>
      <trkpt lat="45.863992" lon="6.885546"><ele>3716.2</ele></trkpt>
      <trkpt lat="45.864168" lon="6.885620"><ele>3717.2</ele></trkpt>
      <trkpt lat="45.863846" lon="6.884716"><ele>3717.8</ele></trkpt>
      <trkpt lat="45.864097" lon="6.885304"><ele>3717.8</ele></trkpt>
      <trkpt lat="45.864235" lon="6.885716"><ele>3718.6</ele></trkpt>
      <trkpt lat="45.864026" lon="6.885552"><ele>3722.2</ele></trkpt>
      <trkpt lat="45.864229" lon="6.885645"><ele>3723.0</ele></trkpt>
      <trkpt lat="45.864034" lon="6.885617"><ele>3722.4</ele></trkpt>
      <trkpt lat="45.863853" lon="6.885445"><ele>3726.8</ele></trkpt>
      <trkpt lat="45.864123" lon="6.885609"><ele>3730.0</ele></trkpt>
      <trkpt lat="45.863913" lon="6.885478"><ele>3730.4</ele></trkpt>
      <trkpt lat="45.864105" lon="6.885651"><ele>3730.6</ele></trkpt>
      <trkpt lat="45.863870" lon="6.885487"><ele>3733.8</ele></trkpt>
      <trkpt lat="45.864108" lon="6.885820"><ele>3736.0</ele></trkpt>
      <trkpt lat="45.863869" lon="6.885494"><ele>3743.6</ele></trkpt>
      <trkpt lat="45.863447" lon="6.885262"><ele>3747.2</ele></trkpt>
      <trkpt lat="45.863872" lon="6.885628"><ele>3748.2</ele></trkpt>
      <trkpt lat="45.864137" lon="6.885707"><ele>3750.4</ele></trkpt>
      <trkpt lat="45.863927" lon="6.885566"><ele>3750.4</ele></trkpt>
      <trkpt lat="45.863744" lon="6.885689"><ele>3761.0</ele></trkpt>
      <trkpt lat="45.863919" lon="6.885813"><ele>3764.0</ele></trkpt>
      <trkpt lat="45.864173" lon="6.885671"><ele>3760.0</ele></trkpt>
      <trkpt lat="45.863896" lon="6.885787"><ele>3761.6</ele></trkpt>
      <trkpt lat="45.864234" lon="6.885545"><ele>3769.2</ele></trkpt>
      <trkpt lat="45.864422" lon="6.885590"><ele>3769.2</ele></trkpt>
      <trkpt lat="45.864132" lon="6.885828"><ele>3770.0</ele></trkpt>
      <trkpt lat="45.863857" lon="6.886080"><ele>3769.8</ele></trkpt>
      <trkpt lat="45.863381" lon="6.886343"><ele>3771.4</ele></trkpt>
      <trkpt lat="45.863094" lon="6.886235"><ele>3773.4</ele></trkpt>
      <trkpt lat="45.862398" lon="6.886277"><ele>3773.6</ele></trkpt>
      <trkpt lat="45.862099" lon="6.886076"><ele>3774.4</ele></trkpt>
      <trkpt lat="45.861912" lon="6.886016"><ele>3776.0</ele></trkpt>
      <trkpt lat="45.861150" lon="6.886141"><ele>3783.2</ele></trkpt>
      <trkpt lat="45.860886" lon="6.886307"><ele>3783.4</ele></trkpt>
      <trkpt lat="45.860684" lon="6.886402"><ele>3784.6</ele></trkpt>
      <trkpt lat="45.863794" lon="6.885752"><ele>3799.2</ele></trkpt>
    </trkseg>
  </trk>
</gpx>