<?xml version="1.0" encoding="UTF-8"?>
<gpx version="1.1" creator="AlpHD-batch" xmlns="http://www.topografix.com/GPX/1/1">
  <trk>
    <name>Greben Jardin</name>
    <trkseg>
      <trkpt lat="45.9104833" lon="6.9659702"><ele>2706.7</ele></trkpt>
      <trkpt lat="45.9105019" lon="6.9659606"><ele>2708.9</ele></trkpt>
      <trkpt lat="45.9105791" lon="6.9660209"><ele>2710.7</ele></trkpt>
      <trkpt lat="45.9108099" lon="6.9661963"><ele>2713.1</ele></trkpt>
      <trkpt lat="45.9109485" lon="6.9662091"><ele>2715.9</ele></trkpt>
      <trkpt lat="45.9112227" lon="6.9662431"><ele>2719.7</ele></trkpt>
      <trkpt lat="45.9112793" lon="6.9663038"><ele>2724.7</ele></trkpt>
      <trkpt lat="45.9114928" lon="6.9665244"><ele>2730.0</ele></trkpt>
      <trkpt lat="45.9116721" lon="6.9666476"><ele>2736.4</ele></trkpt>
      <trkpt lat="45.9117175" lon="6.9666841"><ele>2743.3</ele></trkpt>
      <trkpt lat="45.9119390" lon="6.9668905"><ele>2749.6</ele></trkpt>
      <trkpt lat="45.9120262" lon="6.9669482"><ele>2758.0</ele></trkpt>
      <trkpt lat="45.9122669" lon="6.9671216"><ele>2765.7</ele></trkpt>
      <trkpt lat="45.9125136" lon="6.9672918"><ele>2773.5</ele></trkpt>
      <trkpt lat="45.9125372" lon="6.9672976"><ele>2782.1</ele></trkpt>
      <trkpt lat="45.9128030" lon="6.9673636"><ele>2790.6</ele></trkpt>
      <trkpt lat="45.9128575" lon="6.9674129"><ele>2799.6</ele></trkpt>
      <trkpt lat="45.9130850" lon="6.9676150"><ele>2808.4</ele></trkpt>
      <trkpt lat="45.9133209" lon="6.9678149"><ele>2816.1</ele></trkpt>
      <trkpt lat="45.9135512" lon="6.9680156"><ele>2823.7</ele></trkpt>
      <trkpt lat="45.9137850" lon="6.9682175"><ele>2828.9</ele></trkpt>
      <trkpt lat="45.9140135" lon="6.9684183"><ele>2834.0</ele></trkpt>
      <trkpt lat="45.9138870" lon="6.9686178"><ele>2838.1</ele></trkpt>
      <trkpt lat="45.9137040" lon="6.9689022"><ele>2841.3</ele></trkpt>
      <trkpt lat="45.9135224" lon="6.9691876"><ele>2843.7</ele></trkpt>
      <trkpt lat="45.9133379" lon="6.9694719"><ele>2845.2</ele></trkpt>
      <trkpt lat="45.9131516" lon="6.9697565"><ele>2845.8</ele></trkpt>
      <trkpt lat="45.9129671" lon="6.9700535"><ele>2846.4</ele></trkpt>
      <trkpt lat="45.9127846" lon="6.9703512"><ele>2847.0</ele></trkpt>
      <trkpt lat="45.9126016" lon="6.9706361"><ele>2847.6</ele></trkpt>
      <trkpt lat="45.9124186" lon="6.9709210"><ele>2848.2</ele></trkpt>
      <trkpt lat="45.9122356" lon="6.9712059"><ele>2848.8</ele></trkpt>
      <trkpt lat="45.9120526" lon="6.9714908"><ele>2849.4</ele></trkpt>
      <trkpt lat="45.9118696" lon="6.9717757"><ele>2850.0</ele></trkpt>
      <trkpt lat="45.9116866" lon="6.9720606"><ele>2850.5</ele></trkpt>
      <trkpt lat="45.9115036" lon="6.9723455"><ele>2851.1</ele></trkpt>
      <trkpt lat="45.9113206" lon="6.9726305"><ele>2851.7</ele></trkpt>
      <trkpt lat="45.9111376" lon="6.9729154"><ele>2852.2</ele></trkpt>
      <trkpt lat="45.9109546" lon="6.9732003"><ele>2852.8</ele></trkpt>
      <trkpt lat="45.9107716" lon="6.9734852"><ele>2853.3</ele></trkpt>
      <trkpt lat="45.9105886" lon="6.9737701"><ele>2853.9</ele></trkpt>
      <trkpt lat="45.9104056" lon="6.9740550"><ele>2854.5</ele></trkpt>
      <trkpt lat="45.9102226" lon="6.9743399"><ele>2855.0</ele></trkpt>
      <trkpt lat="45.9100396" lon="6.9746248"><ele>2855.6</ele></trkpt>
      <trkpt lat="45.9098566" lon="6.9749097"><ele>2856.2</ele></trkpt>
      <trkpt lat="45.9096736" lon="6.9751946"><ele>2856.7</ele></trkpt>
      <trkpt lat="45.9094906" lon="6.9754795"><ele>2857.3</ele></trkpt>
      <trkpt lat="45.9093076" lon="6.9757644"><ele>2857.8</ele></trkpt>
      <trkpt lat="45.9091246" lon="6.9760493"><ele>2858.4</ele></trkpt>
      <trkpt lat="45.9089416" lon="6.9763342"><ele>2859.0</ele></trkpt>
      <trkpt lat="45.9087586" lon="6.9766191"><ele>2859.5</ele></trkpt>
      <trkpt lat="45.9085756" lon="6.9769040"><ele>2860.1</ele></trkpt>
      <trkpt lat="45.9083926" lon="6.9771889"><ele>2860.6</ele></trkpt>
      <trkpt lat="45.9082096" lon="6.9774738"><ele>2861.2</ele></trkpt>
      <trkpt lat="45.9080266" lon="6.9777587"><ele>2861.8</ele></trkpt>
      <trkpt lat="45.9078436" lon="6.9780436"><ele>2862.3</ele></trkpt>
      <trkpt lat="45.9076606" lon="6.9783286"><ele>2862.9</ele></trkpt>
      <trkpt lat="45.9074776" lon="6.9786135"><ele>2863.4</ele></trkpt>
      <trkpt lat="45.9072946" lon="6.9788984"><ele>2864.0</ele></trkpt>
      <trkpt lat="45.9071116" lon="6.9791833"><ele>2864.6</ele></trkpt>
      <trkpt lat="45.9069286" lon="6.9794682"><ele>2865.1</ele></trkpt>
      <trkpt lat="45.9067456" lon="6.9797531"><ele>2865.7</ele></trkpt>
      <trkpt lat="45.9065626" lon="6.9800380"><ele>2866.2</ele></trkpt>
      <trkpt lat="45.9063796" lon="6.9803229"><ele>2866.8</ele></trkpt>
      <trkpt lat="45.9061966" lon="6.9806078"><ele>2867.4</ele></trkpt>
      <trkpt lat="45.9060136" lon="6.9808927"><ele>2867.9</ele></trkpt>
      <trkpt lat="45.9058306" lon="6.9811776"><ele>2868.5</ele></trkpt>
      <trkpt lat="45.9056476" lon="6.9814625"><ele>2869.0</ele></trkpt>
      <trkpt lat="45.9054646" lon="6.9817474"><ele>2869.6</ele></trkpt>
      <trkpt lat="45.9052816" lon="6.9820323"><ele>2870.2</ele></trkpt>
      <trkpt lat="45.9050986" lon="6.9823172"><ele>2870.7</ele></trkpt>
      <trkpt lat="45.9049156" lon="6.9826021"><ele>2871.3</ele></trkpt>
      <trkpt lat="45.9047326" lon="6.9828870"><ele>2871.8</ele></trkpt>
      <trkpt lat="45.9045496" lon="6.9831719"><ele>2872.4</ele></trkpt>
      <trkpt lat="45.9043666" lon="6.9834568"><ele>2873.0</ele></trkpt>
      <trkpt lat="45.9041836" lon="6.9837418"><ele>2873.5</ele></trkpt>
      <trkpt lat="45.9040006" lon="6.9840267"><ele>2874.1</ele></trkpt>
      <trkpt lat="45.9038176" lon="6.9843116"><ele>2874.6</ele></trkpt>
      <trkpt lat="45.9036346" lon="6.9845965"><ele>2875.2</ele></trkpt>
      <trkpt lat="45.9034516" lon="6.9848814"><ele>2875.8</ele></trkpt>
      <trkpt lat="45.9032685" lon="6.9851663"><ele>2876.3</ele></trkpt>
      <trkpt lat="45.9030855" lon="6.9854512"><ele>2876.9</ele></trkpt>
      <trkpt lat="45.9029025" lon="6.9857361"><ele>2877.5</ele></trkpt>
      <trkpt lat="45.9027195" lon="6.9860210"><ele>2878.0</ele></trkpt>
      <trkpt lat="45.9025365" lon="6.9863059"><ele>2878.6</ele></trkpt>
      <trkpt lat="45.9023535" lon="6.9865908"><ele>2879.1</ele></trkpt>
      <trkpt lat="45.9021705" lon="6.9868757"><ele>2879.7</ele></trkpt>
      <trkpt lat="45.9019875" lon="6.9871606"><ele>2880.3</ele></trkpt>
      <trkpt lat="45.9018045" lon="6.9874455"><ele>2880.8</ele></trkpt>
      <trkpt lat="45.9016215" lon="6.9877304"><ele>2881.4</ele></trkpt>
      <trkpt lat="45.9014385" lon="6.9880153"><ele>2881.9</ele></trkpt>
      <trkpt lat="45.9012555" lon="6.9883002"><ele>2882.5</ele></trkpt>
      <trkpt lat="45.9010725" lon="6.9885851"><ele>2883.1</ele></trkpt>
      <trkpt lat="45.9008895" lon="6.9888700"><ele>2883.7</ele></trkpt>
      <trkpt lat="45.9007065" lon="6.9891550"><ele>2884.5</ele></trkpt>
      <trkpt lat="45.9005235" lon="6.9894399"><ele>2885.3</ele></trkpt>
      <trkpt lat="45.9006104" lon="6.9892753"><ele>2886.2</ele></trkpt>
      <trkpt lat="45.9007734" lon="6.9889664"><ele>2887.3</ele></trkpt>
      <trkpt lat="45.9009364" lon="6.9886575"><ele>2888.5</ele></trkpt>
      <trkpt lat="45.9010994" lon="6.9883486"><ele>2889.9</ele></trkpt>
      <trkpt lat="45.9012248" lon="6.9881917"><ele>2891.4</ele></trkpt>
      <trkpt lat="45.9014284" lon="6.9879372"><ele>2893.1</ele></trkpt>
      <trkpt lat="45.9016319" lon="6.9876826"><ele>2894.8</ele></trkpt>
      <trkpt lat="45.9018354" lon="6.9874281"><ele>2896.6</ele></trkpt>
      <trkpt lat="45.9020389" lon="6.9871735"><ele>2898.5</ele></trkpt>
      <trkpt lat="45.9022424" lon="6.9869190"><ele>2900.5</ele></trkpt>
      <trkpt lat="45.9024459" lon="6.9866644"><ele>2902.4</ele></trkpt>
      <trkpt lat="45.9026495" lon="6.9864099"><ele>2904.4</ele></trkpt>
      <trkpt lat="45.9028530" lon="6.9861554"><ele>2906.4</ele></trkpt>
      <trkpt lat="45.9030565" lon="6.9859008"><ele>2908.3</ele></trkpt>
      <trkpt lat="45.9032600" lon="6.9856463"><ele>2910.3</ele></trkpt>
      <trkpt lat="45.9034635" lon="6.9853917"><ele>2912.2</ele></trkpt>
      <trkpt lat="45.9036671" lon="6.9851372"><ele>2914.2</ele></trkpt>
      <trkpt lat="45.9038706" lon="6.9848826"><ele>2916.1</ele></trkpt>
      <trkpt lat="45.9040741" lon="6.9846281"><ele>2918.1</ele></trkpt>
      <trkpt lat="45.9042776" lon="6.9843735"><ele>2920.1</ele></trkpt>
      <trkpt lat="45.9044811" lon="6.9841190"><ele>2922.0</ele></trkpt>
      <trkpt lat="45.9046847" lon="6.9838644"><ele>2924.0</ele></trkpt>
      <trkpt lat="45.9048882" lon="6.9836099"><ele>2925.9</ele></trkpt>
      <trkpt lat="45.9050917" lon="6.9833554"><ele>2927.9</ele></trkpt>
      <trkpt lat="45.9052952" lon="6.9831008"><ele>2929.9</ele></trkpt>
      <trkpt lat="45.9054987" lon="6.9828463"><ele>2931.8</ele></trkpt>
      <trkpt lat="45.9057023" lon="6.9825917"><ele>2933.8</ele></trkpt>
      <trkpt lat="45.9059058" lon="6.9823372"><ele>2935.7</ele></trkpt>
      <trkpt lat="45.9061093" lon="6.9820826"><ele>2937.7</ele></trkpt>
      <trkpt lat="45.9063128" lon="6.9818281"><ele>2939.6</ele></trkpt>
      <trkpt lat="45.9065163" lon="6.9815735"><ele>2941.6</ele></trkpt>
      <trkpt lat="45.9067198" lon="6.9813190"><ele>2943.6</ele></trkpt>
      <trkpt lat="45.9069234" lon="6.9810644"><ele>2945.5</ele></trkpt>
      <trkpt lat="45.9071269" lon="6.9808099"><ele>2947.5</ele></trkpt>
      <trkpt lat="45.9073304" lon="6.9805554"><ele>2949.4</ele></trkpt>
      <trkpt lat="45.9075339" lon="6.9803008"><ele>2951.4</ele></trkpt>
      <trkpt lat="45.9077374" lon="6.9800463"><ele>2953.4</ele></trkpt>
      <trkpt lat="45.9079410" lon="6.9797917"><ele>2955.3</ele></trkpt>
      <trkpt lat="45.9081445" lon="6.9795372"><ele>2957.3</ele></trkpt>
      <trkpt lat="45.9083480" lon="6.9792826"><ele>2959.2</ele></trkpt>
      <trkpt lat="45.9085515" lon="6.9790281"><ele>2961.2</ele></trkpt>
      <trkpt lat="45.9087550" lon="6.9787735"><ele>2963.1</ele></trkpt>
      <trkpt lat="45.9089586" lon="6.9785190"><ele>2965.1</ele></trkpt>
      <trkpt lat="45.9091621" lon="6.9782644"><ele>2967.1</ele></trkpt>
      <trkpt lat="45.9093656" lon="6.9780099"><ele>2969.0</ele></trkpt>
      <trkpt lat="45.9095691" lon="6.9777554"><ele>2971.0</ele></trkpt>
      <trkpt lat="45.9097726" lon="6.9775008"><ele>2972.9</ele></trkpt>
      <trkpt lat="45.9099762" lon="6.9772463"><ele>2974.9</ele></trkpt>
      <trkpt lat="45.9101797" lon="6.9769917"><ele>2976.9</ele></trkpt>
      <trkpt lat="45.9103832" lon="6.9767372"><ele>2978.8</ele></trkpt>
      <trkpt lat="45.9105867" lon="6.9764826"><ele>2980.8</ele></trkpt>
      <trkpt lat="45.9107902" lon="6.9762281"><ele>2982.7</ele></trkpt>
      <trkpt lat="45.9109937" lon="6.9759735"><ele>2984.7</ele></trkpt>
      <trkpt lat="45.9111973" lon="6.9757190"><ele>2986.6</ele></trkpt>
      <trkpt lat="45.9114008" lon="6.9754644"><ele>2988.6</ele></trkpt>
      <trkpt lat="45.9116043" lon="6.9752099"><ele>2990.6</ele></trkpt>
      <trkpt lat="45.9118078" lon="6.9749554"><ele>2992.5</ele></trkpt>
      <trkpt lat="45.9120113" lon="6.9747008"><ele>2994.5</ele></trkpt>
      <trkpt lat="45.9122149" lon="6.9744463"><ele>2996.4</ele></trkpt>
      <trkpt lat="45.9124184" lon="6.9741917"><ele>2998.4</ele></trkpt>
      <trkpt lat="45.9126219" lon="6.9739372"><ele>3000.4</ele></trkpt>
      <trkpt lat="45.9128254" lon="6.9736826"><ele>3002.3</ele></trkpt>
      <trkpt lat="45.9130289" lon="6.9734281"><ele>3004.3</ele></trkpt>
      <trkpt lat="45.9132325" lon="6.9731735"><ele>3006.2</ele></trkpt>
      <trkpt lat="45.9134360" lon="6.9729190"><ele>3008.2</ele></trkpt>
      <trkpt lat="45.9136395" lon="6.9726644"><ele>3010.1</ele></trkpt>
      <trkpt lat="45.9138430" lon="6.9724099"><ele>3012.1</ele></trkpt>
      <trkpt lat="45.9140465" lon="6.9721554"><ele>3013.9</ele></trkpt>
      <trkpt lat="45.9142501" lon="6.9719008"><ele>3015.8</ele></trkpt>
      <trkpt lat="45.9144536" lon="6.9716463"><ele>3017.6</ele></trkpt>
      <trkpt lat="45.9146571" lon="6.9713917"><ele>3019.4</ele></trkpt>
      <trkpt lat="45.9147665" lon="6.9713116"><ele>3021.2</ele></trkpt>
      <trkpt lat="45.9150068" lon="6.9711354"><ele>3023.0</ele></trkpt>
      <trkpt lat="45.9152472" lon="6.9709592"><ele>3024.8</ele></trkpt>
      <trkpt lat="45.9154875" lon="6.9707830"><ele>3026.5</ele></trkpt>
      <trkpt lat="45.9157279" lon="6.9706069"><ele>3028.3</ele></trkpt>
      <trkpt lat="45.9159682" lon="6.9704307"><ele>3030.2</ele></trkpt>
      <trkpt lat="45.9162086" lon="6.9702545"><ele>3032.0</ele></trkpt>
      <trkpt lat="45.9164489" lon="6.9700784"><ele>3033.9</ele></trkpt>
      <trkpt lat="45.9166893" lon="6.9699022"><ele>3035.8</ele></trkpt>
      <trkpt lat="45.9169296" lon="6.9697260"><ele>3037.7</ele></trkpt>
      <trkpt lat="45.9171700" lon="6.9695499"><ele>3039.5</ele></trkpt>
      <trkpt lat="45.9174104" lon="6.9693737"><ele>3041.4</ele></trkpt>
      <trkpt lat="45.9176507" lon="6.9691975"><ele>3043.3</ele></trkpt>
      <trkpt lat="45.9178911" lon="6.9690214"><ele>3045.2</ele></trkpt>
      <trkpt lat="45.9181314" lon="6.9688452"><ele>3047.0</ele></trkpt>
      <trkpt lat="45.9183718" lon="6.9686690"><ele>3048.9</ele></trkpt>
      <trkpt lat="45.9186121" lon="6.9684928"><ele>3050.8</ele></trkpt>
      <trkpt lat="45.9188525" lon="6.9683167"><ele>3052.6</ele></trkpt>
      <trkpt lat="45.9190928" lon="6.9681405"><ele>3054.5</ele></trkpt>
      <trkpt lat="45.9193332" lon="6.9679643"><ele>3056.4</ele></trkpt>
      <trkpt lat="45.9195735" lon="6.9677882"><ele>3058.3</ele></trkpt>
      <trkpt lat="45.9198139" lon="6.9676120"><ele>3060.1</ele></trkpt>
      <trkpt lat="45.9200584" lon="6.9674245"><ele>3062.0</ele></trkpt>
      <trkpt lat="45.9202981" lon="6.9672479"><ele>3063.8</ele></trkpt>
      <trkpt lat="45.9205382" lon="6.9670716"><ele>3065.7</ele></trkpt>
      <trkpt lat="45.9207790" lon="6.9668957"><ele>3067.6</ele></trkpt>
      <trkpt lat="45.9210183" lon="6.9667190"><ele>3069.5</ele></trkpt>
      <trkpt lat="45.9212592" lon="6.9665432"><ele>3071.4</ele></trkpt>
      <trkpt lat="45.9215052" lon="6.9663570"><ele>3073.4</ele></trkpt>
      <trkpt lat="45.9217430" lon="6.9661794"><ele>3076.5</ele></trkpt>
      <trkpt lat="45.9219828" lon="6.9660036"><ele>3080.8</ele></trkpt>
      <trkpt lat="45.9222258" lon="6.9658289"><ele>3085.3</ele></trkpt>
      <trkpt lat="45.9224701" lon="6.9656656"><ele>3091.3</ele></trkpt>
      <trkpt lat="45.9226449" lon="6.9658748"><ele>3097.1</ele></trkpt>
      <trkpt lat="45.9228047" lon="6.9660271"><ele>3103.6</ele></trkpt>
      <trkpt lat="45.9228646" lon="6.9660566"><ele>3110.9</ele></trkpt>
      <trkpt lat="45.9231174" lon="6.9661884"><ele>3118.9</ele></trkpt>
      <trkpt lat="45.9231216" lon="6.9661907"><ele>3127.5</ele></trkpt>
      <trkpt lat="45.9233683" lon="6.9663292"><ele>3135.1</ele></trkpt>
      <trkpt lat="45.9236175" lon="6.9664772"><ele>3142.2</ele></trkpt>
      <trkpt lat="45.9238681" lon="6.9666204"><ele>3149.0</ele></trkpt>
      <trkpt lat="45.9241222" lon="6.9667629"><ele>3154.9</ele></trkpt>
      <trkpt lat="45.9241839" lon="6.9668126"><ele>3161.8</ele></trkpt>
      <trkpt lat="45.9244181" lon="6.9669978"><ele>3168.2</ele></trkpt>
      <trkpt lat="45.9244463" lon="6.9670501"><ele>3173.9</ele></trkpt>
      <trkpt lat="45.9245930" lon="6.9673587"><ele>3179.6</ele></trkpt>
      <trkpt lat="45.9247470" lon="6.9676718"><ele>3184.8</ele></trkpt>
      <trkpt lat="45.9248982" lon="6.9678122"><ele>3191.1</ele></trkpt>
      <trkpt lat="45.9249476" lon="6.9678810"><ele>3197.9</ele></trkpt>
      <trkpt lat="45.9251335" lon="6.9681612"><ele>3206.7</ele></trkpt>
      <trkpt lat="45.9253210" lon="6.9684469"><ele>3215.3</ele></trkpt>
      <trkpt lat="45.9255157" lon="6.9687245"><ele>3224.3</ele></trkpt>
      <trkpt lat="45.9256763" lon="6.9687181"><ele>3234.1</ele></trkpt>
      <trkpt lat="45.9259518" lon="6.9687087"><ele>3244.8</ele></trkpt>
      <trkpt lat="45.9261203" lon="6.9689791"><ele>3255.7</ele></trkpt>
      <trkpt lat="45.9263448" lon="6.9690773"><ele>3267.5</ele></trkpt>
      <trkpt lat="45.9266114" lon="6.9691880"><ele>3278.9</ele></trkpt>
      <trkpt lat="45.9268604" lon="6.9693001"><ele>3289.2</ele></trkpt>
      <trkpt lat="45.9271221" lon="6.9694291"><ele>3298.2</ele></trkpt>
      <trkpt lat="45.9273231" lon="6.9696432"><ele>3307.4</ele></trkpt>
      <trkpt lat="45.9274623" lon="6.9698753"><ele>3315.9</ele></trkpt>
      <trkpt lat="45.9275201" lon="6.9699809"><ele>3323.5</ele></trkpt>
      <trkpt lat="45.9276826" lon="6.9702789"><ele>3330.2</ele></trkpt>
      <trkpt lat="45.9278495" lon="6.9705801"><ele>3336.5</ele></trkpt>
      <trkpt lat="45.9279188" lon="6.9708430"><ele>3341.5</ele></trkpt>
      <trkpt lat="45.9280012" lon="6.9712053"><ele>3345.8</ele></trkpt>
      <trkpt lat="45.9280159" lon="6.9714597"><ele>3350.2</ele></trkpt>
      <trkpt lat="45.9280257" lon="6.9718479"><ele>3354.0</ele></trkpt>
      <trkpt lat="45.9280548" lon="6.9719590"><ele>3357.6</ele></trkpt>
      <trkpt lat="45.9281530" lon="6.9723211"><ele>3361.6</ele></trkpt>
      <trkpt lat="45.9282505" lon="6.9726823"><ele>3365.5</ele></trkpt>
      <trkpt lat="45.9283490" lon="6.9730454"><ele>3370.4</ele></trkpt>
      <trkpt lat="45.9285470" lon="6.9732619"><ele>3375.0</ele></trkpt>
      <trkpt lat="45.9287621" lon="6.9734967"><ele>3380.7</ele></trkpt>
      <trkpt lat="45.9288328" lon="6.9735496"><ele>3386.3</ele></trkpt>
      <trkpt lat="45.9290673" lon="6.9737211"><ele>3392.5</ele></trkpt>
      <trkpt lat="45.9291419" lon="6.9737174"><ele>3398.7</ele></trkpt>
      <trkpt lat="45.9294182" lon="6.9737113"><ele>3404.9</ele></trkpt>
      <trkpt lat="45.9294580" lon="6.9738132"><ele>3410.6</ele></trkpt>
      <trkpt lat="45.9295883" lon="6.9741528"><ele>3417.6</ele></trkpt>
      <trkpt lat="45.9295843" lon="6.9743739"><ele>3423.4</ele></trkpt>
      <trkpt lat="45.9295804" lon="6.9747586"><ele>3430.0</ele></trkpt>
      <trkpt lat="45.9296090" lon="6.9748635"><ele>3435.5</ele></trkpt>
      <trkpt lat="45.9297058" lon="6.9752243"><ele>3441.6</ele></trkpt>
      <trkpt lat="45.9297326" lon="6.9752416"><ele>3447.5</ele></trkpt>
      <trkpt lat="45.9299836" lon="6.9754003"><ele>3453.3</ele></trkpt>
      <trkpt lat="45.9299982" lon="6.9754072"><ele>3459.0</ele></trkpt>
      <trkpt lat="45.9302494" lon="6.9755358"><ele>3464.8</ele></trkpt>
      <trkpt lat="45.9304942" lon="6.9756756"><ele>3469.7</ele></trkpt>
      <trkpt lat="45.9305814" lon="6.9759062"><ele>3475.4</ele></trkpt>
      <trkpt lat="45.9307122" lon="6.9762451"><ele>3480.6</ele></trkpt>
      <trkpt lat="45.9307340" lon="6.9764765"><ele>3487.1</ele></trkpt>
      <trkpt lat="45.9307790" lon="6.9768590"><ele>3492.4</ele></trkpt>
      <trkpt lat="45.9309191" lon="6.9771009"><ele>3497.4</ele></trkpt>
      <trkpt lat="45.9310152" lon="6.9771486"><ele>3502.2</ele></trkpt>
      <trkpt lat="45.9312715" lon="6.9772876"><ele>3506.6</ele></trkpt>
      <trkpt lat="45.9310955" lon="6.9774584"><ele>3511.3</ele></trkpt>
      <trkpt lat="45.9311894" lon="6.9772774"><ele>3515.6</ele></trkpt>
      <trkpt lat="45.9311970" lon="6.9775260"><ele>3519.9</ele></trkpt>
      <trkpt lat="45.9311960" lon="6.9775281"><ele>3524.3</ele></trkpt>
      <trkpt lat="45.9310460" lon="6.9778488"><ele>3528.5</ele></trkpt>
      <trkpt lat="45.9310178" lon="6.9779363"><ele>3533.6</ele></trkpt>
      <trkpt lat="45.9309045" lon="6.9783005"><ele>3540.0</ele></trkpt>
      <trkpt lat="45.9308442" lon="6.9784551"><ele>3547.9</ele></trkpt>
      <trkpt lat="45.9307076" lon="6.9787892"><ele>3556.2</ele></trkpt>
      <trkpt lat="45.9305108" lon="6.9788688"><ele>3564.0</ele></trkpt>
      <trkpt lat="45.9305376" lon="6.9790056"><ele>3571.8</ele></trkpt>
      <trkpt lat="45.9306260" lon="6.9789045"><ele>3579.2</ele></trkpt>
      <trkpt lat="45.9306340" lon="6.9786230"><ele>3586.9</ele></trkpt>
      <trkpt lat="45.9306445" lon="6.9782340"><ele>3594.3</ele></trkpt>
      <trkpt lat="45.9305681" lon="6.9785294"><ele>3602.1</ele></trkpt>
      <trkpt lat="45.9306524" lon="6.9787015"><ele>3610.6</ele></trkpt>
      <trkpt lat="45.9308083" lon="6.9790182"><ele>3618.0</ele></trkpt>
      <trkpt lat="45.9309650" lon="6.9793359"><ele>3626.3</ele></trkpt>
      <trkpt lat="45.9311209" lon="6.9796525"><ele>3634.1</ele></trkpt>
      <trkpt lat="45.9313172" lon="6.9798240"><ele>3641.9</ele></trkpt>
      <trkpt lat="45.9312917" lon="6.9795656"><ele>3650.0</ele></trkpt>
      <trkpt lat="45.9312541" lon="6.9791835"><ele>3659.2</ele></trkpt>
      <trkpt lat="45.9312288" lon="6.9795467"><ele>3668.4</ele></trkpt>
      <trkpt lat="45.9312670" lon="6.9796863"><ele>3680.2</ele></trkpt>
      <trkpt lat="45.9313672" lon="6.9800476"><ele>3690.5</ele></trkpt>
      <trkpt lat="45.9315164" lon="6.9802164"><ele>3701.9</ele></trkpt>
      <trkpt lat="45.9315940" lon="6.9802436"><ele>3712.6</ele></trkpt>
      <trkpt lat="45.9318545" lon="6.9803353"><ele>3723.4</ele></trkpt>
      <trkpt lat="45.9318865" lon="6.9802055"><ele>3734.4</ele></trkpt>
      <trkpt lat="45.9319766" lon="6.9798399"><ele>3744.9</ele></trkpt>
      <trkpt lat="45.9319192" lon="6.9801660"><ele>3753.7</ele></trkpt>
      <trkpt lat="45.9318450" lon="6.9802142"><ele>3761.7</ele></trkpt>
      <trkpt lat="45.9315997" lon="6.9803734"><ele>3766.2</ele></trkpt>
      <trkpt lat="45.9315178" lon="6.9805470"><ele>3770.1</ele></trkpt>
      <trkpt lat="45.9313664" lon="6.9808680"><ele>3772.3</ele></trkpt>
      <trkpt lat="45.9312149" lon="6.9811890"><ele>3774.1</ele></trkpt>
      <trkpt lat="45.9314408" lon="6.9810189"><ele>3775.9</ele></trkpt>
      <trkpt lat="45.9316793" lon="6.9808391"><ele>3778.1</ele></trkpt>
      <trkpt lat="45.9317145" lon="6.9805814"><ele>3781.1</ele></trkpt>
      <trkpt lat="45.9317165" lon="6.9805816"><ele>3782.9</ele></trkpt>
      <trkpt lat="45.9317279" lon="6.9805820"><ele>3783.9</ele></trkpt>
      <trkpt lat="45.9319961" lon="6.9805903"><ele>3784.7</ele></trkpt>
      <trkpt lat="45.9322658" lon="6.9805994"><ele>3785.7</ele></trkpt>
      <trkpt lat="45.9321116" lon="6.9803498"><ele>3786.4</ele></trkpt>
      <trkpt lat="45.9323123" lon="6.9804287"><ele>3787.2</ele></trkpt>
      <trkpt lat="45.9324986" lon="6.9801989"><ele>3787.9</ele></trkpt>
      <trkpt lat="45.9324301" lon="6.9804465"><ele>3788.9</ele></trkpt>
      <trkpt lat="45.9323302" lon="6.9808067"><ele>3789.1</ele></trkpt>
      <trkpt lat="45.9323391" lon="6.9807517"><ele>3790.3</ele></trkpt>
      <trkpt lat="45.9323351" lon="6.9807477"><ele>3792.0</ele></trkpt>
      <trkpt lat="45.9321160" lon="6.9805253"><ele>3794.0</ele></trkpt>
      <trkpt lat="45.9322723" lon="6.9803010"><ele>3795.9</ele></trkpt>
      <trkpt lat="45.9323815" lon="6.9800430"><ele>3797.4</ele></trkpt>
      <trkpt lat="45.9325213" lon="6.9797119"><ele>3799.5</ele></trkpt>
      <trkpt lat="45.9326600" lon="6.9793812"><ele>3801.8</ele></trkpt>
      <trkpt lat="45.9327991" lon="6.9790513"><ele>3803.1</ele></trkpt>
      <trkpt lat="45.9329493" lon="6.9787120"><ele>3804.5</ele></trkpt>
      <trkpt lat="45.9329014" lon="6.9790268"><ele>3807.3</ele></trkpt>
      <trkpt lat="45.9328430" lon="6.9794066"><ele>3810.0</ele></trkpt>
      <trkpt lat="45.9327904" lon="6.9797862"><ele>3812.7</ele></trkpt>
      <trkpt lat="45.9327583" lon="6.9797570"><ele>3815.5</ele></trkpt>
      <trkpt lat="45.9328759" lon="6.9795589"><ele>3818.8</ele></trkpt>
      <trkpt lat="45.9329624" lon="6.9794407"><ele>3821.3</ele></trkpt>
      <trkpt lat="45.9331516" lon="6.9791712"><ele>3823.6</ele></trkpt>
      <trkpt lat="45.9333446" lon="6.9788907"><ele>3825.3</ele></trkpt>
      <trkpt lat="45.9335481" lon="6.9786046"><ele>3825.5</ele></trkpt>
      <trkpt lat="45.9334112" lon="6.9788567"><ele>3823.7</ele></trkpt>
      <trkpt lat="45.9332470" lon="6.9791743"><ele>3821.8</ele></trkpt>
      <trkpt lat="45.9333176" lon="6.9791915"><ele>3819.4</ele></trkpt>
      <trkpt lat="45.9335825" lon="6.9792553"><ele>3816.3</ele></trkpt>
      <trkpt lat="45.9334160" lon="6.9794254"><ele>3812.9</ele></trkpt>
      <trkpt lat="45.9333330" lon="6.9795359"><ele>3809.4</ele></trkpt>
      <trkpt lat="45.9331374" lon="6.9797976"><ele>3806.0</ele></trkpt>
      <trkpt lat="45.9329616" lon="6.9796784"><ele>3804.1</ele></trkpt>
      <trkpt lat="45.9330574" lon="6.9795658"><ele>3805.6</ele></trkpt>
      <trkpt lat="45.9332637" lon="6.9793236"><ele>3806.1</ele></trkpt>
      <trkpt lat="45.9331080" lon="6.9795196"><ele>3806.4</ele></trkpt>
      <trkpt lat="45.9330950" lon="6.9791420"><ele>3806.4</ele></trkpt>
      <trkpt lat="45.9333272" lon="6.9790001"><ele>3807.1</ele></trkpt>
      <trkpt lat="45.9332052" lon="6.9787319"><ele>3807.8</ele></trkpt>
      <trkpt lat="45.9330616" lon="6.9789637"><ele>3808.7</ele></trkpt>
      <trkpt lat="45.9328779" lon="6.9792483"><ele>3809.5</ele></trkpt>
      <trkpt lat="45.9328771" lon="6.9789906"><ele>3809.5</ele></trkpt>
      <trkpt lat="45.9329650" lon="6.9787657"><ele>3807.9</ele></trkpt>
      <trkpt lat="45.9329608" lon="6.9787565"><ele>3807.8</ele></trkpt>
      <trkpt lat="45.9328010" lon="6.9784605"><ele>3807.8</ele></trkpt>
      <trkpt lat="45.9328015" lon="6.9783947"><ele>3811.6</ele></trkpt>
      <trkpt lat="45.9328125" lon="6.9779968"><ele>3816.3</ele></trkpt>
      <trkpt lat="45.9327979" lon="6.9782117"><ele>3821.8</ele></trkpt>
      <trkpt lat="45.9330003" lon="6.9783741"><ele>3827.0</ele></trkpt>
      <trkpt lat="45.9331118" lon="6.9781111"><ele>3830.9</ele></trkpt>
      <trkpt lat="45.9330106" lon="6.9783143"><ele>3834.9</ele></trkpt>
      <trkpt lat="45.9330228" lon="6.9779667"><ele>3839.9</ele></trkpt>
      <trkpt lat="45.9331260" lon="6.9782522"><ele>3844.9</ele></trkpt>
      <trkpt lat="45.9330598" lon="6.9785100"><ele>3851.2</ele></trkpt>
      <trkpt lat="45.9330833" lon="6.9784470"><ele>3854.9</ele></trkpt>
      <trkpt lat="45.9332103" lon="6.9780905"><ele>3857.8</ele></trkpt>
      <trkpt lat="45.9331961" lon="6.9780824"><ele>3859.9</ele></trkpt>
      <trkpt lat="45.9329589" lon="6.9779566"><ele>3862.6</ele></trkpt>
      <trkpt lat="45.9327088" lon="6.9778232"><ele>3866.1</ele></trkpt>
      <trkpt lat="45.9326900" lon="6.9782170"><ele>3868.9</ele></trkpt>
      <trkpt lat="45.9327194" lon="6.9782082"><ele>3869.6</ele></trkpt>
      <trkpt lat="45.9329898" lon="6.9781141"><ele>3871.6</ele></trkpt>
      <trkpt lat="45.9332390" lon="6.9780377"><ele>3871.7</ele></trkpt>
      <trkpt lat="45.9331344" lon="6.9783423"><ele>3871.0</ele></trkpt>
      <trkpt lat="45.9330110" lon="6.9786873"><ele>3870.7</ele></trkpt>
      <trkpt lat="45.9328923" lon="6.9790397"><ele>3868.2</ele></trkpt>
      <trkpt lat="45.9330243" lon="6.9787049"><ele>3868.1</ele></trkpt>
      <trkpt lat="45.9330355" lon="6.9786333"><ele>3868.2</ele></trkpt>
      <trkpt lat="45.9331078" lon="6.9782569"><ele>3870.3</ele></trkpt>
      <trkpt lat="45.9330842" lon="6.9783815"><ele>3873.9</ele></trkpt>
      <trkpt lat="45.9332423" lon="6.9781209"><ele>3876.4</ele></trkpt>
      <trkpt lat="45.9332877" lon="6.9778162"><ele>3879.4</ele></trkpt>
      <trkpt lat="45.9332847" lon="6.9780195"><ele>3883.2</ele></trkpt>
      <trkpt lat="45.9332775" lon="6.9784192"><ele>3885.8</ele></trkpt>
      <trkpt lat="45.9332481" lon="6.9781372"><ele>3890.3</ele></trkpt>
      <trkpt lat="45.9331541" lon="6.9784383"><ele>3892.9</ele></trkpt>
      <trkpt lat="45.9332306" lon="6.9781334"><ele>3896.0</ele></trkpt>
      <trkpt lat="45.9333261" lon="6.9777686"><ele>3898.4</ele></trkpt>
      <trkpt lat="45.9334160" lon="6.9774058"><ele>3899.5</ele></trkpt>
      <trkpt lat="45.9333928" lon="6.9775214"><ele>3901.9</ele></trkpt>
      <trkpt lat="45.9333032" lon="6.9778747"><ele>3904.6</ele></trkpt>
      <trkpt lat="45.9332152" lon="6.9782644"><ele>3908.0</ele></trkpt>
      <trkpt lat="45.9332142" lon="6.9780686"><ele>3914.2</ele></trkpt>
      <trkpt lat="45.9331311" lon="6.9777499"><ele>3920.8</ele></trkpt>
      <trkpt lat="45.9332627" lon="6.9775270"><ele>3927.5</ele></trkpt>
      <trkpt lat="45.9332984" lon="6.9773203"><ele>3934.4</ele></trkpt>
      <trkpt lat="45.9333558" lon="6.9769505"><ele>3939.9</ele></trkpt>
      <trkpt lat="45.9335814" lon="6.9768343"><ele>3945.7</ele></trkpt>
      <trkpt lat="45.9336249" lon="6.9765895"><ele>3950.7</ele></trkpt>
      <trkpt lat="45.9336928" lon="6.9762160"><ele>3953.2</ele></trkpt>
      <trkpt lat="45.9337215" lon="6.9765720"><ele>3955.3</ele></trkpt>
      <trkpt lat="45.9337428" lon="6.9769532"><ele>3957.0</ele></trkpt>
      <trkpt lat="45.9336524" lon="6.9771103"><ele>3958.7</ele></trkpt>
      <trkpt lat="45.9334692" lon="6.9773902"><ele>3959.3</ele></trkpt>
      <trkpt lat="45.9332928" lon="6.9776791"><ele>3959.8</ele></trkpt>
      <trkpt lat="45.9331916" lon="6.9775824"><ele>3962.6</ele></trkpt>
      <trkpt lat="45.9332285" lon="6.9775603"><ele>3966.0</ele></trkpt>
      <trkpt lat="45.9333469" lon="6.9775229"><ele>3969.7</ele></trkpt>
      <trkpt lat="45.9335986" lon="6.9774294"><ele>3976.1</ele></trkpt>
      <trkpt lat="45.9337426" lon="6.9771114"><ele>3981.9</ele></trkpt>
      <trkpt lat="45.9338912" lon="6.9767907"><ele>3987.9</ele></trkpt>
      <trkpt lat="45.9340357" lon="6.9764817"><ele>3995.3</ele></trkpt>
      <trkpt lat="45.9340452" lon="6.9762899"><ele>4003.3</ele></trkpt>
      <trkpt lat="45.9340443" lon="6.9762882"><ele>4007.7</ele></trkpt>
      <trkpt lat="45.9338997" lon="6.9759767"><ele>4009.5</ele></trkpt>
      <trkpt lat="45.9339350" lon="6.9758232"><ele>4011.2</ele></trkpt>
      <trkpt lat="45.9340407" lon="6.9754628"><ele>4011.5</ele></trkpt>
      <trkpt lat="45.9342808" lon="6.9753042"><ele>4011.8</ele></trkpt>
      <trkpt lat="45.9345273" lon="6.9752762"><ele>4011.5</ele></trkpt>
      <trkpt lat="45.9347833" lon="6.9752829"><ele>4009.0</ele></trkpt>
      <trkpt lat="45.9346409" lon="6.9752665"><ele>4005.8</ele></trkpt>
      <trkpt lat="45.9348562" lon="6.9751470"><ele>4002.5</ele></trkpt>
      <trkpt lat="45.9346063" lon="6.9752145"><ele>4000.5</ele></trkpt>
      <trkpt lat="45.9346160" lon="6.9752094"><ele>4001.6</ele></trkpt>
      <trkpt lat="45.9346898" lon="6.9750762"><ele>4002.4</ele></trkpt>
      <trkpt lat="45.9346895" lon="6.9750717"><ele>4003.0</ele></trkpt>
      <trkpt lat="45.9346750" lon="6.9746911"><ele>4006.1</ele></trkpt>
      <trkpt lat="45.9346876" lon="6.9745910"><ele>4012.6</ele></trkpt>
      <trkpt lat="45.9347186" lon="6.9742093"><ele>4020.1</ele></trkpt>
      <trkpt lat="45.9347029" lon="6.9740763"><ele>4028.5</ele></trkpt>
      <trkpt lat="45.9346446" lon="6.9736803"><ele>4038.8</ele></trkpt>
      <trkpt lat="45.9345860" lon="6.9732996"><ele>4051.2</ele></trkpt>
      <trkpt lat="45.9345811" lon="6.9731624"><ele>4061.3</ele></trkpt>
      <trkpt lat="45.9345709" lon="6.9727528"><ele>4067.2</ele></trkpt>
      <trkpt lat="45.9347639" lon="6.9727108"><ele>4075.9</ele></trkpt>
      <trkpt lat="45.9350252" lon="6.9726701"><ele>4083.4</ele></trkpt>
      <trkpt lat="45.9349020" lon="6.9726200"><ele>4088.9</ele></trkpt>
    </trkseg>
  </trk>
</gpx>