<?xml version="1.0" encoding="UTF-8"?>
<gpx version="1.1" creator="AlpHD-batch" xmlns="http://www.topografix.com/GPX/1/1">
  <trk>
    <name>Greben Moine</name>
    <trkseg>
      <trkpt lat="45.9102830" lon="6.9654540"><ele>2683.4</ele></trkpt>
      <trkpt lat="45.9103447" lon="6.9655336"><ele>2684.8</ele></trkpt>
      <trkpt lat="45.9103739" lon="6.9656040"><ele>2686.2</ele></trkpt>
      <trkpt lat="45.9103765" lon="6.9656086"><ele>2687.9</ele></trkpt>
      <trkpt lat="45.9105446" lon="6.9659118"><ele>2690.5</ele></trkpt>
      <trkpt lat="45.9106304" lon="6.9659685"><ele>2694.5</ele></trkpt>
      <trkpt lat="45.9107102" lon="6.9660567"><ele>2698.9</ele></trkpt>
      <trkpt lat="45.9108131" lon="6.9661452"><ele>2703.9</ele></trkpt>
      <trkpt lat="45.9110447" lon="6.9663443"><ele>2709.1</ele></trkpt>
      <trkpt lat="45.9111996" lon="6.9663745"><ele>2713.9</ele></trkpt>
      <trkpt lat="45.9113335" lon="6.9664663"><ele>2719.0</ele></trkpt>
      <trkpt lat="45.9114850" lon="6.9665269"><ele>2724.9</ele></trkpt>
      <trkpt lat="45.9115610" lon="6.9666327"><ele>2731.5</ele></trkpt>
      <trkpt lat="45.9115755" lon="6.9666439"><ele>2737.5</ele></trkpt>
      <trkpt lat="45.9118133" lon="6.9668271"><ele>2743.2</ele></trkpt>
      <trkpt lat="45.9120231" lon="6.9669680"><ele>2748.6</ele></trkpt>
      <trkpt lat="45.9122675" lon="6.9671322"><ele>2755.0</ele></trkpt>
      <trkpt lat="45.9123449" lon="6.9670856"><ele>2761.3</ele></trkpt>
      <trkpt lat="45.9124064" lon="6.9670868"><ele>2767.9</ele></trkpt>
      <trkpt lat="45.9124547" lon="6.9670728"><ele>2773.8</ele></trkpt>
      <trkpt lat="45.9127191" lon="6.9669959"><ele>2778.6</ele></trkpt>
      <trkpt lat="45.9127314" lon="6.9669964"><ele>2782.7</ele></trkpt>
      <trkpt lat="45.9127679" lon="6.9670236"><ele>2788.3</ele></trkpt>
      <trkpt lat="45.9127964" lon="6.9670195"><ele>2792.9</ele></trkpt>
      <trkpt lat="45.9128043" lon="6.9670192"><ele>2797.4</ele></trkpt>
      <trkpt lat="45.9128577" lon="6.9670077"><ele>2800.6</ele></trkpt>
      <trkpt lat="45.9131246" lon="6.9669505"><ele>2804.3</ele></trkpt>
      <trkpt lat="45.9131358" lon="6.9671552"><ele>2808.1</ele></trkpt>
      <trkpt lat="45.9131921" lon="6.9672176"><ele>2812.2</ele></trkpt>
      <trkpt lat="45.9132770" lon="6.9671722"><ele>2816.7</ele></trkpt>
      <trkpt lat="45.9133612" lon="6.9671000"><ele>2820.7</ele></trkpt>
      <trkpt lat="45.9133959" lon="6.9670460"><ele>2822.8</ele></trkpt>
      <trkpt lat="45.9134741" lon="6.9669335"><ele>2825.2</ele></trkpt>
      <trkpt lat="45.9136304" lon="6.9668983"><ele>2828.0</ele></trkpt>
      <trkpt lat="45.9136515" lon="6.9668993"><ele>2831.0</ele></trkpt>
      <trkpt lat="45.9139212" lon="6.9669123"><ele>2835.4</ele></trkpt>
      <trkpt lat="45.9140546" lon="6.9670137"><ele>2839.6</ele></trkpt>
      <trkpt lat="45.9141893" lon="6.9670757"><ele>2843.9</ele></trkpt>
      <trkpt lat="45.9142834" lon="6.9670366"><ele>2848.4</ele></trkpt>
      <trkpt lat="45.9145426" lon="6.9669288"><ele>2853.4</ele></trkpt>
      <trkpt lat="45.9145754" lon="6.9669206"><ele>2859.6</ele></trkpt>
      <trkpt lat="45.9146312" lon="6.9668512"><ele>2866.9</ele></trkpt>
      <trkpt lat="45.9147078" lon="6.9667887"><ele>2874.2</ele></trkpt>
      <trkpt lat="45.9147719" lon="6.9667475"><ele>2881.3</ele></trkpt>
      <trkpt lat="45.9150181" lon="6.9665892"><ele>2886.8</ele></trkpt>
      <trkpt lat="45.9150952" lon="6.9664741"><ele>2893.5</ele></trkpt>
      <trkpt lat="45.9151578" lon="6.9663906"><ele>2899.6</ele></trkpt>
      <trkpt lat="45.9151878" lon="6.9663170"><ele>2905.1</ele></trkpt>
      <trkpt lat="45.9152504" lon="6.9662325"><ele>2911.4</ele></trkpt>
      <trkpt lat="45.9154471" lon="6.9659670"><ele>2916.6</ele></trkpt>
      <trkpt lat="45.9154604" lon="6.9659457"><ele>2921.1</ele></trkpt>
      <trkpt lat="45.9154680" lon="6.9659338"><ele>2925.6</ele></trkpt>
      <trkpt lat="45.9156510" lon="6.9656488"><ele>2929.7</ele></trkpt>
      <trkpt lat="45.9157554" lon="6.9655654"><ele>2934.9</ele></trkpt>
      <trkpt lat="45.9157647" lon="6.9655579"><ele>2938.9</ele></trkpt>
      <trkpt lat="45.9158172" lon="6.9654793"><ele>2943.6</ele></trkpt>
      <trkpt lat="45.9158228" lon="6.9654727"><ele>2948.7</ele></trkpt>
      <trkpt lat="45.9160315" lon="6.9652270"><ele>2953.2</ele></trkpt>
      <trkpt lat="45.9160343" lon="6.9652250"><ele>2957.4</ele></trkpt>
      <trkpt lat="45.9161259" lon="6.9650668"><ele>2961.6</ele></trkpt>
      <trkpt lat="45.9161787" lon="6.9649708"><ele>2966.2</ele></trkpt>
      <trkpt lat="45.9162872" lon="6.9648506"><ele>2971.5</ele></trkpt>
      <trkpt lat="45.9163367" lon="6.9647735"><ele>2975.7</ele></trkpt>
      <trkpt lat="45.9163524" lon="6.9647626"><ele>2980.2</ele></trkpt>
      <trkpt lat="45.9165949" lon="6.9645928"><ele>2984.1</ele></trkpt>
      <trkpt lat="45.9168375" lon="6.9644231"><ele>2988.8</ele></trkpt>
      <trkpt lat="45.9170468" lon="6.9642811"><ele>2993.3</ele></trkpt>
      <trkpt lat="45.9171224" lon="6.9642629"><ele>2998.1</ele></trkpt>
      <trkpt lat="45.9171716" lon="6.9642419"><ele>3002.8</ele></trkpt>
      <trkpt lat="45.9174302" lon="6.9641315"><ele>3007.4</ele></trkpt>
      <trkpt lat="45.9175445" lon="6.9641202"><ele>3011.7</ele></trkpt>
      <trkpt lat="45.9178137" lon="6.9640937"><ele>3015.5</ele></trkpt>
      <trkpt lat="45.9178320" lon="6.9640875"><ele>3019.4</ele></trkpt>
      <trkpt lat="45.9180947" lon="6.9639989"><ele>3023.1</ele></trkpt>
      <trkpt lat="45.9183574" lon="6.9639103"><ele>3026.2</ele></trkpt>
      <trkpt lat="45.9184262" lon="6.9638864"><ele>3029.7</ele></trkpt>
      <trkpt lat="45.9186885" lon="6.9637957"><ele>3033.7</ele></trkpt>
      <trkpt lat="45.9187259" lon="6.9637684"><ele>3039.2</ele></trkpt>
      <trkpt lat="45.9189667" lon="6.9635933"><ele>3045.0</ele></trkpt>
      <trkpt lat="45.9192074" lon="6.9634182"><ele>3051.3</ele></trkpt>
      <trkpt lat="45.9194238" lon="6.9633022"><ele>3057.5</ele></trkpt>
      <trkpt lat="45.9196766" lon="6.9631667"><ele>3064.0</ele></trkpt>
      <trkpt lat="45.9199311" lon="6.9631682"><ele>3070.9</ele></trkpt>
      <trkpt lat="45.9202009" lon="6.9631698"><ele>3078.1</ele></trkpt>
      <trkpt lat="45.9202468" lon="6.9631764"><ele>3085.5</ele></trkpt>
      <trkpt lat="45.9205152" lon="6.9632152"><ele>3092.5</ele></trkpt>
      <trkpt lat="45.9207837" lon="6.9632540"><ele>3099.2</ele></trkpt>
      <trkpt lat="45.9210498" lon="6.9633148"><ele>3105.5</ele></trkpt>
      <trkpt lat="45.9213162" lon="6.9633758"><ele>3111.6</ele></trkpt>
      <trkpt lat="45.9214635" lon="6.9633387"><ele>3117.9</ele></trkpt>
      <trkpt lat="45.9217292" lon="6.9632717"><ele>3124.7</ele></trkpt>
      <trkpt lat="45.9217960" lon="6.9631930"><ele>3131.8</ele></trkpt>
      <trkpt lat="45.9219805" lon="6.9631233"><ele>3138.4</ele></trkpt>
      <trkpt lat="45.9220877" lon="6.9631594"><ele>3144.0</ele></trkpt>
      <trkpt lat="45.9223504" lon="6.9632477"><ele>3149.0</ele></trkpt>
      <trkpt lat="45.9226131" lon="6.9633360"><ele>3153.7</ele></trkpt>
      <trkpt lat="45.9227951" lon="6.9635919"><ele>3158.3</ele></trkpt>
      <trkpt lat="45.9228023" lon="6.9636038"><ele>3163.0</ele></trkpt>
      <trkpt lat="45.9228254" lon="6.9636232"><ele>3167.7</ele></trkpt>
      <trkpt lat="45.9230585" lon="6.9638185"><ele>3171.8</ele></trkpt>
      <trkpt lat="45.9231710" lon="6.9639028"><ele>3175.0</ele></trkpt>
      <trkpt lat="45.9234103" lon="6.9640820"><ele>3178.2</ele></trkpt>
      <trkpt lat="45.9235770" lon="6.9643386"><ele>3181.9</ele></trkpt>
      <trkpt lat="45.9237576" lon="6.9645189"><ele>3185.7</ele></trkpt>
      <trkpt lat="45.9238280" lon="6.9646424"><ele>3189.5</ele></trkpt>
      <trkpt lat="45.9239989" lon="6.9649425"><ele>3193.2</ele></trkpt>
      <trkpt lat="45.9241504" lon="6.9651439"><ele>3196.4</ele></trkpt>
      <trkpt lat="45.9242038" lon="6.9651968"><ele>3199.8</ele></trkpt>
      <trkpt lat="45.9244260" lon="6.9654167"><ele>3202.6</ele></trkpt>
      <trkpt lat="45.9245372" lon="6.9656202"><ele>3205.5</ele></trkpt>
      <trkpt lat="45.9247038" lon="6.9659252"><ele>3208.5</ele></trkpt>
      <trkpt lat="45.9248705" lon="6.9662302"><ele>3211.1</ele></trkpt>
      <trkpt lat="45.9249059" lon="6.9664719"><ele>3213.5</ele></trkpt>
      <trkpt lat="45.9249746" lon="6.9666687"><ele>3215.1</ele></trkpt>
      <trkpt lat="45.9250955" lon="6.9670154"><ele>3217.3</ele></trkpt>
      <trkpt lat="45.9251063" lon="6.9670889"><ele>3219.6</ele></trkpt>
      <trkpt lat="45.9251620" lon="6.9674684"><ele>3221.8</ele></trkpt>
      <trkpt lat="45.9251808" lon="6.9675221"><ele>3225.8</ele></trkpt>
      <trkpt lat="45.9253026" lon="6.9678682"><ele>3231.7</ele></trkpt>
      <trkpt lat="45.9253970" lon="6.9679753"><ele>3237.4</ele></trkpt>
      <trkpt lat="45.9254474" lon="6.9680004"><ele>3244.0</ele></trkpt>
      <trkpt lat="45.9257024" lon="6.9681273"><ele>3251.0</ele></trkpt>
      <trkpt lat="45.9259017" lon="6.9679954"><ele>3258.6</ele></trkpt>
      <trkpt lat="45.9259071" lon="6.9679414"><ele>3265.9</ele></trkpt>
      <trkpt lat="45.9260072" lon="6.9680607"><ele>3272.6</ele></trkpt>
      <trkpt lat="45.9261105" lon="6.9683389"><ele>3280.1</ele></trkpt>
      <trkpt lat="45.9262668" lon="6.9684026"><ele>3286.3</ele></trkpt>
      <trkpt lat="45.9263639" lon="6.9684785"><ele>3291.0</ele></trkpt>
      <trkpt lat="45.9263692" lon="6.9684814"><ele>3295.9</ele></trkpt>
      <trkpt lat="45.9266217" lon="6.9686181"><ele>3301.5</ele></trkpt>
      <trkpt lat="45.9267248" lon="6.9687061"><ele>3306.7</ele></trkpt>
      <trkpt lat="45.9268324" lon="6.9687173"><ele>3310.7</ele></trkpt>
      <trkpt lat="45.9268815" lon="6.9687277"><ele>3314.5</ele></trkpt>
      <trkpt lat="45.9271484" lon="6.9687842"><ele>3317.0</ele></trkpt>
      <trkpt lat="45.9271931" lon="6.9689062"><ele>3318.4</ele></trkpt>
      <trkpt lat="45.9272073" lon="6.9690635"><ele>3318.7</ele></trkpt>
      <trkpt lat="45.9273123" lon="6.9693245"><ele>3318.7</ele></trkpt>
      <trkpt lat="45.9271550" lon="6.9695783"><ele>3319.6</ele></trkpt>
      <trkpt lat="45.9271490" lon="6.9695948"><ele>3319.3</ele></trkpt>
      <trkpt lat="45.9270250" lon="6.9699392"><ele>3319.6</ele></trkpt>
      <trkpt lat="45.9270796" lon="6.9701571"><ele>3321.5</ele></trkpt>
      <trkpt lat="45.9272360" lon="6.9701719"><ele>3323.7</ele></trkpt>
      <trkpt lat="45.9273011" lon="6.9701420"><ele>3327.9</ele></trkpt>
      <trkpt lat="45.9274080" lon="6.9699837"><ele>3333.0</ele></trkpt>
      <trkpt lat="45.9275485" lon="6.9697745"><ele>3338.9</ele></trkpt>
      <trkpt lat="45.9275590" lon="6.9694295"><ele>3345.3</ele></trkpt>
      <trkpt lat="45.9276017" lon="6.9692473"><ele>3350.8</ele></trkpt>
      <trkpt lat="45.9276339" lon="6.9690508"><ele>3356.6</ele></trkpt>
      <trkpt lat="45.9275628" lon="6.9687965"><ele>3361.9</ele></trkpt>
      <trkpt lat="45.9276321" lon="6.9686644"><ele>3366.2</ele></trkpt>
      <trkpt lat="45.9276542" lon="6.9686202"><ele>3371.6</ele></trkpt>
      <trkpt lat="45.9276815" lon="6.9684529"><ele>3376.3</ele></trkpt>
      <trkpt lat="45.9276874" lon="6.9684237"><ele>3381.2</ele></trkpt>
      <trkpt lat="45.9277181" lon="6.9683987"><ele>3387.2</ele></trkpt>
      <trkpt lat="45.9278358" lon="6.9682273"><ele>3392.2</ele></trkpt>
      <trkpt lat="45.9278381" lon="6.9682230"><ele>3398.3</ele></trkpt>
      <trkpt lat="45.9278766" lon="6.9680150"><ele>3403.3</ele></trkpt>
      <trkpt lat="45.9279611" lon="6.9679944"><ele>3408.1</ele></trkpt>
      <trkpt lat="45.9279574" lon="6.9679939"><ele>3412.4</ele></trkpt>
      <trkpt lat="45.9280099" lon="6.9678312"><ele>3416.6</ele></trkpt>
      <trkpt lat="45.9279599" lon="6.9677680"><ele>3420.9</ele></trkpt>
      <trkpt lat="45.9279581" lon="6.9677579"><ele>3424.4</ele></trkpt>
      <trkpt lat="45.9279284" lon="6.9676960"><ele>3427.5</ele></trkpt>
      <trkpt lat="45.9280110" lon="6.9676604"><ele>3430.7</ele></trkpt>
      <trkpt lat="45.9280152" lon="6.9676400"><ele>3433.6</ele></trkpt>
      <trkpt lat="45.9280181" lon="6.9676338"><ele>3437.8</ele></trkpt>
      <trkpt lat="45.9280105" lon="6.9674668"><ele>3440.4</ele></trkpt>
      <trkpt lat="45.9279895" lon="6.9673901"><ele>3442.9</ele></trkpt>
      <trkpt lat="45.9280349" lon="6.9673438"><ele>3441.4</ele></trkpt>
      <trkpt lat="45.9280576" lon="6.9672935"><ele>3444.6</ele></trkpt>
      <trkpt lat="45.9280166" lon="6.9674359"><ele>3449.5</ele></trkpt>
      <trkpt lat="45.9280078" lon="6.9674507"><ele>3453.6</ele></trkpt>
      <trkpt lat="45.9278963" lon="6.9675822"><ele>3461.3</ele></trkpt>
      <trkpt lat="45.9281293" lon="6.9674195"><ele>3469.0</ele></trkpt>
      <trkpt lat="45.9282094" lon="6.9673752"><ele>3473.9</ele></trkpt>
      <trkpt lat="45.9282094" lon="6.9673751"><ele>3481.9</ele></trkpt>
      <trkpt lat="45.9283529" lon="6.9671935"><ele>3491.9</ele></trkpt>
      <trkpt lat="45.9283821" lon="6.9670954"><ele>3504.5</ele></trkpt>
      <trkpt lat="45.9282547" lon="6.9670784"><ele>3512.7</ele></trkpt>
      <trkpt lat="45.9282854" lon="6.9668878"><ele>3520.8</ele></trkpt>
      <trkpt lat="45.9283227" lon="6.9666948"><ele>3528.2</ele></trkpt>
      <trkpt lat="45.9283230" lon="6.9666938"><ele>3533.0</ele></trkpt>
      <trkpt lat="45.9283139" lon="6.9666000"><ele>3537.0</ele></trkpt>
      <trkpt lat="45.9283311" lon="6.9664228"><ele>3543.5</ele></trkpt>
      <trkpt lat="45.9282135" lon="6.9663581"><ele>3548.8</ele></trkpt>
      <trkpt lat="45.9282398" lon="6.9662676"><ele>3552.8</ele></trkpt>
      <trkpt lat="45.9282742" lon="6.9662862"><ele>3558.2</ele></trkpt>
      <trkpt lat="45.9283462" lon="6.9663185"><ele>3563.7</ele></trkpt>
      <trkpt lat="45.9284285" lon="6.9664190"><ele>3568.3</ele></trkpt>
      <trkpt lat="45.9284820" lon="6.9664682"><ele>3574.6</ele></trkpt>
      <trkpt lat="45.9285818" lon="6.9664874"><ele>3580.0</ele></trkpt>
      <trkpt lat="45.9286536" lon="6.9665462"><ele>3585.3</ele></trkpt>
      <trkpt lat="45.9287430" lon="6.9666866"><ele>3591.3</ele></trkpt>
      <trkpt lat="45.9288441" lon="6.9667419"><ele>3597.1</ele></trkpt>
      <trkpt lat="45.9288691" lon="6.9667497"><ele>3602.9</ele></trkpt>
      <trkpt lat="45.9288899" lon="6.9667641"><ele>3607.4</ele></trkpt>
      <trkpt lat="45.9289671" lon="6.9668877"><ele>3611.4</ele></trkpt>
      <trkpt lat="45.9289862" lon="6.9669411"><ele>3616.0</ele></trkpt>
      <trkpt lat="45.9290077" lon="6.9669857"><ele>3619.9</ele></trkpt>
      <trkpt lat="45.9290199" lon="6.9670264"><ele>3624.3</ele></trkpt>
      <trkpt lat="45.9290335" lon="6.9670637"><ele>3630.2</ele></trkpt>
      <trkpt lat="45.9291586" lon="6.9674073"><ele>3635.9</ele></trkpt>
      <trkpt lat="45.9292120" lon="6.9675926"><ele>3641.8</ele></trkpt>
      <trkpt lat="45.9292687" lon="6.9677059"><ele>3648.9</ele></trkpt>
      <trkpt lat="45.9294263" lon="6.9680207"><ele>3658.0</ele></trkpt>
      <trkpt lat="45.9294979" lon="6.9681413"><ele>3667.0</ele></trkpt>
      <trkpt lat="45.9295729" lon="6.9683672"><ele>3676.0</ele></trkpt>
      <trkpt lat="45.9296796" lon="6.9684358"><ele>3684.9</ele></trkpt>
      <trkpt lat="45.9298073" lon="6.9684224"><ele>3694.0</ele></trkpt>
      <trkpt lat="45.9298124" lon="6.9684367"><ele>3702.0</ele></trkpt>
      <trkpt lat="45.9299120" lon="6.9685153"><ele>3709.5</ele></trkpt>
      <trkpt lat="45.9299314" lon="6.9685356"><ele>3717.7</ele></trkpt>
      <trkpt lat="45.9300110" lon="6.9686634"><ele>3724.7</ele></trkpt>
      <trkpt lat="45.9300513" lon="6.9686353"><ele>3729.5</ele></trkpt>
      <trkpt lat="45.9300710" lon="6.9685769"><ele>3735.4</ele></trkpt>
      <trkpt lat="45.9301605" lon="6.9685563"><ele>3740.5</ele></trkpt>
      <trkpt lat="45.9301747" lon="6.9685648"><ele>3746.8</ele></trkpt>
      <trkpt lat="45.9301859" lon="6.9685451"><ele>3752.6</ele></trkpt>
      <trkpt lat="45.9302601" lon="6.9685715"><ele>3759.8</ele></trkpt>
      <trkpt lat="45.9303107" lon="6.9686370"><ele>3765.8</ele></trkpt>
      <trkpt lat="45.9304763" lon="6.9685500"><ele>3770.6</ele></trkpt>
      <trkpt lat="45.9305058" lon="6.9685383"><ele>3775.1</ele></trkpt>
      <trkpt lat="45.9307660" lon="6.9684355"><ele>3779.7</ele></trkpt>
      <trkpt lat="45.9305694" lon="6.9685636"><ele>3784.4</ele></trkpt>
      <trkpt lat="45.9305737" lon="6.9685593"><ele>3789.9</ele></trkpt>
      <trkpt lat="45.9305462" lon="6.9685871"><ele>3793.3</ele></trkpt>
      <trkpt lat="45.9305638" lon="6.9686167"><ele>3797.0</ele></trkpt>
      <trkpt lat="45.9306593" lon="6.9687312"><ele>3798.8</ele></trkpt>
      <trkpt lat="45.9308552" lon="6.9686215"><ele>3803.2</ele></trkpt>
      <trkpt lat="45.9308943" lon="6.9685462"><ele>3808.8</ele></trkpt>
      <trkpt lat="45.9309530" lon="6.9686012"><ele>3814.9</ele></trkpt>
      <trkpt lat="45.9310203" lon="6.9686105"><ele>3821.7</ele></trkpt>
      <trkpt lat="45.9311297" lon="6.9687854"><ele>3828.1</ele></trkpt>
      <trkpt lat="45.9312514" lon="6.9689029"><ele>3833.6</ele></trkpt>
      <trkpt lat="45.9312722" lon="6.9689488"><ele>3839.8</ele></trkpt>
      <trkpt lat="45.9313979" lon="6.9690170"><ele>3845.7</ele></trkpt>
      <trkpt lat="45.9314704" lon="6.9692072"><ele>3851.7</ele></trkpt>
      <trkpt lat="45.9315079" lon="6.9691923"><ele>3856.9</ele></trkpt>
      <trkpt lat="45.9315102" lon="6.9691936"><ele>3862.1</ele></trkpt>
      <trkpt lat="45.9315597" lon="6.9692080"><ele>3869.3</ele></trkpt>
      <trkpt lat="45.9315980" lon="6.9692330"><ele>3875.8</ele></trkpt>
      <trkpt lat="45.9318436" lon="6.9693935"><ele>3884.8</ele></trkpt>
      <trkpt lat="45.9319521" lon="6.9694062"><ele>3893.2</ele></trkpt>
      <trkpt lat="45.9320382" lon="6.9692701"><ele>3903.1</ele></trkpt>
      <trkpt lat="45.9321016" lon="6.9693172"><ele>3913.1</ele></trkpt>
      <trkpt lat="45.9322573" lon="6.9691427"><ele>3923.2</ele></trkpt>
      <trkpt lat="45.9322542" lon="6.9691956"><ele>3933.2</ele></trkpt>
      <trkpt lat="45.9324073" lon="6.9691315"><ele>3942.9</ele></trkpt>
      <trkpt lat="45.9324684" lon="6.9692304"><ele>3950.9</ele></trkpt>
      <trkpt lat="45.9325099" lon="6.9692868"><ele>3958.6</ele></trkpt>
      <trkpt lat="45.9325862" lon="6.9693160"><ele>3964.0</ele></trkpt>
      <trkpt lat="45.9326552" lon="6.9693597"><ele>3970.0</ele></trkpt>
      <trkpt lat="45.9327544" lon="6.9693011"><ele>3974.5</ele></trkpt>
      <trkpt lat="45.9327546" lon="6.9693013"><ele>3979.2</ele></trkpt>
      <trkpt lat="45.9328698" lon="6.9693241"><ele>3984.8</ele></trkpt>
      <trkpt lat="45.9329359" lon="6.9693129"><ele>3992.2</ele></trkpt>
      <trkpt lat="45.9329173" lon="6.9694143"><ele>4001.5</ele></trkpt>
      <trkpt lat="45.9330308" lon="6.9694542"><ele>4011.3</ele></trkpt>
      <trkpt lat="45.9332929" lon="6.9695462"><ele>4023.4</ele></trkpt>
      <trkpt lat="45.9335447" lon="6.9696625"><ele>4035.4</ele></trkpt>
      <trkpt lat="45.9338016" lon="6.9697810"><ele>4047.8</ele></trkpt>
      <trkpt lat="45.9339409" lon="6.9698032"><ele>4054.9</ele></trkpt>
      <trkpt lat="45.9342091" lon="6.9698460"><ele>4063.4</ele></trkpt>
      <trkpt lat="45.9343952" lon="6.9698149"><ele>4072.8</ele></trkpt>
      <trkpt lat="45.9345150" lon="6.9697950"><ele>4081.2</ele></trkpt>
    </trkseg>
  </trk>
</gpx>