<?xml version="1.0" encoding="UTF-8"?>
<gpx version="1.1" creator="AlpHD" xmlns="http://www.topografix.com/GPX/1/1">
  <trk>
    <name>Grépon — Traversée Charmoz-Grépon</name>
    <trkseg>
      <trkpt lat="45.906902" lon="6.906519"><ele>2539.4</ele></trkpt>
      <trkpt lat="45.906726" lon="6.906582"><ele>2544.0</ele></trkpt>
      <trkpt lat="45.906598" lon="6.906769"><ele>2545.0</ele></trkpt>
      <trkpt lat="45.906338" lon="6.907464"><ele>2545.8</ele></trkpt>
      <trkpt lat="45.906430" lon="6.907971"><ele>2561.4</ele></trkpt>
      <trkpt lat="45.906425" lon="6.908231"><ele>2566.6</ele></trkpt>
      <trkpt lat="45.906545" lon="6.908734"><ele>2579.4</ele></trkpt>
      <trkpt lat="45.906564" lon="6.909262"><ele>2584.7</ele></trkpt>
      <trkpt lat="45.906508" lon="6.910011"><ele>2611.4</ele></trkpt>
      <trkpt lat="45.906425" lon="6.910244"><ele>2616.7</ele></trkpt>
      <trkpt lat="45.906462" lon="6.910756"><ele>2613.1</ele></trkpt>
      <trkpt lat="45.906678" lon="6.912035"><ele>2642.0</ele></trkpt>
      <trkpt lat="45.906778" lon="6.912251"><ele>2647.3</ele></trkpt>
      <trkpt lat="45.906512" lon="6.912546"><ele>2669.0</ele></trkpt>
      <trkpt lat="45.906537" lon="6.912810"><ele>2665.8</ele></trkpt>
      <trkpt lat="45.906375" lon="6.912692"><ele>2690.8</ele></trkpt>
      <trkpt lat="45.906442" lon="6.913463"><ele>2707.4</ele></trkpt>
      <trkpt lat="45.906396" lon="6.913984"><ele>2729.1</ele></trkpt>
      <trkpt lat="45.906274" lon="6.914177"><ele>2749.0</ele></trkpt>
      <trkpt lat="45.905851" lon="6.913682"><ele>2772.1</ele></trkpt>
      <trkpt lat="45.905531" lon="6.914337"><ele>2773.3</ele></trkpt>
      <trkpt lat="45.905397" lon="6.914159"><ele>2793.6</ele></trkpt>
      <trkpt lat="45.905287" lon="6.913661"><ele>2800.1</ele></trkpt>
      <trkpt lat="45.905373" lon="6.913151"><ele>2815.9</ele></trkpt>
      <trkpt lat="45.905535" lon="6.913020"><ele>2806.2</ele></trkpt>
      <trkpt lat="45.905584" lon="6.912768"><ele>2810.9</ele></trkpt>
      <trkpt lat="45.905418" lon="6.912873"><ele>2843.6</ele></trkpt>
      <trkpt lat="45.905309" lon="6.913080"><ele>2851.8</ele></trkpt>
      <trkpt lat="45.905131" lon="6.913035"><ele>2870.4</ele></trkpt>
      <trkpt lat="45.905045" lon="6.912789"><ele>2880.2</ele></trkpt>
      <trkpt lat="45.904702" lon="6.912628"><ele>2892.5</ele></trkpt>
      <trkpt lat="45.904162" lon="6.912667"><ele>2914.9</ele></trkpt>
      <trkpt lat="45.904088" lon="6.912904"><ele>2933.9</ele></trkpt>
      <trkpt lat="45.903369" lon="6.913703"><ele>2927.2</ele></trkpt>
      <trkpt lat="45.903266" lon="6.913917"><ele>2932.0</ele></trkpt>
      <trkpt lat="45.903152" lon="6.914417"><ele>2956.7</ele></trkpt>
      <trkpt lat="45.903198" lon="6.914669"><ele>2973.2</ele></trkpt>
      <trkpt lat="45.903307" lon="6.914875"><ele>2981.2</ele></trkpt>
      <trkpt lat="45.903406" lon="6.915385"><ele>3007.8</ele></trkpt>
      <trkpt lat="45.903224" lon="6.915378"><ele>3021.0</ele></trkpt>
      <trkpt lat="45.903242" lon="6.915640"><ele>3026.7</ele></trkpt>
      <trkpt lat="45.903537" lon="6.915946"><ele>3061.5</ele></trkpt>
      <trkpt lat="45.903611" lon="6.916191"><ele>3059.9</ele></trkpt>
      <trkpt lat="45.903608" lon="6.916458"><ele>3058.4</ele></trkpt>
      <trkpt lat="45.903331" lon="6.916797"><ele>3067.5</ele></trkpt>
      <trkpt lat="45.903105" lon="6.917206"><ele>3068.4</ele></trkpt>
      <trkpt lat="45.903175" lon="6.917456"><ele>3081.6</ele></trkpt>
      <trkpt lat="45.903290" lon="6.917667"><ele>3106.5</ele></trkpt>
      <trkpt lat="45.903328" lon="6.917414"><ele>3123.7</ele></trkpt>
      <trkpt lat="45.903690" lon="6.917464"><ele>3163.5</ele></trkpt>
      <trkpt lat="45.903587" lon="6.917678"><ele>3184.9</ele></trkpt>
      <trkpt lat="45.903673" lon="6.917908"><ele>3191.9</ele></trkpt>
      <trkpt lat="45.903854" lon="6.917858"><ele>3208.7</ele></trkpt>
      <trkpt lat="45.903920" lon="6.918099"><ele>3256.1</ele></trkpt>
      <trkpt lat="45.904092" lon="6.918016"><ele>3263.3</ele></trkpt>
      <trkpt lat="45.904180" lon="6.917783"><ele>3264.2</ele></trkpt>
      <trkpt lat="45.904325" lon="6.917939"><ele>3281.5</ele></trkpt>
      <trkpt lat="45.904500" lon="6.917877"><ele>3300.4</ele></trkpt>
      <trkpt lat="45.904839" lon="6.918048"><ele>3320.2</ele></trkpt>
      <trkpt lat="45.904916" lon="6.918290"><ele>3405.3</ele></trkpt>
      <trkpt lat="45.904814" lon="6.918596"><ele>3436.6</ele></trkpt>
      <trkpt lat="45.904729" lon="6.918364"><ele>3430.6</ele></trkpt>
      <trkpt lat="45.904698" lon="6.918620"><ele>3433.6</ele></trkpt>
      <trkpt lat="45.904204" lon="6.918951"><ele>3427.9</ele></trkpt>
      <trkpt lat="45.903905" lon="6.919271"><ele>3369.9</ele></trkpt>
      <trkpt lat="45.903747" lon="6.919146"><ele>3392.7</ele></trkpt>
      <trkpt lat="45.903714" lon="6.918873"><ele>3423.6</ele></trkpt>
      <trkpt lat="45.903671" lon="6.919222"><ele>3419.3</ele></trkpt>
      <trkpt lat="45.903522" lon="6.919076"><ele>3434.3</ele></trkpt>
      <trkpt lat="45.902982" lon="6.918960"><ele>3467.6</ele></trkpt>
      <trkpt lat="45.902818" lon="6.919072"><ele>3472.7</ele></trkpt>
      <trkpt lat="45.902638" lon="6.919085"><ele>3485.9</ele></trkpt>
      <trkpt lat="45.902685" lon="6.918708"><ele>3390.3</ele></trkpt>
      <trkpt lat="45.902869" lon="6.918745"><ele>3371.3</ele></trkpt>
      <trkpt lat="45.902939" lon="6.918503"><ele>3370.4</ele></trkpt>
      <trkpt lat="45.903090" lon="6.918645"><ele>3351.5</ele></trkpt>
      <trkpt lat="45.903272" lon="6.918684"><ele>3326.9</ele></trkpt>
      <trkpt lat="45.903607" lon="6.918491"><ele>3273.6</ele></trkpt>
      <trkpt lat="45.903504" lon="6.918267"><ele>3259.9</ele></trkpt>
      <trkpt lat="45.903654" lon="6.917933"><ele>3232.1</ele></trkpt>
      <trkpt lat="45.903697" lon="6.917682"><ele>3208.1</ele></trkpt>
      <trkpt lat="45.903641" lon="6.917436"><ele>3180.1</ele></trkpt>
      <trkpt lat="45.903466" lon="6.917347"><ele>3153.2</ele></trkpt>
      <trkpt lat="45.903289" lon="6.917394"><ele>3135.2</ele></trkpt>
      <trkpt lat="45.903257" lon="6.916880"><ele>3113.0</ele></trkpt>
      <trkpt lat="45.903334" lon="6.916626"><ele>3101.8</ele></trkpt>
      <trkpt lat="45.903484" lon="6.916479"><ele>3080.9</ele></trkpt>
      <trkpt lat="45.903725" lon="6.916081"><ele>3082.3</ele></trkpt>
      <trkpt lat="45.903436" lon="6.915750"><ele>3075.4</ele></trkpt>
      <trkpt lat="45.903318" lon="6.915240"><ele>3078.3</ele></trkpt>
      <trkpt lat="45.903359" lon="6.914722"><ele>3022.6</ele></trkpt>
      <trkpt lat="45.903328" lon="6.914461"><ele>2996.0</ele></trkpt>
      <trkpt lat="45.903233" lon="6.914241"><ele>2984.6</ele></trkpt>
      <trkpt lat="45.903261" lon="6.913972"><ele>2975.1</ele></trkpt>
      <trkpt lat="45.903361" lon="6.913743"><ele>2966.4</ele></trkpt>
      <trkpt lat="45.903941" lon="6.913088"><ele>2943.6</ele></trkpt>
      <trkpt lat="45.904305" lon="6.913018"><ele>2930.4</ele></trkpt>
      <trkpt lat="45.905118" lon="6.912381"><ele>2874.7</ele></trkpt>
      <trkpt lat="45.905281" lon="6.912518"><ele>2871.2</ele></trkpt>
      <trkpt lat="45.905450" lon="6.912419"><ele>2848.8</ele></trkpt>
      <trkpt lat="45.905459" lon="6.912156"><ele>2811.4</ele></trkpt>
      <trkpt lat="45.905626" lon="6.912044"><ele>2795.1</ele></trkpt>
      <trkpt lat="45.905984" lon="6.912102"><ele>2731.0</ele></trkpt>
      <trkpt lat="45.906155" lon="6.912016"><ele>2691.1</ele></trkpt>
      <trkpt lat="45.906338" lon="6.912035"><ele>2704.4</ele></trkpt>
      <trkpt lat="45.906157" lon="6.912039"><ele>2685.2</ele></trkpt>
      <trkpt lat="45.906358" lon="6.911294"><ele>2645.5</ele></trkpt>
      <trkpt lat="45.906717" lon="6.911210"><ele>2624.3</ele></trkpt>
      <trkpt lat="45.906847" lon="6.911025"><ele>2608.6</ele></trkpt>
      <trkpt lat="45.906982" lon="6.910541"><ele>2586.9</ele></trkpt>
      <trkpt lat="45.906809" lon="6.910080"><ele>2576.8</ele></trkpt>
      <trkpt lat="45.906695" lon="6.909306"><ele>2576.0</ele></trkpt>
      <trkpt lat="45.906562" lon="6.908803"><ele>2570.3</ele></trkpt>
      <trkpt lat="45.906421" lon="6.907235"><ele>2538.7</ele></trkpt>
      <trkpt lat="45.906505" lon="6.906999"><ele>2537.8</ele></trkpt>
      <trkpt lat="45.906765" lon="6.906617"><ele>2530.0</ele></trkpt>
      <trkpt lat="45.906841" lon="6.906381"><ele>2532.2</ele></trkpt>
      <trkpt lat="45.907031" lon="6.906406"><ele>2543.8</ele></trkpt>
      <trkpt lat="45.907386" lon="6.906290"><ele>2538.5</ele></trkpt>
      <trkpt lat="45.907685" lon="6.905988"><ele>2520.1</ele></trkpt>
      <trkpt lat="45.907664" lon="6.905731"><ele>2508.5</ele></trkpt>
      <trkpt lat="45.907815" lon="6.905580"><ele>2499.7</ele></trkpt>
      <trkpt lat="45.907695" lon="6.905369"><ele>2483.4</ele></trkpt>
      <trkpt lat="45.907859" lon="6.905244"><ele>2478.2</ele></trkpt>
      <trkpt lat="45.907903" lon="6.904990"><ele>2465.2</ele></trkpt>
      <trkpt lat="45.908162" lon="6.904614"><ele>2453.6</ele></trkpt>
      <trkpt lat="45.908109" lon="6.904362"><ele>2438.5</ele></trkpt>
      <trkpt lat="45.908192" lon="6.904128"><ele>2430.4</ele></trkpt>
      <trkpt lat="45.908188" lon="6.903861"><ele>2429.6</ele></trkpt>
      <trkpt lat="45.908306" lon="6.903659"><ele>2413.9</ele></trkpt>
      <trkpt lat="45.908244" lon="6.902876"><ele>2401.4</ele></trkpt>
      <trkpt lat="45.908267" lon="6.902614"><ele>2399.1</ele></trkpt>
      <trkpt lat="45.908532" lon="6.902257"><ele>2379.3</ele></trkpt>
      <trkpt lat="45.908718" lon="6.902253"><ele>2377.3</ele></trkpt>
      <trkpt lat="45.908811" lon="6.902031"><ele>2364.0</ele></trkpt>
      <trkpt lat="45.909109" lon="6.901736"><ele>2351.3</ele></trkpt>
      <trkpt lat="45.909289" lon="6.901744"><ele>2347.1</ele></trkpt>
      <trkpt lat="45.909395" lon="6.901239"><ele>2334.8</ele></trkpt>
      <trkpt lat="45.909745" lon="6.901082"><ele>2325.6</ele></trkpt>
      <trkpt lat="45.909883" lon="6.900913"><ele>2308.6</ele></trkpt>
      <trkpt lat="45.909905" lon="6.900644"><ele>2305.5</ele></trkpt>
      <trkpt lat="45.910015" lon="6.900437"><ele>2303.1</ele></trkpt>
      <trkpt lat="45.910191" lon="6.900357"><ele>2300.4</ele></trkpt>
      <trkpt lat="45.910293" lon="6.900135"><ele>2293.2</ele></trkpt>
      <trkpt lat="45.910659" lon="6.900075"><ele>2292.5</ele></trkpt>
      <trkpt lat="45.910755" lon="6.899847"><ele>2281.0</ele></trkpt>
      <trkpt lat="45.910938" lon="6.899819"><ele>2276.3</ele></trkpt>
      <trkpt lat="45.911081" lon="6.899658"><ele>2270.0</ele></trkpt>
      <trkpt lat="45.911172" lon="6.899425"><ele>2260.7</ele></trkpt>
      <trkpt lat="45.911506" lon="6.899218"><ele>2243.1</ele></trkpt>
      <trkpt lat="45.911692" lon="6.899279"><ele>2240.1</ele></trkpt>
      <trkpt lat="45.911789" lon="6.899052"><ele>2237.0</ele></trkpt>
      <trkpt lat="45.911970" lon="6.899041"><ele>2237.3</ele></trkpt>
      <trkpt lat="45.911995" lon="6.898779"><ele>2223.9</ele></trkpt>
      <trkpt lat="45.912176" lon="6.898767"><ele>2211.6</ele></trkpt>
      <trkpt lat="45.912768" lon="6.898139"><ele>2177.9</ele></trkpt>
      <trkpt lat="45.912900" lon="6.897949"><ele>2174.4</ele></trkpt>
      <trkpt lat="45.912932" lon="6.897691"><ele>2168.4</ele></trkpt>
      <trkpt lat="45.913113" lon="6.897662"><ele>2152.4</ele></trkpt>
      <trkpt lat="45.913462" lon="6.897787"><ele>2139.9</ele></trkpt>
      <trkpt lat="45.913796" lon="6.898018"><ele>2136.6</ele></trkpt>
      <trkpt lat="45.914164" lon="6.898092"><ele>2129.9</ele></trkpt>
      <trkpt lat="45.914293" lon="6.897894"><ele>2124.0</ele></trkpt>
      <trkpt lat="45.914213" lon="6.897638"><ele>2121.9</ele></trkpt>
      <trkpt lat="45.914528" lon="6.897390"><ele>2117.3</ele></trkpt>
      <trkpt lat="45.914703" lon="6.897482"><ele>2107.6</ele></trkpt>
      <trkpt lat="45.914649" lon="6.897230"><ele>2113.4</ele></trkpt>
      <trkpt lat="45.914825" lon="6.897142"><ele>2105.4</ele></trkpt>
      <trkpt lat="45.915093" lon="6.896792"><ele>2077.7</ele></trkpt>
      <trkpt lat="45.915284" lon="6.896805"><ele>2070.2</ele></trkpt>
      <trkpt lat="45.915387" lon="6.896590"><ele>2062.0</ele></trkpt>
      <trkpt lat="45.915379" lon="6.896328"><ele>2058.2</ele></trkpt>
      <trkpt lat="45.915505" lon="6.896142"><ele>2056.8</ele></trkpt>
      <trkpt lat="45.915615" lon="6.895655"><ele>2046.6</ele></trkpt>
      <trkpt lat="45.916343" lon="6.895752"><ele>2010.1</ele></trkpt>
      <trkpt lat="45.916253" lon="6.895526"><ele>2014.0</ele></trkpt>
      <trkpt lat="45.916500" lon="6.895147"><ele>1978.1</ele></trkpt>
      <trkpt lat="45.916521" lon="6.894887"><ele>1976.2</ele></trkpt>
      <trkpt lat="45.916428" lon="6.894372"><ele>1970.5</ele></trkpt>
      <trkpt lat="45.916585" lon="6.894243"><ele>1961.5</ele></trkpt>
      <trkpt lat="45.916474" lon="6.894031"><ele>1960.9</ele></trkpt>
      <trkpt lat="45.916166" lon="6.893737"><ele>1954.0</ele></trkpt>
      <trkpt lat="45.915983" lon="6.893716"><ele>1954.0</ele></trkpt>
      <trkpt lat="45.915834" lon="6.893569"><ele>1947.6</ele></trkpt>
      <trkpt lat="45.915858" lon="6.893312"><ele>1934.9</ele></trkpt>
      <trkpt lat="45.916196" lon="6.893125"><ele>1919.5</ele></trkpt>
      <trkpt lat="45.916754" lon="6.893004"><ele>1901.9</ele></trkpt>
      <trkpt lat="45.916765" lon="6.892739"><ele>1897.9</ele></trkpt>
      <trkpt lat="45.916849" lon="6.892509"><ele>1893.5</ele></trkpt>
      <trkpt lat="45.917033" lon="6.892524"><ele>1886.6</ele></trkpt>
      <trkpt lat="45.917034" lon="6.892261"><ele>1874.7</ele></trkpt>
      <trkpt lat="45.917588" lon="6.892189"><ele>1855.4</ele></trkpt>
      <trkpt lat="45.917903" lon="6.892451"><ele>1843.7</ele></trkpt>
      <trkpt lat="45.917950" lon="6.892188"><ele>1828.1</ele></trkpt>
      <trkpt lat="45.917872" lon="6.891952"><ele>1826.9</ele></trkpt>
      <trkpt lat="45.917910" lon="6.891692"><ele>1821.5</ele></trkpt>
      <trkpt lat="45.917876" lon="6.891436"><ele>1822.0</ele></trkpt>
      <trkpt lat="45.917985" lon="6.891229"><ele>1819.2</ele></trkpt>
      <trkpt lat="45.917869" lon="6.891019"><ele>1813.0</ele></trkpt>
      <trkpt lat="45.917888" lon="6.890479"><ele>1796.2</ele></trkpt>
      <trkpt lat="45.917728" lon="6.890359"><ele>1794.7</ele></trkpt>
      <trkpt lat="45.917910" lon="6.890348"><ele>1775.2</ele></trkpt>
      <trkpt lat="45.917850" lon="6.890097"><ele>1772.3</ele></trkpt>
      <trkpt lat="45.917867" lon="6.889834"><ele>1757.0</ele></trkpt>
      <trkpt lat="45.917742" lon="6.889627"><ele>1757.3</ele></trkpt>
      <trkpt lat="45.917911" lon="6.889517"><ele>1741.0</ele></trkpt>
      <trkpt lat="45.918264" lon="6.889633"><ele>1727.8</ele></trkpt>
      <trkpt lat="45.918622" lon="6.889503"><ele>1715.6</ele></trkpt>
      <trkpt lat="45.918778" lon="6.889647"><ele>1710.5</ele></trkpt>
      <trkpt lat="45.918601" lon="6.889569"><ele>1710.1</ele></trkpt>
      <trkpt lat="45.918616" lon="6.889305"><ele>1710.6</ele></trkpt>
      <trkpt lat="45.918752" lon="6.889131"><ele>1703.0</ele></trkpt>
      <trkpt lat="45.919104" lon="6.889237"><ele>1693.5</ele></trkpt>
      <trkpt lat="45.919064" lon="6.888980"><ele>1686.8</ele></trkpt>
      <trkpt lat="45.918610" lon="6.888517"><ele>1675.1</ele></trkpt>
      <trkpt lat="45.918260" lon="6.888353"><ele>1671.2</ele></trkpt>
      <trkpt lat="45.917996" lon="6.887975"><ele>1665.3</ele></trkpt>
      <trkpt lat="45.917684" lon="6.887685"><ele>1661.7</ele></trkpt>
      <trkpt lat="45.917507" lon="6.887612"><ele>1659.7</ele></trkpt>
      <trkpt lat="45.916534" lon="6.886845"><ele>1639.2</ele></trkpt>
      <trkpt lat="45.916292" lon="6.886457"><ele>1633.6</ele></trkpt>
      <trkpt lat="45.915945" lon="6.886344"><ele>1621.8</ele></trkpt>
      <trkpt lat="45.916129" lon="6.886323"><ele>1608.9</ele></trkpt>
      <trkpt lat="45.916260" lon="6.886138"><ele>1598.4</ele></trkpt>
      <trkpt lat="45.916443" lon="6.886108"><ele>1593.5</ele></trkpt>
      <trkpt lat="45.916322" lon="6.885901"><ele>1585.3</ele></trkpt>
      <trkpt lat="45.916277" lon="6.885640"><ele>1584.4</ele></trkpt>
      <trkpt lat="45.917685" lon="6.885034"><ele>1534.0</ele></trkpt>
      <trkpt lat="45.917534" lon="6.884559"><ele>1518.4</ele></trkpt>
      <trkpt lat="45.918252" lon="6.884757"><ele>1496.8</ele></trkpt>
      <trkpt lat="45.918671" lon="6.884825"><ele>1467.6</ele></trkpt>
      <trkpt lat="45.918648" lon="6.884560"><ele>1465.1</ele></trkpt>
      <trkpt lat="45.918564" lon="6.884324"><ele>1457.7</ele></trkpt>
      <trkpt lat="45.918744" lon="6.884269"><ele>1449.0</ele></trkpt>
      <trkpt lat="45.920067" lon="6.885168"><ele>1418.3</ele></trkpt>
      <trkpt lat="45.920058" lon="6.884904"><ele>1409.8</ele></trkpt>
      <trkpt lat="45.919826" lon="6.884502"><ele>1401.8</ele></trkpt>
      <trkpt lat="45.919806" lon="6.884241"><ele>1397.7</ele></trkpt>
      <trkpt lat="45.919578" lon="6.883834"><ele>1390.6</ele></trkpt>
      <trkpt lat="45.919464" lon="6.883334"><ele>1363.0</ele></trkpt>
      <trkpt lat="45.919749" lon="6.883675"><ele>1338.0</ele></trkpt>
      <trkpt lat="45.920415" lon="6.884114"><ele>1331.7</ele></trkpt>
      <trkpt lat="45.920594" lon="6.884157"><ele>1323.5</ele></trkpt>
      <trkpt lat="45.920512" lon="6.883918"><ele>1325.1</ele></trkpt>
      <trkpt lat="45.920693" lon="6.883897"><ele>1318.3</ele></trkpt>
      <trkpt lat="45.920865" lon="6.883986"><ele>1307.8</ele></trkpt>
      <trkpt lat="45.920814" lon="6.883734"><ele>1314.9</ele></trkpt>
      <trkpt lat="45.920424" lon="6.883182"><ele>1300.2</ele></trkpt>
      <trkpt lat="45.920607" lon="6.883115"><ele>1289.5</ele></trkpt>
      <trkpt lat="45.920786" lon="6.883168"><ele>1283.0</ele></trkpt>
      <trkpt lat="45.920714" lon="6.882922"><ele>1276.9</ele></trkpt>
      <trkpt lat="45.920580" lon="6.882741"><ele>1272.6</ele></trkpt>
      <trkpt lat="45.920437" lon="6.882263"><ele>1255.9</ele></trkpt>
      <trkpt lat="45.920329" lon="6.881491"><ele>1236.0</ele></trkpt>
      <trkpt lat="45.919920" lon="6.880594"><ele>1215.0</ele></trkpt>
      <trkpt lat="45.919913" lon="6.880328"><ele>1209.9</ele></trkpt>
      <trkpt lat="45.920211" lon="6.880017"><ele>1177.4</ele></trkpt>
      <trkpt lat="45.920071" lon="6.879528"><ele>1168.9</ele></trkpt>
      <trkpt lat="45.920249" lon="6.879472"><ele>1156.6</ele></trkpt>
      <trkpt lat="45.920604" lon="6.879591"><ele>1145.3</ele></trkpt>
      <trkpt lat="45.920480" lon="6.879089"><ele>1116.3</ele></trkpt>
      <trkpt lat="45.920821" lon="6.879302"><ele>1121.5</ele></trkpt>
      <trkpt lat="45.920651" lon="6.878835"><ele>1103.0</ele></trkpt>
      <trkpt lat="45.920811" lon="6.878973"><ele>1092.2</ele></trkpt>
      <trkpt lat="45.920867" lon="6.878716"><ele>1075.9</ele></trkpt>
      <trkpt lat="45.921058" lon="6.878674"><ele>1069.8</ele></trkpt>
      <trkpt lat="45.921033" lon="6.878406"><ele>1073.3</ele></trkpt>
      <trkpt lat="45.921212" lon="6.878365"><ele>1060.4</ele></trkpt>
      <trkpt lat="45.921373" lon="6.878506"><ele>1059.3</ele></trkpt>
      <trkpt lat="45.921918" lon="6.878357"><ele>1047.8</ele></trkpt>
      <trkpt lat="45.922092" lon="6.878444"><ele>1043.2</ele></trkpt>
      <trkpt lat="45.922455" lon="6.878428"><ele>1033.9</ele></trkpt>
      <trkpt lat="45.922616" lon="6.878278"><ele>1036.9</ele></trkpt>
      <trkpt lat="45.922868" lon="6.877873"><ele>1039.3</ele></trkpt>
      <trkpt lat="45.923130" lon="6.877176"><ele>1042.0</ele></trkpt>
      <trkpt lat="45.923255" lon="6.876983"><ele>1041.0</ele></trkpt>
      <trkpt lat="45.923432" lon="6.877076"><ele>1041.3</ele></trkpt>
      <trkpt lat="45.923820" lon="6.877644"><ele>1048.5</ele></trkpt>
      <trkpt lat="45.924213" lon="6.878542"><ele>1055.8</ele></trkpt>
      <trkpt lat="45.923991" lon="6.878965"><ele>1057.0</ele></trkpt>
      <trkpt lat="45.923844" lon="6.879128"><ele>1054.7</ele></trkpt>
      <trkpt lat="45.923871" lon="6.879384"><ele>1054.7</ele></trkpt>
      <trkpt lat="45.923752" lon="6.879187"><ele>1058.5</ele></trkpt>
      <trkpt lat="45.924238" lon="6.878630"><ele>1051.7</ele></trkpt>
      <trkpt lat="45.924132" lon="6.878304"><ele>1047.1</ele></trkpt>
      <trkpt lat="45.923320" lon="6.876876"><ele>1043.8</ele></trkpt>
    </trkseg>
  </trk>
</gpx>