<?xml version="1.0" encoding="UTF-8"?>
<gpx version="1.1" creator="AlpHD-batch" xmlns="http://www.topografix.com/GPX/1/1">
  <trk>
    <name>Le Linceul</name>
    <trkseg>
      <trkpt lat="45.8770150" lon="6.9893260"><ele>3101.2</ele></trkpt>
      <trkpt lat="45.8769204" lon="6.9889631"><ele>3101.3</ele></trkpt>
      <trkpt lat="45.8770899" lon="6.9886797"><ele>3101.3</ele></trkpt>
      <trkpt lat="45.8772657" lon="6.9883858"><ele>3101.4</ele></trkpt>
      <trkpt lat="45.8774415" lon="6.9880918"><ele>3101.4</ele></trkpt>
      <trkpt lat="45.8774142" lon="6.9880537"><ele>3101.5</ele></trkpt>
      <trkpt lat="45.8772869" lon="6.9880498"><ele>3101.7</ele></trkpt>
      <trkpt lat="45.8770172" lon="6.9880415"><ele>3101.9</ele></trkpt>
      <trkpt lat="45.8768661" lon="6.9880018"><ele>3102.1</ele></trkpt>
      <trkpt lat="45.8768465" lon="6.9880009"><ele>3102.4</ele></trkpt>
      <trkpt lat="45.8765768" lon="6.9879885"><ele>3102.9</ele></trkpt>
      <trkpt lat="45.8763072" lon="6.9879762"><ele>3103.3</ele></trkpt>
      <trkpt lat="45.8760375" lon="6.9879639"><ele>3103.7</ele></trkpt>
      <trkpt lat="45.8758107" lon="6.9879155"><ele>3104.1</ele></trkpt>
      <trkpt lat="45.8755439" lon="6.9878585"><ele>3104.6</ele></trkpt>
      <trkpt lat="45.8754944" lon="6.9878611"><ele>3105.0</ele></trkpt>
      <trkpt lat="45.8752248" lon="6.9878755"><ele>3105.3</ele></trkpt>
      <trkpt lat="45.8749551" lon="6.9878899"><ele>3105.6</ele></trkpt>
      <trkpt lat="45.8746855" lon="6.9879043"><ele>3105.8</ele></trkpt>
      <trkpt lat="45.8744894" lon="6.9879618"><ele>3105.8</ele></trkpt>
      <trkpt lat="45.8744782" lon="6.9879601"><ele>3105.9</ele></trkpt>
      <trkpt lat="45.8742098" lon="6.9879211"><ele>3106.6</ele></trkpt>
      <trkpt lat="45.8739414" lon="6.9878820"><ele>3108.1</ele></trkpt>
      <trkpt lat="45.8736729" lon="6.9878430"><ele>3110.2</ele></trkpt>
      <trkpt lat="45.8734597" lon="6.9878776"><ele>3113.0</ele></trkpt>
      <trkpt lat="45.8733355" lon="6.9878528"><ele>3115.8</ele></trkpt>
      <trkpt lat="45.8732104" lon="6.9879217"><ele>3118.8</ele></trkpt>
      <trkpt lat="45.8731469" lon="6.9876595"><ele>3122.9</ele></trkpt>
      <trkpt lat="45.8730345" lon="6.9873853"><ele>3127.0</ele></trkpt>
      <trkpt lat="45.8730206" lon="6.9873609"><ele>3132.4</ele></trkpt>
      <trkpt lat="45.8729856" lon="6.9873509"><ele>3138.4</ele></trkpt>
      <trkpt lat="45.8729319" lon="6.9873302"><ele>3146.1</ele></trkpt>
      <trkpt lat="45.8728930" lon="6.9872995"><ele>3154.2</ele></trkpt>
      <trkpt lat="45.8728422" lon="6.9872829"><ele>3163.8</ele></trkpt>
      <trkpt lat="45.8728146" lon="6.9873237"><ele>3176.5</ele></trkpt>
      <trkpt lat="45.8727310" lon="6.9872982"><ele>3191.1</ele></trkpt>
      <trkpt lat="45.8726897" lon="6.9873058"><ele>3207.9</ele></trkpt>
      <trkpt lat="45.8726052" lon="6.9873140"><ele>3225.8</ele></trkpt>
      <trkpt lat="45.8724633" lon="6.9872687"><ele>3243.2</ele></trkpt>
      <trkpt lat="45.8723032" lon="6.9873433"><ele>3259.9</ele></trkpt>
      <trkpt lat="45.8722219" lon="6.9875142"><ele>3276.2</ele></trkpt>
      <trkpt lat="45.8721691" lon="6.9875460"><ele>3293.3</ele></trkpt>
      <trkpt lat="45.8721372" lon="6.9875665"><ele>3308.5</ele></trkpt>
      <trkpt lat="45.8721092" lon="6.9875939"><ele>3322.1</ele></trkpt>
      <trkpt lat="45.8720233" lon="6.9876486"><ele>3335.0</ele></trkpt>
      <trkpt lat="45.8719225" lon="6.9876406"><ele>3344.9</ele></trkpt>
      <trkpt lat="45.8718998" lon="6.9876455"><ele>3354.7</ele></trkpt>
      <trkpt lat="45.8718300" lon="6.9876457"><ele>3364.6</ele></trkpt>
      <trkpt lat="45.8717567" lon="6.9876467"><ele>3376.4</ele></trkpt>
      <trkpt lat="45.8717459" lon="6.9876440"><ele>3388.0</ele></trkpt>
      <trkpt lat="45.8716604" lon="6.9876823"><ele>3400.3</ele></trkpt>
      <trkpt lat="45.8716282" lon="6.9876932"><ele>3412.4</ele></trkpt>
      <trkpt lat="45.8715078" lon="6.9877235"><ele>3426.8</ele></trkpt>
      <trkpt lat="45.8714289" lon="6.9877736"><ele>3440.4</ele></trkpt>
      <trkpt lat="45.8712878" lon="6.9878623"><ele>3455.3</ele></trkpt>
      <trkpt lat="45.8712758" lon="6.9878720"><ele>3469.8</ele></trkpt>
      <trkpt lat="45.8710950" lon="6.9880386"><ele>3485.9</ele></trkpt>
      <trkpt lat="45.8710694" lon="6.9880691"><ele>3499.6</ele></trkpt>
      <trkpt lat="45.8709921" lon="6.9881462"><ele>3512.9</ele></trkpt>
      <trkpt lat="45.8709730" lon="6.9881920"><ele>3524.0</ele></trkpt>
      <trkpt lat="45.8708537" lon="6.9883293"><ele>3535.0</ele></trkpt>
      <trkpt lat="45.8708493" lon="6.9883417"><ele>3543.2</ele></trkpt>
      <trkpt lat="45.8708299" lon="6.9884765"><ele>3551.3</ele></trkpt>
      <trkpt lat="45.8708132" lon="6.9884957"><ele>3558.6</ele></trkpt>
      <trkpt lat="45.8708033" lon="6.9885132"><ele>3569.5</ele></trkpt>
      <trkpt lat="45.8707690" lon="6.9885625"><ele>3579.3</ele></trkpt>
      <trkpt lat="45.8707497" lon="6.9885994"><ele>3590.4</ele></trkpt>
      <trkpt lat="45.8707084" lon="6.9886481"><ele>3601.3</ele></trkpt>
      <trkpt lat="45.8704998" lon="6.9888938"><ele>3612.4</ele></trkpt>
      <trkpt lat="45.8704328" lon="6.9889759"><ele>3623.4</ele></trkpt>
      <trkpt lat="45.8703946" lon="6.9890606"><ele>3634.1</ele></trkpt>
      <trkpt lat="45.8703896" lon="6.9891608"><ele>3644.7</ele></trkpt>
      <trkpt lat="45.8702744" lon="6.9891936"><ele>3655.3</ele></trkpt>
      <trkpt lat="45.8702779" lon="6.9891969"><ele>3661.9</ele></trkpt>
      <trkpt lat="45.8703118" lon="6.9892278"><ele>3667.8</ele></trkpt>
      <trkpt lat="45.8702969" lon="6.9892636"><ele>3672.6</ele></trkpt>
      <trkpt lat="45.8702571" lon="6.9893048"><ele>3676.4</ele></trkpt>
      <trkpt lat="45.8702389" lon="6.9893274"><ele>3680.6</ele></trkpt>
      <trkpt lat="45.8702115" lon="6.9893494"><ele>3687.0</ele></trkpt>
      <trkpt lat="45.8701961" lon="6.9893660"><ele>3693.6</ele></trkpt>
      <trkpt lat="45.8701918" lon="6.9893703"><ele>3700.7</ele></trkpt>
      <trkpt lat="45.8701484" lon="6.9894334"><ele>3707.5</ele></trkpt>
      <trkpt lat="45.8700524" lon="6.9895064"><ele>3716.9</ele></trkpt>
      <trkpt lat="45.8699982" lon="6.9895493"><ele>3726.1</ele></trkpt>
      <trkpt lat="45.8699618" lon="6.9895978"><ele>3735.2</ele></trkpt>
      <trkpt lat="45.8699483" lon="6.9896329"><ele>3744.2</ele></trkpt>
      <trkpt lat="45.8697566" lon="6.9896998"><ele>3752.0</ele></trkpt>
      <trkpt lat="45.8697118" lon="6.9897443"><ele>3757.9</ele></trkpt>
      <trkpt lat="45.8697341" lon="6.9897470"><ele>3763.2</ele></trkpt>
      <trkpt lat="45.8697029" lon="6.9897719"><ele>3768.7</ele></trkpt>
      <trkpt lat="45.8696982" lon="6.9897768"><ele>3774.1</ele></trkpt>
      <trkpt lat="45.8695923" lon="6.9897543"><ele>3776.9</ele></trkpt>
      <trkpt lat="45.8696407" lon="6.9898066"><ele>3781.7</ele></trkpt>
      <trkpt lat="45.8696489" lon="6.9899221"><ele>3786.7</ele></trkpt>
      <trkpt lat="45.8696149" lon="6.9899850"><ele>3793.4</ele></trkpt>
      <trkpt lat="45.8696094" lon="6.9900030"><ele>3801.0</ele></trkpt>
      <trkpt lat="45.8695198" lon="6.9901781"><ele>3809.1</ele></trkpt>
      <trkpt lat="45.8695131" lon="6.9902126"><ele>3817.5</ele></trkpt>
      <trkpt lat="45.8694639" lon="6.9903405"><ele>3825.8</ele></trkpt>
      <trkpt lat="45.8694409" lon="6.9904008"><ele>3834.7</ele></trkpt>
      <trkpt lat="45.8694225" lon="6.9904607"><ele>3845.4</ele></trkpt>
      <trkpt lat="45.8694000" lon="6.9904954"><ele>3855.2</ele></trkpt>
      <trkpt lat="45.8693435" lon="6.9906262"><ele>3865.7</ele></trkpt>
      <trkpt lat="45.8693037" lon="6.9906832"><ele>3875.9</ele></trkpt>
      <trkpt lat="45.8692498" lon="6.9908448"><ele>3885.3</ele></trkpt>
      <trkpt lat="45.8692277" lon="6.9909697"><ele>3894.0</ele></trkpt>
      <trkpt lat="45.8691816" lon="6.9910710"><ele>3903.1</ele></trkpt>
      <trkpt lat="45.8691452" lon="6.9912690"><ele>3911.3</ele></trkpt>
      <trkpt lat="45.8691109" lon="6.9912502"><ele>3919.6</ele></trkpt>
      <trkpt lat="45.8691067" lon="6.9912454"><ele>3926.9</ele></trkpt>
      <trkpt lat="45.8691046" lon="6.9913520"><ele>3932.9</ele></trkpt>
      <trkpt lat="45.8691037" lon="6.9913526"><ele>3938.3</ele></trkpt>
      <trkpt lat="45.8690588" lon="6.9914406"><ele>3943.9</ele></trkpt>
      <trkpt lat="45.8690390" lon="6.9915033"><ele>3950.6</ele></trkpt>
      <trkpt lat="45.8690372" lon="6.9915033"><ele>3957.7</ele></trkpt>
      <trkpt lat="45.8689950" lon="6.9915186"><ele>3964.2</ele></trkpt>
      <trkpt lat="45.8689529" lon="6.9915327"><ele>3971.2</ele></trkpt>
      <trkpt lat="45.8688256" lon="6.9915436"><ele>3977.0</ele></trkpt>
      <trkpt lat="45.8687915" lon="6.9915172"><ele>3982.3</ele></trkpt>
      <trkpt lat="45.8687836" lon="6.9915099"><ele>3988.3</ele></trkpt>
      <trkpt lat="45.8687157" lon="6.9914767"><ele>3994.8</ele></trkpt>
      <trkpt lat="45.8687104" lon="6.9914703"><ele>4001.2</ele></trkpt>
      <trkpt lat="45.8686338" lon="6.9914088"><ele>4008.8</ele></trkpt>
      <trkpt lat="45.8685920" lon="6.9913439"><ele>4018.4</ele></trkpt>
      <trkpt lat="45.8685308" lon="6.9912805"><ele>4028.8</ele></trkpt>
      <trkpt lat="45.8684271" lon="6.9911415"><ele>4040.1</ele></trkpt>
      <trkpt lat="45.8682518" lon="6.9910635"><ele>4052.8</ele></trkpt>
      <trkpt lat="45.8681543" lon="6.9908864"><ele>4067.7</ele></trkpt>
      <trkpt lat="45.8681354" lon="6.9908324"><ele>4081.9</ele></trkpt>
      <trkpt lat="45.8680574" lon="6.9907245"><ele>4098.0</ele></trkpt>
      <trkpt lat="45.8680033" lon="6.9906404"><ele>4113.2</ele></trkpt>
      <trkpt lat="45.8679079" lon="6.9904272"><ele>4126.5</ele></trkpt>
      <trkpt lat="45.8679053" lon="6.9904247"><ele>4138.4</ele></trkpt>
      <trkpt lat="45.8678682" lon="6.9902630"><ele>4150.0</ele></trkpt>
      <trkpt lat="45.8678161" lon="6.9901237"><ele>4160.6</ele></trkpt>
      <trkpt lat="45.8678320" lon="6.9900230"><ele>4170.5</ele></trkpt>
      <trkpt lat="45.8678383" lon="6.9898172"><ele>4178.1</ele></trkpt>
      <trkpt lat="45.8678541" lon="6.9896921"><ele>4183.4</ele></trkpt>
      <trkpt lat="45.8679079" lon="6.9894436"><ele>4186.8</ele></trkpt>
      <trkpt lat="45.8680360" lon="6.9891950"><ele>4189.7</ele></trkpt>
      <trkpt lat="45.8681966" lon="6.9888836"><ele>4193.0</ele></trkpt>
    </trkseg>
  </trk>
</gpx>