<?xml version="1.0" encoding="UTF-8"?>
<gpx version="1.1" creator="AlpHD" xmlns="http://www.topografix.com/GPX/1/1">
  <trk>
    <name>Triangle du Tacul — Lifting du Roi</name>
    <trkseg>
      <trkpt lat="45.845245" lon="6.933587"><ele>3372.6</ele></trkpt>
      <trkpt lat="45.846149" lon="6.932878"><ele>3371.6</ele></trkpt>
      <trkpt lat="45.846688" lon="6.932182"><ele>3381.4</ele></trkpt>
      <trkpt lat="45.846955" lon="6.931794"><ele>3385.6</ele></trkpt>
      <trkpt lat="45.847740" lon="6.930228"><ele>3393.2</ele></trkpt>
      <trkpt lat="45.848101" lon="6.929622"><ele>3393.6</ele></trkpt>
      <trkpt lat="45.848390" lon="6.929337"><ele>3392.8</ele></trkpt>
      <trkpt lat="45.849262" lon="6.927914"><ele>3397.0</ele></trkpt>
      <trkpt lat="45.849560" lon="6.927703"><ele>3401.6</ele></trkpt>
      <trkpt lat="45.849687" lon="6.926916"><ele>3399.4</ele></trkpt>
      <trkpt lat="45.849680" lon="6.925742"><ele>3390.2</ele></trkpt>
      <trkpt lat="45.849523" lon="6.924619"><ele>3380.0</ele></trkpt>
      <trkpt lat="45.849776" lon="6.923445"><ele>3358.8</ele></trkpt>
      <trkpt lat="45.849954" lon="6.923157"><ele>3352.2</ele></trkpt>
      <trkpt lat="45.850004" lon="6.922744"><ele>3345.0</ele></trkpt>
      <trkpt lat="45.850344" lon="6.921793"><ele>3313.4</ele></trkpt>
      <trkpt lat="45.850476" lon="6.921529"><ele>3301.6</ele></trkpt>
      <trkpt lat="45.850619" lon="6.921216"><ele>3287.6</ele></trkpt>
      <trkpt lat="45.850440" lon="6.920396"><ele>3263.6</ele></trkpt>
      <trkpt lat="45.850027" lon="6.919597"><ele>3264.8</ele></trkpt>
      <trkpt lat="45.849804" lon="6.918255"><ele>3272.6</ele></trkpt>
      <trkpt lat="45.849488" lon="6.917202"><ele>3270.6</ele></trkpt>
      <trkpt lat="45.849324" lon="6.916134"><ele>3276.0</ele></trkpt>
      <trkpt lat="45.849216" lon="6.915692"><ele>3278.2</ele></trkpt>
      <trkpt lat="45.849036" lon="6.914990"><ele>3275.8</ele></trkpt>
      <trkpt lat="45.849086" lon="6.914644"><ele>3276.8</ele></trkpt>
      <trkpt lat="45.849398" lon="6.913689"><ele>3285.6</ele></trkpt>
      <trkpt lat="45.849446" lon="6.913263"><ele>3287.0</ele></trkpt>
      <trkpt lat="45.849443" lon="6.912488"><ele>3291.4</ele></trkpt>
      <trkpt lat="45.849713" lon="6.911127"><ele>3294.6</ele></trkpt>
      <trkpt lat="45.849941" lon="6.908460"><ele>3321.2</ele></trkpt>
      <trkpt lat="45.850326" lon="6.907186"><ele>3329.0</ele></trkpt>
      <trkpt lat="45.850737" lon="6.906562"><ele>3329.8</ele></trkpt>
      <trkpt lat="45.850696" lon="6.906292"><ele>3331.8</ele></trkpt>
      <trkpt lat="45.850828" lon="6.905705"><ele>3336.0</ele></trkpt>
      <trkpt lat="45.850852" lon="6.905355"><ele>3338.2</ele></trkpt>
      <trkpt lat="45.850891" lon="6.904669"><ele>3342.2</ele></trkpt>
      <trkpt lat="45.851753" lon="6.903578"><ele>3343.4</ele></trkpt>
      <trkpt lat="45.852249" lon="6.903101"><ele>3352.0</ele></trkpt>
      <trkpt lat="45.852806" lon="6.902997"><ele>3363.8</ele></trkpt>
      <trkpt lat="45.853067" lon="6.903104"><ele>3367.8</ele></trkpt>
      <trkpt lat="45.853220" lon="6.903310"><ele>3378.2</ele></trkpt>
      <trkpt lat="45.853390" lon="6.903215"><ele>3382.0</ele></trkpt>
      <trkpt lat="45.853354" lon="6.902961"><ele>3405.4</ele></trkpt>
      <trkpt lat="45.853174" lon="6.902946"><ele>3419.2</ele></trkpt>
      <trkpt lat="45.853182" lon="6.902674"><ele>3442.4</ele></trkpt>
      <trkpt lat="45.853233" lon="6.902397"><ele>3477.6</ele></trkpt>
      <trkpt lat="45.853294" lon="6.902137"><ele>3500.8</ele></trkpt>
      <trkpt lat="45.853366" lon="6.901880"><ele>3530.0</ele></trkpt>
      <trkpt lat="45.853540" lon="6.901630"><ele>3562.2</ele></trkpt>
    </trkseg>
  </trk>
</gpx>