<?xml version="1.0" encoding="UTF-8"?>
<gpx version="1.1" creator="AlpHD-fetch-route" xmlns="http://www.topografix.com/GPX/1/1">
  <trk>
    <name>Mallory - Porter rectifiée</name>
    <trkseg>
      <trkpt lat="45.9000775" lon="6.8569818"><ele>1275.5</ele></trkpt>
      <trkpt lat="45.9000793" lon="6.8570000"><ele>1275.7</ele></trkpt>
      <trkpt lat="45.9001164" lon="6.8573828"><ele>1275.8</ele></trkpt>
      <trkpt lat="45.9001520" lon="6.8577671"><ele>1276.0</ele></trkpt>
      <trkpt lat="45.9001681" lon="6.8578532"><ele>1276.2</ele></trkpt>
      <trkpt lat="45.9002310" lon="6.8582303"><ele>1277.0</ele></trkpt>
      <trkpt lat="45.9002982" lon="6.8583781"><ele>1278.5</ele></trkpt>
      <trkpt lat="45.9003173" lon="6.8584202"><ele>1280.0</ele></trkpt>
      <trkpt lat="45.9004205" lon="6.8587556"><ele>1282.4</ele></trkpt>
      <trkpt lat="45.9003058" lon="6.8590371"><ele>1285.0</ele></trkpt>
      <trkpt lat="45.9001678" lon="6.8593701"><ele>1287.8</ele></trkpt>
      <trkpt lat="45.9001636" lon="6.8593836"><ele>1291.0</ele></trkpt>
      <trkpt lat="45.9000422" lon="6.8597349"><ele>1294.6</ele></trkpt>
      <trkpt lat="45.8999984" lon="6.8598499"><ele>1299.1</ele></trkpt>
      <trkpt lat="45.8999261" lon="6.8599392"><ele>1303.2</ele></trkpt>
      <trkpt lat="45.8998421" lon="6.8600297"><ele>1308.2</ele></trkpt>
      <trkpt lat="45.8997518" lon="6.8601722"><ele>1313.3</ele></trkpt>
      <trkpt lat="45.8997582" lon="6.8604400"><ele>1317.8</ele></trkpt>
      <trkpt lat="45.8997322" lon="6.8604727"><ele>1322.8</ele></trkpt>
      <trkpt lat="45.8995448" lon="6.8607310"><ele>1329.9</ele></trkpt>
      <trkpt lat="45.8995387" lon="6.8607385"><ele>1337.2</ele></trkpt>
      <trkpt lat="45.8995125" lon="6.8607599"><ele>1344.0</ele></trkpt>
      <trkpt lat="45.8994574" lon="6.8607807"><ele>1351.3</ele></trkpt>
      <trkpt lat="45.8991950" lon="6.8609060"><ele>1359.9</ele></trkpt>
      <trkpt lat="45.8991272" lon="6.8610406"><ele>1367.7</ele></trkpt>
      <trkpt lat="45.8991198" lon="6.8610450"><ele>1375.7</ele></trkpt>
      <trkpt lat="45.8988651" lon="6.8611937"><ele>1383.4</ele></trkpt>
      <trkpt lat="45.8986124" lon="6.8613180"><ele>1392.1</ele></trkpt>
      <trkpt lat="45.8985092" lon="6.8615023"><ele>1398.9</ele></trkpt>
      <trkpt lat="45.8984764" lon="6.8615522"><ele>1405.2</ele></trkpt>
      <trkpt lat="45.8984660" lon="6.8615613"><ele>1411.8</ele></trkpt>
      <trkpt lat="45.8982317" lon="6.8617749"><ele>1418.3</ele></trkpt>
      <trkpt lat="45.8981009" lon="6.8619243"><ele>1424.0</ele></trkpt>
      <trkpt lat="45.8980664" lon="6.8619262"><ele>1429.2</ele></trkpt>
      <trkpt lat="45.8980217" lon="6.8619151"><ele>1434.2</ele></trkpt>
      <trkpt lat="45.8977437" lon="6.8619218"><ele>1440.5</ele></trkpt>
      <trkpt lat="45.8976258" lon="6.8619881"><ele>1446.3</ele></trkpt>
      <trkpt lat="45.8975682" lon="6.8620306"><ele>1452.0</ele></trkpt>
      <trkpt lat="45.8975461" lon="6.8620335"><ele>1457.8</ele></trkpt>
      <trkpt lat="45.8972805" lon="6.8620411"><ele>1464.6</ele></trkpt>
      <trkpt lat="45.8970366" lon="6.8622162"><ele>1471.2</ele></trkpt>
      <trkpt lat="45.8969080" lon="6.8622274"><ele>1477.6</ele></trkpt>
      <trkpt lat="45.8968544" lon="6.8621991"><ele>1483.9</ele></trkpt>
      <trkpt lat="45.8967821" lon="6.8623871"><ele>1491.2</ele></trkpt>
      <trkpt lat="45.8965186" lon="6.8622921"><ele>1497.7</ele></trkpt>
      <trkpt lat="45.8963860" lon="6.8623505"><ele>1503.9</ele></trkpt>
      <trkpt lat="45.8963440" lon="6.8623654"><ele>1510.2</ele></trkpt>
      <trkpt lat="45.8960774" lon="6.8624356"><ele>1516.6</ele></trkpt>
      <trkpt lat="45.8960165" lon="6.8624904"><ele>1522.7</ele></trkpt>
      <trkpt lat="45.8959408" lon="6.8626784"><ele>1528.2</ele></trkpt>
      <trkpt lat="45.8957896" lon="6.8626942"><ele>1533.5</ele></trkpt>
      <trkpt lat="45.8957142" lon="6.8627343"><ele>1539.4</ele></trkpt>
      <trkpt lat="45.8954677" lon="6.8628716"><ele>1544.8</ele></trkpt>
      <trkpt lat="45.8954074" lon="6.8628992"><ele>1550.8</ele></trkpt>
      <trkpt lat="45.8953594" lon="6.8629706"><ele>1556.7</ele></trkpt>
      <trkpt lat="45.8952547" lon="6.8630719"><ele>1562.5</ele></trkpt>
      <trkpt lat="45.8952326" lon="6.8632526"><ele>1568.6</ele></trkpt>
      <trkpt lat="45.8951996" lon="6.8636355"><ele>1574.3</ele></trkpt>
      <trkpt lat="45.8953587" lon="6.8637820"><ele>1580.1</ele></trkpt>
      <trkpt lat="45.8955610" lon="6.8639401"><ele>1585.8</ele></trkpt>
      <trkpt lat="45.8958032" lon="6.8641268"><ele>1590.8</ele></trkpt>
      <trkpt lat="45.8960393" lon="6.8643125"><ele>1596.0</ele></trkpt>
      <trkpt lat="45.8962768" lon="6.8644972"><ele>1600.3</ele></trkpt>
      <trkpt lat="45.8964160" lon="6.8645345"><ele>1604.4</ele></trkpt>
      <trkpt lat="45.8964536" lon="6.8645520"><ele>1608.1</ele></trkpt>
      <trkpt lat="45.8967015" lon="6.8646919"><ele>1612.9</ele></trkpt>
      <trkpt lat="45.8966858" lon="6.8647121"><ele>1617.4</ele></trkpt>
      <trkpt lat="45.8966370" lon="6.8647315"><ele>1621.4</ele></trkpt>
      <trkpt lat="45.8965977" lon="6.8647415"><ele>1625.3</ele></trkpt>
      <trkpt lat="45.8963334" lon="6.8648006"><ele>1631.4</ele></trkpt>
      <trkpt lat="45.8962543" lon="6.8648602"><ele>1636.9</ele></trkpt>
      <trkpt lat="45.8962516" lon="6.8648710"><ele>1642.4</ele></trkpt>
      <trkpt lat="45.8962634" lon="6.8649053"><ele>1649.4</ele></trkpt>
      <trkpt lat="45.8963947" lon="6.8652456"><ele>1656.8</ele></trkpt>
      <trkpt lat="45.8963956" lon="6.8652832"><ele>1663.3</ele></trkpt>
      <trkpt lat="45.8963933" lon="6.8653317"><ele>1670.0</ele></trkpt>
      <trkpt lat="45.8963979" lon="6.8657248"><ele>1677.9</ele></trkpt>
      <trkpt lat="45.8963594" lon="6.8658414"><ele>1685.8</ele></trkpt>
      <trkpt lat="45.8962516" lon="6.8659068"><ele>1692.3</ele></trkpt>
      <trkpt lat="45.8961180" lon="6.8659909"><ele>1699.6</ele></trkpt>
      <trkpt lat="45.8958705" lon="6.8661468"><ele>1707.3</ele></trkpt>
      <trkpt lat="45.8958505" lon="6.8661648"><ele>1714.0</ele></trkpt>
      <trkpt lat="45.8957657" lon="6.8662814"><ele>1720.6</ele></trkpt>
      <trkpt lat="45.8956272" lon="6.8664300"><ele>1726.8</ele></trkpt>
      <trkpt lat="45.8954810" lon="6.8664913"><ele>1732.5</ele></trkpt>
      <trkpt lat="45.8953968" lon="6.8666433"><ele>1738.4</ele></trkpt>
      <trkpt lat="45.8953270" lon="6.8668117"><ele>1744.7</ele></trkpt>
      <trkpt lat="45.8953200" lon="6.8668561"><ele>1751.7</ele></trkpt>
      <trkpt lat="45.8953122" lon="6.8668970"><ele>1758.9</ele></trkpt>
      <trkpt lat="45.8952238" lon="6.8672581"><ele>1765.6</ele></trkpt>
      <trkpt lat="45.8951077" lon="6.8672322"><ele>1772.0</ele></trkpt>
      <trkpt lat="45.8948320" lon="6.8671908"><ele>1777.9</ele></trkpt>
      <trkpt lat="45.8947121" lon="6.8673112"><ele>1784.1</ele></trkpt>
      <trkpt lat="45.8947364" lon="6.8674244"><ele>1789.8</ele></trkpt>
      <trkpt lat="45.8947727" lon="6.8675695"><ele>1794.1</ele></trkpt>
      <trkpt lat="45.8947768" lon="6.8675853"><ele>1798.0</ele></trkpt>
      <trkpt lat="45.8948060" lon="6.8677371"><ele>1800.5</ele></trkpt>
      <trkpt lat="45.8949339" lon="6.8678246"><ele>1803.8</ele></trkpt>
      <trkpt lat="45.8950144" lon="6.8679098"><ele>1807.2</ele></trkpt>
      <trkpt lat="45.8950075" lon="6.8679775"><ele>1810.2</ele></trkpt>
      <trkpt lat="45.8950072" lon="6.8679786"><ele>1813.3</ele></trkpt>
      <trkpt lat="45.8949193" lon="6.8683497"><ele>1816.2</ele></trkpt>
      <trkpt lat="45.8950250" lon="6.8685874"><ele>1821.2</ele></trkpt>
      <trkpt lat="45.8950210" lon="6.8686421"><ele>1826.9</ele></trkpt>
      <trkpt lat="45.8950149" lon="6.8686589"><ele>1832.6</ele></trkpt>
      <trkpt lat="45.8950067" lon="6.8687397"><ele>1838.8</ele></trkpt>
      <trkpt lat="45.8949791" lon="6.8691167"><ele>1843.3</ele></trkpt>
      <trkpt lat="45.8949579" lon="6.8692753"><ele>1848.1</ele></trkpt>
      <trkpt lat="45.8949447" lon="6.8693682"><ele>1853.5</ele></trkpt>
      <trkpt lat="45.8949578" lon="6.8695946"><ele>1859.9</ele></trkpt>
      <trkpt lat="45.8949411" lon="6.8696869"><ele>1866.0</ele></trkpt>
      <trkpt lat="45.8949295" lon="6.8698213"><ele>1870.5</ele></trkpt>
      <trkpt lat="45.8948695" lon="6.8699403"><ele>1876.7</ele></trkpt>
      <trkpt lat="45.8948417" lon="6.8701804"><ele>1884.0</ele></trkpt>
      <trkpt lat="45.8948323" lon="6.8701897"><ele>1891.4</ele></trkpt>
      <trkpt lat="45.8948037" lon="6.8702282"><ele>1898.9</ele></trkpt>
      <trkpt lat="45.8946057" lon="6.8704910"><ele>1905.8</ele></trkpt>
      <trkpt lat="45.8944463" lon="6.8704969"><ele>1912.0</ele></trkpt>
      <trkpt lat="45.8943202" lon="6.8704090"><ele>1917.7</ele></trkpt>
      <trkpt lat="45.8942205" lon="6.8703073"><ele>1924.0</ele></trkpt>
      <trkpt lat="45.8941867" lon="6.8701821"><ele>1930.7</ele></trkpt>
      <trkpt lat="45.8941730" lon="6.8701828"><ele>1936.4</ele></trkpt>
      <trkpt lat="45.8940940" lon="6.8701368"><ele>1941.3</ele></trkpt>
      <trkpt lat="45.8939826" lon="6.8700293"><ele>1947.1</ele></trkpt>
      <trkpt lat="45.8938965" lon="6.8700082"><ele>1952.7</ele></trkpt>
      <trkpt lat="45.8937805" lon="6.8701115"><ele>1959.0</ele></trkpt>
      <trkpt lat="45.8937192" lon="6.8700900"><ele>1965.8</ele></trkpt>
      <trkpt lat="45.8936115" lon="6.8703372"><ele>1972.8</ele></trkpt>
      <trkpt lat="45.8936585" lon="6.8705751"><ele>1979.6</ele></trkpt>
      <trkpt lat="45.8936029" lon="6.8705880"><ele>1985.8</ele></trkpt>
      <trkpt lat="45.8935658" lon="6.8708108"><ele>1992.6</ele></trkpt>
      <trkpt lat="45.8934488" lon="6.8708452"><ele>1999.6</ele></trkpt>
      <trkpt lat="45.8933768" lon="6.8708024"><ele>2003.8</ele></trkpt>
      <trkpt lat="45.8933400" lon="6.8707926"><ele>2008.3</ele></trkpt>
      <trkpt lat="45.8930708" lon="6.8707288"><ele>2013.2</ele></trkpt>
      <trkpt lat="45.8929258" lon="6.8705963"><ele>2017.6</ele></trkpt>
      <trkpt lat="45.8930061" lon="6.8702191"><ele>2021.5</ele></trkpt>
      <trkpt lat="45.8928457" lon="6.8701016"><ele>2026.7</ele></trkpt>
      <trkpt lat="45.8927364" lon="6.8702034"><ele>2031.7</ele></trkpt>
      <trkpt lat="45.8927304" lon="6.8702020"><ele>2036.9</ele></trkpt>
      <trkpt lat="45.8927066" lon="6.8702785"><ele>2041.6</ele></trkpt>
      <trkpt lat="45.8925966" lon="6.8706132"><ele>2048.9</ele></trkpt>
      <trkpt lat="45.8925964" lon="6.8706131"><ele>2055.9</ele></trkpt>
      <trkpt lat="45.8923306" lon="6.8706153"><ele>2064.1</ele></trkpt>
      <trkpt lat="45.8922009" lon="6.8704874"><ele>2072.4</ele></trkpt>
      <trkpt lat="45.8922166" lon="6.8708442"><ele>2079.8</ele></trkpt>
      <trkpt lat="45.8922031" lon="6.8708738"><ele>2085.7</ele></trkpt>
      <trkpt lat="45.8920551" lon="6.8712003"><ele>2092.9</ele></trkpt>
      <trkpt lat="45.8919177" lon="6.8709017"><ele>2098.0</ele></trkpt>
      <trkpt lat="45.8917727" lon="6.8705783"><ele>2103.4</ele></trkpt>
      <trkpt lat="45.8917373" lon="6.8705468"><ele>2107.7</ele></trkpt>
      <trkpt lat="45.8916641" lon="6.8706416"><ele>2112.6</ele></trkpt>
      <trkpt lat="45.8915783" lon="6.8705899"><ele>2116.7</ele></trkpt>
      <trkpt lat="45.8914397" lon="6.8705310"><ele>2122.1</ele></trkpt>
      <trkpt lat="45.8913385" lon="6.8705311"><ele>2129.3</ele></trkpt>
      <trkpt lat="45.8912144" lon="6.8705507"><ele>2137.8</ele></trkpt>
      <trkpt lat="45.8910723" lon="6.8706948"><ele>2145.5</ele></trkpt>
      <trkpt lat="45.8910300" lon="6.8709198"><ele>2154.5</ele></trkpt>
      <trkpt lat="45.8908567" lon="6.8709573"><ele>2163.0</ele></trkpt>
      <trkpt lat="45.8909127" lon="6.8713334"><ele>2172.4</ele></trkpt>
      <trkpt lat="45.8908784" lon="6.8713611"><ele>2181.4</ele></trkpt>
      <trkpt lat="45.8907332" lon="6.8714029"><ele>2189.2</ele></trkpt>
      <trkpt lat="45.8905575" lon="6.8712536"><ele>2195.6</ele></trkpt>
      <trkpt lat="45.8906185" lon="6.8716019"><ele>2201.0</ele></trkpt>
      <trkpt lat="45.8906460" lon="6.8717102"><ele>2206.2</ele></trkpt>
      <trkpt lat="45.8906598" lon="6.8717777"><ele>2211.6</ele></trkpt>
      <trkpt lat="45.8906582" lon="6.8717961"><ele>2216.0</ele></trkpt>
      <trkpt lat="45.8906541" lon="6.8718421"><ele>2221.3</ele></trkpt>
      <trkpt lat="45.8906117" lon="6.8722178"><ele>2225.4</ele></trkpt>
      <trkpt lat="45.8905500" lon="6.8722752"><ele>2229.4</ele></trkpt>
      <trkpt lat="45.8903867" lon="6.8721644"><ele>2233.6</ele></trkpt>
      <trkpt lat="45.8902400" lon="6.8721991"><ele>2238.0</ele></trkpt>
      <trkpt lat="45.8902027" lon="6.8722055"><ele>2242.2</ele></trkpt>
      <trkpt lat="45.8901299" lon="6.8722127"><ele>2246.5</ele></trkpt>
      <trkpt lat="45.8900829" lon="6.8722541"><ele>2251.5</ele></trkpt>
      <trkpt lat="45.8900637" lon="6.8723167"><ele>2257.7</ele></trkpt>
      <trkpt lat="45.8900627" lon="6.8723292"><ele>2263.4</ele></trkpt>
      <trkpt lat="45.8900289" lon="6.8727105"><ele>2269.7</ele></trkpt>
      <trkpt lat="45.8899954" lon="6.8730922"><ele>2276.7</ele></trkpt>
      <trkpt lat="45.8899583" lon="6.8734786"><ele>2283.9</ele></trkpt>
      <trkpt lat="45.8898049" lon="6.8733680"><ele>2291.2</ele></trkpt>
      <trkpt lat="45.8897882" lon="6.8735916"><ele>2298.8</ele></trkpt>
      <trkpt lat="45.8897637" lon="6.8739757"><ele>2306.1</ele></trkpt>
      <trkpt lat="45.8895614" lon="6.8737815"><ele>2311.9</ele></trkpt>
      <trkpt lat="45.8894991" lon="6.8737711"><ele>2316.9</ele></trkpt>
      <trkpt lat="45.8894808" lon="6.8739598"><ele>2322.7</ele></trkpt>
      <trkpt lat="45.8894444" lon="6.8743449"><ele>2329.1</ele></trkpt>
      <trkpt lat="45.8895645" lon="6.8746163"><ele>2335.4</ele></trkpt>
      <trkpt lat="45.8894029" lon="6.8745212"><ele>2341.8</ele></trkpt>
      <trkpt lat="45.8891505" lon="6.8743810"><ele>2349.4</ele></trkpt>
      <trkpt lat="45.8889023" lon="6.8742366"><ele>2356.8</ele></trkpt>
      <trkpt lat="45.8888664" lon="6.8745121"><ele>2363.4</ele></trkpt>
      <trkpt lat="45.8886705" lon="6.8744068"><ele>2370.7</ele></trkpt>
      <trkpt lat="45.8885263" lon="6.8746297"><ele>2378.1</ele></trkpt>
      <trkpt lat="45.8886277" lon="6.8749847"><ele>2384.7</ele></trkpt>
      <trkpt lat="45.8886228" lon="6.8750825"><ele>2390.9</ele></trkpt>
      <trkpt lat="45.8884729" lon="6.8749596"><ele>2396.6</ele></trkpt>
      <trkpt lat="45.8882279" lon="6.8747730"><ele>2401.9</ele></trkpt>
      <trkpt lat="45.8882523" lon="6.8749259"><ele>2406.2</ele></trkpt>
      <trkpt lat="45.8883077" lon="6.8753121"><ele>2411.3</ele></trkpt>
      <trkpt lat="45.8881050" lon="6.8751167"><ele>2416.4</ele></trkpt>
      <trkpt lat="45.8878804" lon="6.8749087"><ele>2421.6</ele></trkpt>
      <trkpt lat="45.8879122" lon="6.8751053"><ele>2426.1</ele></trkpt>
      <trkpt lat="45.8879701" lon="6.8754830"><ele>2430.8</ele></trkpt>
      <trkpt lat="45.8881033" lon="6.8758128"><ele>2435.3</ele></trkpt>
      <trkpt lat="45.8879809" lon="6.8757406"><ele>2441.1</ele></trkpt>
      <trkpt lat="45.8879540" lon="6.8757584"><ele>2447.1</ele></trkpt>
      <trkpt lat="45.8879314" lon="6.8758818"><ele>2453.0</ele></trkpt>
      <trkpt lat="45.8878197" lon="6.8758849"><ele>2458.8</ele></trkpt>
      <trkpt lat="45.8875632" lon="6.8759008"><ele>2464.8</ele></trkpt>
      <trkpt lat="45.8876618" lon="6.8762229"><ele>2470.8</ele></trkpt>
      <trkpt lat="45.8875969" lon="6.8762507"><ele>2476.7</ele></trkpt>
      <trkpt lat="45.8875773" lon="6.8764932"><ele>2482.6</ele></trkpt>
      <trkpt lat="45.8875616" lon="6.8766930"><ele>2488.6</ele></trkpt>
      <trkpt lat="45.8875634" lon="6.8768704"><ele>2493.0</ele></trkpt>
      <trkpt lat="45.8875564" lon="6.8768986"><ele>2497.2</ele></trkpt>
      <trkpt lat="45.8875014" lon="6.8770080"><ele>2501.2</ele></trkpt>
      <trkpt lat="45.8874763" lon="6.8771810"><ele>2504.6</ele></trkpt>
      <trkpt lat="45.8874700" lon="6.8771869"><ele>2508.6</ele></trkpt>
      <trkpt lat="45.8874178" lon="6.8772127"><ele>2512.9</ele></trkpt>
      <trkpt lat="45.8873954" lon="6.8772847"><ele>2518.3</ele></trkpt>
      <trkpt lat="45.8873921" lon="6.8773991"><ele>2523.4</ele></trkpt>
      <trkpt lat="45.8873826" lon="6.8777872"><ele>2528.7</ele></trkpt>
      <trkpt lat="45.8872902" lon="6.8779886"><ele>2534.1</ele></trkpt>
      <trkpt lat="45.8871401" lon="6.8783116"><ele>2539.5</ele></trkpt>
      <trkpt lat="45.8871357" lon="6.8785359"><ele>2544.9</ele></trkpt>
      <trkpt lat="45.8871267" lon="6.8789346"><ele>2550.5</ele></trkpt>
      <trkpt lat="45.8871864" lon="6.8792526"><ele>2555.9</ele></trkpt>
      <trkpt lat="45.8872585" lon="6.8796374"><ele>2561.3</ele></trkpt>
      <trkpt lat="45.8873293" lon="6.8800265"><ele>2566.3</ele></trkpt>
      <trkpt lat="45.8872847" lon="6.8802473"><ele>2571.1</ele></trkpt>
      <trkpt lat="45.8872135" lon="6.8806171"><ele>2575.1</ele></trkpt>
      <trkpt lat="45.8871444" lon="6.8810001"><ele>2579.8</ele></trkpt>
      <trkpt lat="45.8871165" lon="6.8813752"><ele>2584.9</ele></trkpt>
      <trkpt lat="45.8871569" lon="6.8816162"><ele>2590.0</ele></trkpt>
      <trkpt lat="45.8872210" lon="6.8819939"><ele>2595.2</ele></trkpt>
      <trkpt lat="45.8871169" lon="6.8819918"><ele>2600.4</ele></trkpt>
      <trkpt lat="45.8870554" lon="6.8820404"><ele>2605.0</ele></trkpt>
      <trkpt lat="45.8870517" lon="6.8822299"><ele>2608.9</ele></trkpt>
      <trkpt lat="45.8869963" lon="6.8823024"><ele>2615.0</ele></trkpt>
      <trkpt lat="45.8869009" lon="6.8823046"><ele>2620.9</ele></trkpt>
      <trkpt lat="45.8869043" lon="6.8824199"><ele>2626.9</ele></trkpt>
      <trkpt lat="45.8868844" lon="6.8824284"><ele>2633.0</ele></trkpt>
      <trkpt lat="45.8866278" lon="6.8825417"><ele>2640.5</ele></trkpt>
      <trkpt lat="45.8867111" lon="6.8827846"><ele>2647.6</ele></trkpt>
      <trkpt lat="45.8865979" lon="6.8827959"><ele>2656.3</ele></trkpt>
      <trkpt lat="45.8865700" lon="6.8829357"><ele>2666.0</ele></trkpt>
      <trkpt lat="45.8863415" lon="6.8829451"><ele>2676.8</ele></trkpt>
      <trkpt lat="45.8863310" lon="6.8829635"><ele>2686.1</ele></trkpt>
      <trkpt lat="45.8861534" lon="6.8832409"><ele>2694.5</ele></trkpt>
      <trkpt lat="45.8861235" lon="6.8834708"><ele>2704.7</ele></trkpt>
      <trkpt lat="45.8860593" lon="6.8836812"><ele>2714.4</ele></trkpt>
      <trkpt lat="45.8859388" lon="6.8840200"><ele>2723.4</ele></trkpt>
      <trkpt lat="45.8859725" lon="6.8839744"><ele>2732.6</ele></trkpt>
      <trkpt lat="45.8858983" lon="6.8840975"><ele>2743.2</ele></trkpt>
      <trkpt lat="45.8858833" lon="6.8841163"><ele>2753.2</ele></trkpt>
      <trkpt lat="45.8857958" lon="6.8841026"><ele>2762.2</ele></trkpt>
      <trkpt lat="45.8857482" lon="6.8841565"><ele>2774.8</ele></trkpt>
      <trkpt lat="45.8855445" lon="6.8844297"><ele>2792.4</ele></trkpt>
      <trkpt lat="45.8854946" lon="6.8844894"><ele>2810.9</ele></trkpt>
      <trkpt lat="45.8854599" lon="6.8845111"><ele>2825.8</ele></trkpt>
      <trkpt lat="45.8852156" lon="6.8846513"><ele>2838.0</ele></trkpt>
      <trkpt lat="45.8849571" lon="6.8848014"><ele>2849.1</ele></trkpt>
      <trkpt lat="45.8847173" lon="6.8849091"><ele>2854.8</ele></trkpt>
      <trkpt lat="45.8849139" lon="6.8849584"><ele>2861.4</ele></trkpt>
      <trkpt lat="45.8850654" lon="6.8848942"><ele>2868.9</ele></trkpt>
      <trkpt lat="45.8851140" lon="6.8848624"><ele>2872.1</ele></trkpt>
      <trkpt lat="45.8852126" lon="6.8848111"><ele>2873.4</ele></trkpt>
      <trkpt lat="45.8851176" lon="6.8848673"><ele>2874.4</ele></trkpt>
      <trkpt lat="45.8850136" lon="6.8849383"><ele>2876.4</ele></trkpt>
      <trkpt lat="45.8850133" lon="6.8849375"><ele>2880.7</ele></trkpt>
      <trkpt lat="45.8848286" lon="6.8847971"><ele>2883.3</ele></trkpt>
      <trkpt lat="45.8846244" lon="6.8848726"><ele>2887.6</ele></trkpt>
      <trkpt lat="45.8847536" lon="6.8846641"><ele>2890.4</ele></trkpt>
      <trkpt lat="45.8847503" lon="6.8846266"><ele>2894.1</ele></trkpt>
      <trkpt lat="45.8847138" lon="6.8842377"><ele>2899.5</ele></trkpt>
      <trkpt lat="45.8847461" lon="6.8841587"><ele>2904.8</ele></trkpt>
      <trkpt lat="45.8847285" lon="6.8841416"><ele>2909.0</ele></trkpt>
      <trkpt lat="45.8845781" lon="6.8841899"><ele>2917.1</ele></trkpt>
      <trkpt lat="45.8844743" lon="6.8842234"><ele>2926.6</ele></trkpt>
      <trkpt lat="45.8844234" lon="6.8842154"><ele>2939.5</ele></trkpt>
      <trkpt lat="45.8842473" lon="6.8843359"><ele>2952.6</ele></trkpt>
      <trkpt lat="45.8841553" lon="6.8843695"><ele>2966.8</ele></trkpt>
      <trkpt lat="45.8840736" lon="6.8844233"><ele>2982.6</ele></trkpt>
      <trkpt lat="45.8840198" lon="6.8843936"><ele>3000.8</ele></trkpt>
      <trkpt lat="45.8839940" lon="6.8844076"><ele>3017.2</ele></trkpt>
      <trkpt lat="45.8839391" lon="6.8844541"><ele>3031.0</ele></trkpt>
      <trkpt lat="45.8837149" lon="6.8846805"><ele>3044.3</ele></trkpt>
      <trkpt lat="45.8836561" lon="6.8848124"><ele>3056.1</ele></trkpt>
      <trkpt lat="45.8836292" lon="6.8848734"><ele>3070.0</ele></trkpt>
      <trkpt lat="45.8836274" lon="6.8848807"><ele>3087.7</ele></trkpt>
      <trkpt lat="45.8834973" lon="6.8852430"><ele>3105.3</ele></trkpt>
      <trkpt lat="45.8834887" lon="6.8852584"><ele>3121.9</ele></trkpt>
      <trkpt lat="45.8833529" lon="6.8855919"><ele>3136.6</ele></trkpt>
      <trkpt lat="45.8832077" lon="6.8859321"><ele>3153.3</ele></trkpt>
      <trkpt lat="45.8831678" lon="6.8860807"><ele>3170.9</ele></trkpt>
      <trkpt lat="45.8830563" lon="6.8864264"><ele>3188.7</ele></trkpt>
      <trkpt lat="45.8829246" lon="6.8865462"><ele>3207.9</ele></trkpt>
      <trkpt lat="45.8827081" lon="6.8867178"><ele>3224.7</ele></trkpt>
      <trkpt lat="45.8827120" lon="6.8867388"><ele>3240.1</ele></trkpt>
      <trkpt lat="45.8827594" lon="6.8870951"><ele>3254.9</ele></trkpt>
      <trkpt lat="45.8826921" lon="6.8869316"><ele>3267.9</ele></trkpt>
      <trkpt lat="45.8826962" lon="6.8867998"><ele>3282.0</ele></trkpt>
      <trkpt lat="45.8826003" lon="6.8866515"><ele>3294.7</ele></trkpt>
      <trkpt lat="45.8825215" lon="6.8865249"><ele>3309.7</ele></trkpt>
      <trkpt lat="45.8825239" lon="6.8867120"><ele>3324.5</ele></trkpt>
      <trkpt lat="45.8825110" lon="6.8867939"><ele>3341.0</ele></trkpt>
      <trkpt lat="45.8824762" lon="6.8867512"><ele>3357.3</ele></trkpt>
      <trkpt lat="45.8825362" lon="6.8868652"><ele>3372.9</ele></trkpt>
      <trkpt lat="45.8825376" lon="6.8867645"><ele>3390.5</ele></trkpt>
      <trkpt lat="45.8826511" lon="6.8870432"><ele>3408.6</ele></trkpt>
      <trkpt lat="45.8826149" lon="6.8869187"><ele>3425.7</ele></trkpt>
      <trkpt lat="45.8825065" lon="6.8865819"><ele>3443.6</ele></trkpt>
      <trkpt lat="45.8825074" lon="6.8867200"><ele>3458.0</ele></trkpt>
      <trkpt lat="45.8824535" lon="6.8866541"><ele>3470.8</ele></trkpt>
      <trkpt lat="45.8823829" lon="6.8865647"><ele>3482.7</ele></trkpt>
      <trkpt lat="45.8824265" lon="6.8865136"><ele>3493.6</ele></trkpt>
      <trkpt lat="45.8823841" lon="6.8864433"><ele>3505.2</ele></trkpt>
      <trkpt lat="45.8822805" lon="6.8863359"><ele>3516.0</ele></trkpt>
      <trkpt lat="45.8821464" lon="6.8862946"><ele>3525.5</ele></trkpt>
      <trkpt lat="45.8820253" lon="6.8862705"><ele>3534.7</ele></trkpt>
      <trkpt lat="45.8817601" lon="6.8862058"><ele>3542.2</ele></trkpt>
      <trkpt lat="45.8817071" lon="6.8861745"><ele>3551.9</ele></trkpt>
      <trkpt lat="45.8816758" lon="6.8861943"><ele>3563.5</ele></trkpt>
      <trkpt lat="45.8814190" lon="6.8863425"><ele>3573.6</ele></trkpt>
      <trkpt lat="45.8814094" lon="6.8863489"><ele>3585.8</ele></trkpt>
      <trkpt lat="45.8811724" lon="6.8865480"><ele>3594.6</ele></trkpt>
      <trkpt lat="45.8809313" lon="6.8867252"><ele>3603.7</ele></trkpt>
      <trkpt lat="45.8807514" lon="6.8867959"><ele>3615.2</ele></trkpt>
      <trkpt lat="45.8804889" lon="6.8869055"><ele>3625.2</ele></trkpt>
      <trkpt lat="45.8803787" lon="6.8869787"><ele>3634.7</ele></trkpt>
      <trkpt lat="45.8801380" lon="6.8871523"><ele>3643.1</ele></trkpt>
      <trkpt lat="45.8798927" lon="6.8872338"><ele>3650.5</ele></trkpt>
      <trkpt lat="45.8798186" lon="6.8873558"><ele>3657.2</ele></trkpt>
      <trkpt lat="45.8797738" lon="6.8874519"><ele>3662.4</ele></trkpt>
      <trkpt lat="45.8797474" lon="6.8876181"><ele>3667.2</ele></trkpt>
      <trkpt lat="45.8796476" lon="6.8877097"><ele>3670.8</ele></trkpt>
      <trkpt lat="45.8796135" lon="6.8877756"><ele>3671.6</ele></trkpt>
      <trkpt lat="45.8794498" lon="6.8880746"><ele>3672.3</ele></trkpt>
    </trkseg>
  </trk>
</gpx>