<?xml version="1.0" encoding="UTF-8"?>
<gpx version="1.1" creator="AlpHD-batch" xmlns="http://www.topografix.com/GPX/1/1">
  <trk>
    <name>Arête Kuffner</name>
    <trkseg>
      <trkpt lat="45.8456569" lon="6.9336573"><ele>3291.8</ele></trkpt>
      <trkpt lat="45.8457013" lon="6.9335779"><ele>3302.8</ele></trkpt>
      <trkpt lat="45.8458744" lon="6.9332599"><ele>3312.8</ele></trkpt>
      <trkpt lat="45.8459473" lon="6.9332049"><ele>3320.5</ele></trkpt>
      <trkpt lat="45.8461845" lon="6.9330169"><ele>3327.1</ele></trkpt>
      <trkpt lat="45.8464191" lon="6.9328329"><ele>3345.5</ele></trkpt>
      <trkpt lat="45.8466594" lon="6.9326429"><ele>3361.8</ele></trkpt>
      <trkpt lat="45.8467850" lon="6.9325127"><ele>3368.2</ele></trkpt>
      <trkpt lat="45.8470004" lon="6.9322836"><ele>3374.4</ele></trkpt>
      <trkpt lat="45.8470574" lon="6.9321389"><ele>3379.4</ele></trkpt>
      <trkpt lat="45.8471917" lon="6.9318160"><ele>3383.3</ele></trkpt>
      <trkpt lat="45.8473371" lon="6.9314813"><ele>3385.9</ele></trkpt>
      <trkpt lat="45.8474700" lon="6.9311650"><ele>3388.2</ele></trkpt>
      <trkpt lat="45.8476111" lon="6.9308389"><ele>3390.3</ele></trkpt>
      <trkpt lat="45.8477667" lon="6.9304750"><ele>3392.4</ele></trkpt>
      <trkpt lat="45.8479083" lon="6.9301426"><ele>3394.0</ele></trkpt>
      <trkpt lat="45.8479488" lon="6.9300712"><ele>3395.3</ele></trkpt>
      <trkpt lat="45.8481204" lon="6.9297698"><ele>3396.5</ele></trkpt>
      <trkpt lat="45.8482927" lon="6.9294905"><ele>3397.4</ele></trkpt>
      <trkpt lat="45.8485171" lon="6.9292654"><ele>3398.2</ele></trkpt>
      <trkpt lat="45.8485523" lon="6.9292130"><ele>3398.9</ele></trkpt>
      <trkpt lat="45.8487430" lon="6.9289231"><ele>3399.8</ele></trkpt>
      <trkpt lat="45.8489225" lon="6.9286362"><ele>3400.8</ele></trkpt>
      <trkpt lat="45.8490969" lon="6.9283611"><ele>3401.6</ele></trkpt>
      <trkpt lat="45.8491602" lon="6.9282726"><ele>3402.4</ele></trkpt>
      <trkpt lat="45.8493533" lon="6.9279981"><ele>3402.9</ele></trkpt>
      <trkpt lat="45.8495405" lon="6.9277512"><ele>3402.9</ele></trkpt>
      <trkpt lat="45.8496337" lon="6.9274263"><ele>3402.6</ele></trkpt>
      <trkpt lat="45.8496384" lon="6.9273721"><ele>3401.7</ele></trkpt>
      <trkpt lat="45.8496772" lon="6.9270099"><ele>3400.2</ele></trkpt>
      <trkpt lat="45.8497195" lon="6.9266011"><ele>3398.0</ele></trkpt>
      <trkpt lat="45.8497597" lon="6.9263553"><ele>3395.0</ele></trkpt>
      <trkpt lat="45.8498175" lon="6.9260024"><ele>3392.0</ele></trkpt>
      <trkpt lat="45.8498760" lon="6.9256231"><ele>3388.5</ele></trkpt>
      <trkpt lat="45.8499365" lon="6.9252421"><ele>3384.9</ele></trkpt>
      <trkpt lat="45.8500521" lon="6.9249045"><ele>3380.7</ele></trkpt>
      <trkpt lat="45.8500568" lon="6.9248387"><ele>3375.7</ele></trkpt>
      <trkpt lat="45.8500842" lon="6.9244526"><ele>3370.1</ele></trkpt>
      <trkpt lat="45.8501114" lon="6.9240731"><ele>3364.0</ele></trkpt>
      <trkpt lat="45.8501693" lon="6.9237277"><ele>3357.8</ele></trkpt>
      <trkpt lat="45.8502346" lon="6.9233292"><ele>3352.3</ele></trkpt>
      <trkpt lat="45.8503041" lon="6.9229356"><ele>3347.3</ele></trkpt>
      <trkpt lat="45.8503650" lon="6.9225728"><ele>3343.1</ele></trkpt>
      <trkpt lat="45.8494773" lon="6.9084268"><ele>3339.7</ele></trkpt>
      <trkpt lat="45.8493796" lon="6.9080704"><ele>3337.7</ele></trkpt>
      <trkpt lat="45.8492827" lon="6.9077496"><ele>3336.8</ele></trkpt>
      <trkpt lat="45.8491811" lon="6.9073811"><ele>3337.3</ele></trkpt>
      <trkpt lat="45.8490791" lon="6.9070349"><ele>3339.2</ele></trkpt>
      <trkpt lat="45.8489777" lon="6.9066909"><ele>3342.0</ele></trkpt>
      <trkpt lat="45.8489534" lon="6.9066051"><ele>3344.9</ele></trkpt>
      <trkpt lat="45.8488367" lon="6.9062543"><ele>3347.9</ele></trkpt>
      <trkpt lat="45.8487187" lon="6.9059300"><ele>3350.5</ele></trkpt>
      <trkpt lat="45.8486675" lon="6.9057017"><ele>3353.1</ele></trkpt>
      <trkpt lat="45.8485813" lon="6.9053354"><ele>3355.7</ele></trkpt>
      <trkpt lat="45.8484951" lon="6.9049684"><ele>3358.5</ele></trkpt>
      <trkpt lat="45.8484937" lon="6.9049586"><ele>3361.3</ele></trkpt>
      <trkpt lat="45.8484391" lon="6.9045846"><ele>3363.9</ele></trkpt>
      <trkpt lat="45.8483805" lon="6.9041883"><ele>3366.6</ele></trkpt>
      <trkpt lat="45.8483252" lon="6.9038104"><ele>3369.3</ele></trkpt>
      <trkpt lat="45.8482702" lon="6.9034294"><ele>3371.5</ele></trkpt>
      <trkpt lat="45.8482221" lon="6.9031591"><ele>3374.1</ele></trkpt>
      <trkpt lat="45.8481570" lon="6.9027778"><ele>3376.6</ele></trkpt>
      <trkpt lat="45.8480933" lon="6.9023987"><ele>3379.1</ele></trkpt>
      <trkpt lat="45.8480852" lon="6.9023151"><ele>3381.7</ele></trkpt>
      <trkpt lat="45.8480470" lon="6.9019275"><ele>3384.2</ele></trkpt>
      <trkpt lat="45.8480079" lon="6.9015516"><ele>3386.8</ele></trkpt>
      <trkpt lat="45.8479488" lon="6.9012695"><ele>3389.6</ele></trkpt>
      <trkpt lat="45.8478811" lon="6.9008868"><ele>3392.4</ele></trkpt>
      <trkpt lat="45.8478602" lon="6.9005819"><ele>3395.6</ele></trkpt>
      <trkpt lat="45.8478260" lon="6.9002010"><ele>3398.7</ele></trkpt>
      <trkpt lat="45.8477926" lon="6.8998104"><ele>3402.0</ele></trkpt>
      <trkpt lat="45.8477569" lon="6.8994042"><ele>3405.4</ele></trkpt>
      <trkpt lat="45.8477301" lon="6.8990277"><ele>3408.4</ele></trkpt>
      <trkpt lat="45.8476822" lon="6.8987737"><ele>3411.6</ele></trkpt>
      <trkpt lat="45.8476167" lon="6.8983972"><ele>3414.9</ele></trkpt>
      <trkpt lat="45.8475551" lon="6.8980145"><ele>3418.2</ele></trkpt>
      <trkpt lat="45.8475530" lon="6.8979930"><ele>3421.5</ele></trkpt>
      <trkpt lat="45.8475096" lon="6.8976114"><ele>3425.0</ele></trkpt>
      <trkpt lat="45.8474681" lon="6.8972348"><ele>3428.7</ele></trkpt>
      <trkpt lat="45.8474263" lon="6.8968622"><ele>3432.6</ele></trkpt>
      <trkpt lat="45.8473831" lon="6.8964792"><ele>3436.7</ele></trkpt>
      <trkpt lat="45.8474157" lon="6.8961387"><ele>3441.3</ele></trkpt>
      <trkpt lat="45.8474526" lon="6.8957784"><ele>3446.1</ele></trkpt>
      <trkpt lat="45.8474870" lon="6.8954043"><ele>3451.0</ele></trkpt>
      <trkpt lat="45.8475207" lon="6.8950236"><ele>3456.1</ele></trkpt>
      <trkpt lat="45.8475579" lon="6.8946275"><ele>3461.0</ele></trkpt>
      <trkpt lat="45.8475951" lon="6.8942458"><ele>3465.9</ele></trkpt>
      <trkpt lat="45.8476324" lon="6.8938436"><ele>3471.0</ele></trkpt>
      <trkpt lat="45.8476707" lon="6.8934550"><ele>3476.1</ele></trkpt>
      <trkpt lat="45.8476709" lon="6.8933064"><ele>3480.9</ele></trkpt>
      <trkpt lat="45.8476737" lon="6.8929405"><ele>3485.6</ele></trkpt>
      <trkpt lat="45.8476748" lon="6.8925416"><ele>3490.4</ele></trkpt>
      <trkpt lat="45.8476760" lon="6.8921541"><ele>3495.1</ele></trkpt>
      <trkpt lat="45.8476825" lon="6.8920179"><ele>3499.5</ele></trkpt>
      <trkpt lat="45.8477020" lon="6.8916270"><ele>3504.4</ele></trkpt>
      <trkpt lat="45.8477137" lon="6.8912255"><ele>3509.4</ele></trkpt>
      <trkpt lat="45.8477315" lon="6.8908338"><ele>3514.7</ele></trkpt>
      <trkpt lat="45.8477194" lon="6.8907277"><ele>3521.6</ele></trkpt>
      <trkpt lat="45.8476783" lon="6.8903485"><ele>3531.0</ele></trkpt>
      <trkpt lat="45.8476398" lon="6.8899536"><ele>3543.4</ele></trkpt>
      <trkpt lat="45.8475819" lon="6.8895596"><ele>3558.3</ele></trkpt>
      <trkpt lat="45.8475589" lon="6.8892981"><ele>3577.0</ele></trkpt>
      <trkpt lat="45.8475414" lon="6.8889400"><ele>3600.2</ele></trkpt>
      <trkpt lat="45.8475076" lon="6.8885696"><ele>3627.9</ele></trkpt>
      <trkpt lat="45.8474566" lon="6.8882078"><ele>3658.5</ele></trkpt>
      <trkpt lat="45.8474143" lon="6.8878405"><ele>3690.1</ele></trkpt>
      <trkpt lat="45.8473796" lon="6.8874739"><ele>3722.7</ele></trkpt>
      <trkpt lat="45.8473637" lon="6.8869683"><ele>3758.1</ele></trkpt>
      <trkpt lat="45.8473714" lon="6.8865764"><ele>3794.3</ele></trkpt>
      <trkpt lat="45.8474488" lon="6.8864015"><ele>3831.0</ele></trkpt>
      <trkpt lat="45.8475878" lon="6.8860562"><ele>3866.1</ele></trkpt>
      <trkpt lat="45.8477203" lon="6.8857112"><ele>3898.8</ele></trkpt>
      <trkpt lat="45.8478711" lon="6.8853781"><ele>3927.5</ele></trkpt>
      <trkpt lat="45.8480092" lon="6.8850745"><ele>3954.4</ele></trkpt>
      <trkpt lat="45.8481536" lon="6.8847440"><ele>3980.2</ele></trkpt>
      <trkpt lat="45.8482680" lon="6.8845284"><ele>4004.3</ele></trkpt>
      <trkpt lat="45.8484461" lon="6.8842507"><ele>4024.4</ele></trkpt>
      <trkpt lat="45.8486393" lon="6.8839583"><ele>4040.6</ele></trkpt>
      <trkpt lat="45.8488221" lon="6.8836789"><ele>4055.8</ele></trkpt>
      <trkpt lat="45.8489704" lon="6.8833428"><ele>4071.6</ele></trkpt>
      <trkpt lat="45.8491438" lon="6.8830590"><ele>4088.6</ele></trkpt>
      <trkpt lat="45.8491630" lon="6.8829804"><ele>4108.6</ele></trkpt>
      <trkpt lat="45.8492456" lon="6.8826016"><ele>4129.9</ele></trkpt>
      <trkpt lat="45.8492920" lon="6.8822536"><ele>4153.8</ele></trkpt>
      <trkpt lat="45.8493421" lon="6.8818815"><ele>4179.7</ele></trkpt>
      <trkpt lat="45.8494065" lon="6.8814341"><ele>4204.3</ele></trkpt>
      <trkpt lat="45.8494476" lon="6.8810499"><ele>4229.5</ele></trkpt>
      <trkpt lat="45.8494883" lon="6.8806593"><ele>4253.1</ele></trkpt>
      <trkpt lat="45.8495180" lon="6.8802602"><ele>4273.0</ele></trkpt>
      <trkpt lat="45.8494761" lon="6.8801607"><ele>4289.5</ele></trkpt>
      <trkpt lat="45.8493354" lon="6.8798017"><ele>4301.7</ele></trkpt>
      <trkpt lat="45.8491998" lon="6.8794869"><ele>4311.1</ele></trkpt>
      <trkpt lat="45.8490849" lon="6.8791451"><ele>4317.4</ele></trkpt>
      <trkpt lat="45.8490460" lon="6.8790107"><ele>4320.8</ele></trkpt>
      <trkpt lat="45.8489346" lon="6.8786641"><ele>4324.6</ele></trkpt>
      <trkpt lat="45.8488155" lon="6.8783382"><ele>4327.6</ele></trkpt>
      <trkpt lat="45.8487557" lon="6.8781967"><ele>4331.4</ele></trkpt>
      <trkpt lat="45.8486167" lon="6.8778735"><ele>4337.4</ele></trkpt>
      <trkpt lat="45.8484671" lon="6.8775582"><ele>4345.4</ele></trkpt>
      <trkpt lat="45.8484421" lon="6.8775183"><ele>4354.9</ele></trkpt>
      <trkpt lat="45.8482643" lon="6.8772412"><ele>4367.2</ele></trkpt>
      <trkpt lat="45.8480854" lon="6.8769435"><ele>4372.2</ele></trkpt>
      <trkpt lat="45.8479020" lon="6.8766360"><ele>4377.9</ele></trkpt>
      <trkpt lat="45.8477321" lon="6.8763511"><ele>4384.4</ele></trkpt>
      <trkpt lat="45.8475546" lon="6.8760409"><ele>4393.2</ele></trkpt>
    </trkseg>
  </trk>
</gpx>