<?xml version="1.0" encoding="UTF-8"?>
<gpx version="1.1" creator="AlpHD-batch" xmlns="http://www.topografix.com/GPX/1/1">
  <trk>
    <name>Face S - Voie normale</name>
    <trkseg>
      <trkpt lat="45.9103859" lon="6.9654071"><ele>2705.5</ele></trkpt>
      <trkpt lat="45.9104770" lon="6.9652720"><ele>2707.5</ele></trkpt>
      <trkpt lat="45.9104743" lon="6.9651026"><ele>2709.3</ele></trkpt>
      <trkpt lat="45.9104621" lon="6.9647155"><ele>2711.2</ele></trkpt>
      <trkpt lat="45.9104619" lon="6.9644215"><ele>2713.4</ele></trkpt>
      <trkpt lat="45.9104709" lon="6.9640409"><ele>2717.5</ele></trkpt>
      <trkpt lat="45.9104268" lon="6.9638578"><ele>2721.9</ele></trkpt>
      <trkpt lat="45.9103353" lon="6.9634807"><ele>2726.4</ele></trkpt>
      <trkpt lat="45.9103757" lon="6.9633094"><ele>2731.8</ele></trkpt>
      <trkpt lat="45.9103076" lon="6.9631083"><ele>2737.7</ele></trkpt>
      <trkpt lat="45.9102838" lon="6.9629195"><ele>2743.7</ele></trkpt>
      <trkpt lat="45.9102908" lon="6.9628575"><ele>2750.1</ele></trkpt>
      <trkpt lat="45.9103303" lon="6.9624911"><ele>2757.0</ele></trkpt>
      <trkpt lat="45.9104408" lon="6.9623336"><ele>2763.8</ele></trkpt>
      <trkpt lat="45.9105358" lon="6.9622130"><ele>2771.1</ele></trkpt>
      <trkpt lat="45.9106407" lon="6.9621053"><ele>2778.3</ele></trkpt>
      <trkpt lat="45.9108641" lon="6.9618855"><ele>2785.7</ele></trkpt>
      <trkpt lat="45.9109934" lon="6.9618804"><ele>2791.8</ele></trkpt>
      <trkpt lat="45.9111807" lon="6.9617443"><ele>2798.3</ele></trkpt>
      <trkpt lat="45.9113742" lon="6.9616820"><ele>2804.4</ele></trkpt>
      <trkpt lat="45.9115448" lon="6.9615882"><ele>2810.4</ele></trkpt>
      <trkpt lat="45.9115509" lon="6.9615903"><ele>2816.7</ele></trkpt>
      <trkpt lat="45.9118132" lon="6.9616805"><ele>2822.3</ele></trkpt>
      <trkpt lat="45.9119056" lon="6.9617174"><ele>2828.9</ele></trkpt>
      <trkpt lat="45.9119792" lon="6.9616709"><ele>2835.4</ele></trkpt>
      <trkpt lat="45.9122262" lon="6.9615154"><ele>2843.8</ele></trkpt>
      <trkpt lat="45.9122357" lon="6.9615182"><ele>2852.4</ele></trkpt>
      <trkpt lat="45.9124987" lon="6.9615629"><ele>2862.2</ele></trkpt>
      <trkpt lat="45.9125552" lon="6.9615745"><ele>2871.8</ele></trkpt>
      <trkpt lat="45.9128338" lon="6.9616262"><ele>2881.6</ele></trkpt>
      <trkpt lat="45.9128597" lon="6.9616259"><ele>2891.5</ele></trkpt>
      <trkpt lat="45.9131243" lon="6.9616270"><ele>2901.5</ele></trkpt>
      <trkpt lat="45.9131290" lon="6.9616433"><ele>2910.5</ele></trkpt>
      <trkpt lat="45.9132445" lon="6.9616555"><ele>2918.8</ele></trkpt>
      <trkpt lat="45.9133188" lon="6.9617334"><ele>2925.1</ele></trkpt>
      <trkpt lat="45.9133211" lon="6.9617353"><ele>2932.4</ele></trkpt>
      <trkpt lat="45.9132766" lon="6.9618252"><ele>2938.6</ele></trkpt>
      <trkpt lat="45.9133132" lon="6.9617847"><ele>2945.9</ele></trkpt>
      <trkpt lat="45.9133079" lon="6.9618139"><ele>2953.9</ele></trkpt>
      <trkpt lat="45.9133782" lon="6.9619922"><ele>2961.7</ele></trkpt>
      <trkpt lat="45.9133899" lon="6.9621288"><ele>2970.7</ele></trkpt>
      <trkpt lat="45.9134085" lon="6.9623608"><ele>2979.3</ele></trkpt>
      <trkpt lat="45.9135256" lon="6.9625655"><ele>2989.9</ele></trkpt>
      <trkpt lat="45.9135974" lon="6.9626078"><ele>3001.7</ele></trkpt>
      <trkpt lat="45.9137097" lon="6.9626653"><ele>3012.5</ele></trkpt>
      <trkpt lat="45.9137438" lon="6.9627825"><ele>3022.0</ele></trkpt>
      <trkpt lat="45.9137994" lon="6.9631489"><ele>3031.0</ele></trkpt>
      <trkpt lat="45.9139018" lon="6.9632524"><ele>3038.9</ele></trkpt>
      <trkpt lat="45.9138811" lon="6.9634133"><ele>3045.6</ele></trkpt>
      <trkpt lat="45.9138820" lon="6.9634131"><ele>3052.8</ele></trkpt>
      <trkpt lat="45.9139766" lon="6.9635009"><ele>3060.7</ele></trkpt>
      <trkpt lat="45.9139943" lon="6.9635290"><ele>3066.0</ele></trkpt>
      <trkpt lat="45.9140063" lon="6.9635230"><ele>3070.1</ele></trkpt>
      <trkpt lat="45.9141232" lon="6.9635119"><ele>3073.7</ele></trkpt>
      <trkpt lat="45.9142174" lon="6.9634532"><ele>3079.8</ele></trkpt>
      <trkpt lat="45.9142285" lon="6.9631896"><ele>3085.3</ele></trkpt>
      <trkpt lat="45.9142306" lon="6.9632041"><ele>3091.1</ele></trkpt>
      <trkpt lat="45.9142354" lon="6.9632819"><ele>3099.4</ele></trkpt>
      <trkpt lat="45.9143626" lon="6.9633401"><ele>3106.0</ele></trkpt>
      <trkpt lat="45.9143711" lon="6.9633452"><ele>3112.5</ele></trkpt>
      <trkpt lat="45.9144181" lon="6.9633499"><ele>3120.9</ele></trkpt>
      <trkpt lat="45.9147009" lon="6.9633794"><ele>3128.8</ele></trkpt>
      <trkpt lat="45.9147028" lon="6.9633777"><ele>3134.1</ele></trkpt>
      <trkpt lat="45.9147814" lon="6.9632438"><ele>3138.8</ele></trkpt>
      <trkpt lat="45.9148315" lon="6.9631239"><ele>3143.4</ele></trkpt>
      <trkpt lat="45.9148303" lon="6.9631169"><ele>3147.4</ele></trkpt>
      <trkpt lat="45.9147659" lon="6.9627471"><ele>3150.1</ele></trkpt>
      <trkpt lat="45.9147887" lon="6.9628653"><ele>3153.3</ele></trkpt>
      <trkpt lat="45.9147949" lon="6.9627422"><ele>3156.4</ele></trkpt>
      <trkpt lat="45.9147938" lon="6.9626851"><ele>3160.1</ele></trkpt>
      <trkpt lat="45.9147968" lon="6.9623066"><ele>3165.7</ele></trkpt>
      <trkpt lat="45.9148322" lon="6.9620466"><ele>3176.2</ele></trkpt>
      <trkpt lat="45.9149560" lon="6.9621050"><ele>3188.8</ele></trkpt>
      <trkpt lat="45.9150591" lon="6.9621057"><ele>3202.1</ele></trkpt>
      <trkpt lat="45.9151224" lon="6.9619091"><ele>3215.7</ele></trkpt>
      <trkpt lat="45.9153428" lon="6.9618927"><ele>3228.5</ele></trkpt>
      <trkpt lat="45.9156211" lon="6.9618609"><ele>3241.4</ele></trkpt>
      <trkpt lat="45.9156331" lon="6.9616947"><ele>3255.2</ele></trkpt>
      <trkpt lat="45.9156547" lon="6.9616123"><ele>3267.4</ele></trkpt>
      <trkpt lat="45.9156776" lon="6.9615115"><ele>3277.8</ele></trkpt>
      <trkpt lat="45.9157201" lon="6.9614230"><ele>3286.1</ele></trkpt>
      <trkpt lat="45.9158901" lon="6.9614179"><ele>3289.2</ele></trkpt>
      <trkpt lat="45.9158760" lon="6.9615221"><ele>3293.6</ele></trkpt>
      <trkpt lat="45.9158851" lon="6.9615515"><ele>3300.4</ele></trkpt>
      <trkpt lat="45.9158480" lon="6.9617295"><ele>3310.8</ele></trkpt>
      <trkpt lat="45.9160919" lon="6.9617822"><ele>3322.9</ele></trkpt>
      <trkpt lat="45.9161881" lon="6.9617314"><ele>3325.7</ele></trkpt>
      <trkpt lat="45.9162487" lon="6.9616938"><ele>3329.1</ele></trkpt>
      <trkpt lat="45.9164008" lon="6.9616136"><ele>3333.6</ele></trkpt>
      <trkpt lat="45.9165355" lon="6.9615305"><ele>3339.7</ele></trkpt>
    </trkseg>
  </trk>
</gpx>