<?xml version="1.0" encoding="UTF-8"?>
<gpx version="1.1" creator="AlpHD-batch" xmlns="http://www.topografix.com/GPX/1/1">
  <trk>
    <name>N face, standard ascent (+ E ridge)</name>
    <trkseg>
      <trkpt lat="45.8470950" lon="6.9318040"><ele>3406.0</ele></trkpt>
      <trkpt lat="45.8472512" lon="6.9314882"><ele>3406.7</ele></trkpt>
      <trkpt lat="45.8472523" lon="6.9314853"><ele>3407.2</ele></trkpt>
      <trkpt lat="45.8473853" lon="6.9311483"><ele>3407.6</ele></trkpt>
      <trkpt lat="45.8475183" lon="6.9308113"><ele>3407.9</ele></trkpt>
      <trkpt lat="45.8476513" lon="6.9304743"><ele>3408.6</ele></trkpt>
      <trkpt lat="45.8477141" lon="6.9303374"><ele>3409.3</ele></trkpt>
      <trkpt lat="45.8478625" lon="6.9300139"><ele>3410.0</ele></trkpt>
      <trkpt lat="45.8480108" lon="6.9296904"><ele>3411.0</ele></trkpt>
      <trkpt lat="45.8481592" lon="6.9293669"><ele>3411.9</ele></trkpt>
      <trkpt lat="45.8483076" lon="6.9290434"><ele>3412.9</ele></trkpt>
      <trkpt lat="45.8484560" lon="6.9287199"><ele>3414.0</ele></trkpt>
      <trkpt lat="45.8486989" lon="6.9286262"><ele>3415.1</ele></trkpt>
      <trkpt lat="45.8488416" lon="6.9284099"><ele>3416.2</ele></trkpt>
      <trkpt lat="45.8490271" lon="6.9281287"><ele>3417.3</ele></trkpt>
      <trkpt lat="45.8492126" lon="6.9278475"><ele>3418.4</ele></trkpt>
      <trkpt lat="45.8493179" lon="6.9275492"><ele>3419.5</ele></trkpt>
      <trkpt lat="45.8494398" lon="6.9272036"><ele>3420.0</ele></trkpt>
      <trkpt lat="45.8494344" lon="6.9271256"><ele>3420.2</ele></trkpt>
      <trkpt lat="45.8494080" lon="6.9267401"><ele>3419.9</ele></trkpt>
      <trkpt lat="45.8494077" lon="6.9266313"><ele>3419.0</ele></trkpt>
      <trkpt lat="45.8494068" lon="6.9262439"><ele>3417.7</ele></trkpt>
      <trkpt lat="45.8493962" lon="6.9261813"><ele>3416.0</ele></trkpt>
      <trkpt lat="45.8493325" lon="6.9258049"><ele>3413.6</ele></trkpt>
      <trkpt lat="45.8492689" lon="6.9254286"><ele>3411.0</ele></trkpt>
      <trkpt lat="45.8492052" lon="6.9250522"><ele>3407.8</ele></trkpt>
      <trkpt lat="45.8492188" lon="6.9247459"><ele>3404.0</ele></trkpt>
      <trkpt lat="45.8492360" lon="6.9243593"><ele>3400.0</ele></trkpt>
      <trkpt lat="45.8492475" lon="6.9242899"><ele>3395.4</ele></trkpt>
      <trkpt lat="45.8493097" lon="6.9239130"><ele>3390.4</ele></trkpt>
      <trkpt lat="45.8493719" lon="6.9235361"><ele>3385.5</ele></trkpt>
      <trkpt lat="45.8494157" lon="6.9234279"><ele>3379.9</ele></trkpt>
      <trkpt lat="45.8495514" lon="6.9230931"><ele>3373.9</ele></trkpt>
      <trkpt lat="45.8496871" lon="6.9227583"><ele>3367.8</ele></trkpt>
      <trkpt lat="45.8497313" lon="6.9226934"><ele>3362.3</ele></trkpt>
      <trkpt lat="45.8499197" lon="6.9224161"><ele>3358.1</ele></trkpt>
      <trkpt lat="45.8501081" lon="6.9221389"><ele>3354.8</ele></trkpt>
      <trkpt lat="45.8485927" lon="6.9179608"><ele>3353.0</ele></trkpt>
      <trkpt lat="45.8485740" lon="6.9179370"><ele>3352.2</ele></trkpt>
      <trkpt lat="45.8483723" lon="6.9176797"><ele>3352.1</ele></trkpt>
      <trkpt lat="45.8481707" lon="6.9174224"><ele>3353.4</ele></trkpt>
      <trkpt lat="45.8480063" lon="6.9172506"><ele>3356.3</ele></trkpt>
      <trkpt lat="45.8479492" lon="6.9171393"><ele>3359.8</ele></trkpt>
      <trkpt lat="45.8477892" lon="6.9168274"><ele>3363.5</ele></trkpt>
      <trkpt lat="45.8476292" lon="6.9165155"><ele>3366.9</ele></trkpt>
      <trkpt lat="45.8474692" lon="6.9162037"><ele>3370.1</ele></trkpt>
      <trkpt lat="45.8474119" lon="6.9159079"><ele>3373.3</ele></trkpt>
      <trkpt lat="45.8473397" lon="6.9155347"><ele>3376.8</ele></trkpt>
      <trkpt lat="45.8472675" lon="6.9151615"><ele>3380.9</ele></trkpt>
      <trkpt lat="45.8471933" lon="6.9149646"><ele>3384.9</ele></trkpt>
      <trkpt lat="45.8470649" lon="6.9146240"><ele>3389.7</ele></trkpt>
      <trkpt lat="45.8469365" lon="6.9142833"><ele>3395.5</ele></trkpt>
      <trkpt lat="45.8467586" lon="6.9140671"><ele>3402.2</ele></trkpt>
      <trkpt lat="45.8466962" lon="6.9140317"><ele>3409.0</ele></trkpt>
      <trkpt lat="45.8464451" lon="6.9138897"><ele>3415.6</ele></trkpt>
      <trkpt lat="45.8461941" lon="6.9137478"><ele>3422.2</ele></trkpt>
      <trkpt lat="45.8459431" lon="6.9136058"><ele>3428.9</ele></trkpt>
      <trkpt lat="45.8457631" lon="6.9134319"><ele>3434.7</ele></trkpt>
      <trkpt lat="45.8457480" lon="6.9134273"><ele>3440.5</ele></trkpt>
      <trkpt lat="45.8454839" lon="6.9133483"><ele>3444.8</ele></trkpt>
      <trkpt lat="45.8452198" lon="6.9132692"><ele>3447.4</ele></trkpt>
      <trkpt lat="45.8452083" lon="6.9132518"><ele>3448.6</ele></trkpt>
      <trkpt lat="45.8450225" lon="6.9129708"><ele>3448.8</ele></trkpt>
      <trkpt lat="45.8450584" lon="6.9128383"><ele>3448.7</ele></trkpt>
      <trkpt lat="45.8451562" lon="6.9124774"><ele>3447.4</ele></trkpt>
      <trkpt lat="45.8452065" lon="6.9123985"><ele>3444.9</ele></trkpt>
      <trkpt lat="45.8453886" lon="6.9121128"><ele>3442.3</ele></trkpt>
      <trkpt lat="45.8454496" lon="6.9120613"><ele>3438.4</ele></trkpt>
      <trkpt lat="45.8456822" lon="6.9118651"><ele>3433.8</ele></trkpt>
      <trkpt lat="45.8459148" lon="6.9116689"><ele>3429.6</ele></trkpt>
      <trkpt lat="45.8459516" lon="6.9116804"><ele>3424.8</ele></trkpt>
      <trkpt lat="45.8462151" lon="6.9117632"><ele>3419.7</ele></trkpt>
      <trkpt lat="45.8464787" lon="6.9118459"><ele>3413.9</ele></trkpt>
      <trkpt lat="45.8464810" lon="6.9118463"><ele>3408.3</ele></trkpt>
      <trkpt lat="45.8467488" lon="6.9118930"><ele>3402.7</ele></trkpt>
      <trkpt lat="45.8470167" lon="6.9119396"><ele>3397.1</ele></trkpt>
      <trkpt lat="45.8472845" lon="6.9119862"><ele>3393.0</ele></trkpt>
      <trkpt lat="45.8473762" lon="6.9121858"><ele>3390.2</ele></trkpt>
      <trkpt lat="45.8475248" lon="6.9125091"><ele>3387.8</ele></trkpt>
      <trkpt lat="45.8476913" lon="6.9052683"><ele>3386.7</ele></trkpt>
      <trkpt lat="45.8475517" lon="6.9049369"><ele>3386.9</ele></trkpt>
      <trkpt lat="45.8474120" lon="6.9046055"><ele>3388.0</ele></trkpt>
      <trkpt lat="45.8472724" lon="6.9042741"><ele>3389.8</ele></trkpt>
      <trkpt lat="45.8471328" lon="6.9039427"><ele>3392.7</ele></trkpt>
      <trkpt lat="45.8469931" lon="6.9036113"><ele>3395.8</ele></trkpt>
      <trkpt lat="45.8469375" lon="6.9035029"><ele>3398.5</ele></trkpt>
      <trkpt lat="45.8467776" lon="6.9031910"><ele>3401.1</ele></trkpt>
      <trkpt lat="45.8466176" lon="6.9028791"><ele>3403.3</ele></trkpt>
      <trkpt lat="45.8466155" lon="6.9025974"><ele>3405.4</ele></trkpt>
      <trkpt lat="45.8466122" lon="6.9025448"><ele>3407.2</ele></trkpt>
      <trkpt lat="45.8465883" lon="6.9021590"><ele>3409.1</ele></trkpt>
      <trkpt lat="45.8465643" lon="6.9017732"><ele>3410.9</ele></trkpt>
      <trkpt lat="45.8465403" lon="6.9013874"><ele>3412.5</ele></trkpt>
      <trkpt lat="45.8465163" lon="6.9010017"><ele>3414.3</ele></trkpt>
      <trkpt lat="45.8464923" lon="6.9006159"><ele>3416.4</ele></trkpt>
      <trkpt lat="45.8464683" lon="6.9002301"><ele>3418.6</ele></trkpt>
      <trkpt lat="45.8464793" lon="6.9000423"><ele>3421.1</ele></trkpt>
      <trkpt lat="45.8465019" lon="6.8996564"><ele>3423.5</ele></trkpt>
      <trkpt lat="45.8465244" lon="6.8992704"><ele>3426.1</ele></trkpt>
      <trkpt lat="45.8465470" lon="6.8988844"><ele>3428.9</ele></trkpt>
      <trkpt lat="45.8465695" lon="6.8984985"><ele>3431.9</ele></trkpt>
      <trkpt lat="45.8465865" lon="6.8983790"><ele>3435.0</ele></trkpt>
      <trkpt lat="45.8466404" lon="6.8979995"><ele>3438.2</ele></trkpt>
      <trkpt lat="45.8466943" lon="6.8976200"><ele>3441.3</ele></trkpt>
      <trkpt lat="45.8467482" lon="6.8972405"><ele>3444.6</ele></trkpt>
      <trkpt lat="45.8467535" lon="6.8970029"><ele>3448.1</ele></trkpt>
      <trkpt lat="45.8467621" lon="6.8966157"><ele>3451.9</ele></trkpt>
      <trkpt lat="45.8467884" lon="6.8964087"><ele>3455.9</ele></trkpt>
      <trkpt lat="45.8468367" lon="6.8960276"><ele>3459.6</ele></trkpt>
      <trkpt lat="45.8468851" lon="6.8956466"><ele>3463.4</ele></trkpt>
      <trkpt lat="45.8469334" lon="6.8952656"><ele>3467.4</ele></trkpt>
      <trkpt lat="45.8469818" lon="6.8948845"><ele>3471.4</ele></trkpt>
      <trkpt lat="45.8469850" lon="6.8948272"><ele>3475.6</ele></trkpt>
      <trkpt lat="45.8470062" lon="6.8944411"><ele>3479.8</ele></trkpt>
      <trkpt lat="45.8470275" lon="6.8940550"><ele>3484.0</ele></trkpt>
      <trkpt lat="45.8470487" lon="6.8936689"><ele>3488.4</ele></trkpt>
      <trkpt lat="45.8470700" lon="6.8932828"><ele>3493.0</ele></trkpt>
      <trkpt lat="45.8470913" lon="6.8928967"><ele>3498.4</ele></trkpt>
      <trkpt lat="45.8470916" lon="6.8926504"><ele>3503.9</ele></trkpt>
      <trkpt lat="45.8470920" lon="6.8922631"><ele>3509.8</ele></trkpt>
      <trkpt lat="45.8470925" lon="6.8918758"><ele>3515.9</ele></trkpt>
      <trkpt lat="45.8470930" lon="6.8914885"><ele>3522.3</ele></trkpt>
      <trkpt lat="45.8470935" lon="6.8911012"><ele>3529.0</ele></trkpt>
      <trkpt lat="45.8470940" lon="6.8907138"><ele>3536.5</ele></trkpt>
      <trkpt lat="45.8471382" lon="6.8903682"><ele>3544.7</ele></trkpt>
      <trkpt lat="45.8471870" lon="6.8899872"><ele>3553.3</ele></trkpt>
      <trkpt lat="45.8472554" lon="6.8897719"><ele>3563.7</ele></trkpt>
      <trkpt lat="45.8473672" lon="6.8894195"><ele>3575.3</ele></trkpt>
      <trkpt lat="45.8474791" lon="6.8890670"><ele>3586.8</ele></trkpt>
      <trkpt lat="45.8472317" lon="6.8889398"><ele>3600.7</ele></trkpt>
      <trkpt lat="45.8473068" lon="6.8887392"><ele>3615.7</ele></trkpt>
      <trkpt lat="45.8473227" lon="6.8884962"><ele>3630.5</ele></trkpt>
      <trkpt lat="45.8472924" lon="6.8884319"><ele>3647.7</ele></trkpt>
      <trkpt lat="45.8471413" lon="6.8881110"><ele>3664.2</ele></trkpt>
      <trkpt lat="45.8470961" lon="6.8878849"><ele>3682.0</ele></trkpt>
      <trkpt lat="45.8470717" lon="6.8878431"><ele>3697.5</ele></trkpt>
      <trkpt lat="45.8468989" lon="6.8875457"><ele>3714.0</ele></trkpt>
      <trkpt lat="45.8469097" lon="6.8874483"><ele>3733.1</ele></trkpt>
      <trkpt lat="45.8469521" lon="6.8870658"><ele>3750.0</ele></trkpt>
      <trkpt lat="45.8469595" lon="6.8870570"><ele>3769.2</ele></trkpt>
      <trkpt lat="45.8471666" lon="6.8868088"><ele>3791.1</ele></trkpt>
      <trkpt lat="45.8473738" lon="6.8865607"><ele>3811.8</ele></trkpt>
      <trkpt lat="45.8473813" lon="6.8864717"><ele>3833.4</ele></trkpt>
      <trkpt lat="45.8474138" lon="6.8860872"><ele>3852.6</ele></trkpt>
      <trkpt lat="45.8475755" lon="6.8859335"><ele>3875.4</ele></trkpt>
      <trkpt lat="45.8474994" lon="6.8857532"><ele>3896.6</ele></trkpt>
      <trkpt lat="45.8475330" lon="6.8856076"><ele>3918.5</ele></trkpt>
      <trkpt lat="45.8475377" lon="6.8856025"><ele>3940.7</ele></trkpt>
      <trkpt lat="45.8477512" lon="6.8853657"><ele>3960.5</ele></trkpt>
      <trkpt lat="45.8478333" lon="6.8852952"><ele>3977.5</ele></trkpt>
      <trkpt lat="45.8480648" lon="6.8850963"><ele>3993.3</ele></trkpt>
      <trkpt lat="45.8481529" lon="6.8848577"><ele>4008.8</ele></trkpt>
      <trkpt lat="45.8482791" lon="6.8845154"><ele>4024.4</ele></trkpt>
      <trkpt lat="45.8483419" lon="6.8844349"><ele>4036.9</ele></trkpt>
      <trkpt lat="45.8485431" lon="6.8841767"><ele>4048.8</ele></trkpt>
      <trkpt lat="45.8486423" lon="6.8839519"><ele>4056.7</ele></trkpt>
      <trkpt lat="45.8487221" lon="6.8839160"><ele>4064.9</ele></trkpt>
      <trkpt lat="45.8489795" lon="6.8838004"><ele>4071.9</ele></trkpt>
      <trkpt lat="45.8492370" lon="6.8836847"><ele>4079.7</ele></trkpt>
      <trkpt lat="45.8490275" lon="6.8835379"><ele>4088.8</ele></trkpt>
      <trkpt lat="45.8490637" lon="6.8832114"><ele>4099.6</ele></trkpt>
      <trkpt lat="45.8491855" lon="6.8829766"><ele>4111.9</ele></trkpt>
      <trkpt lat="45.8492258" lon="6.8828118"><ele>4127.2</ele></trkpt>
      <trkpt lat="45.8493152" lon="6.8824463"><ele>4144.6</ele></trkpt>
      <trkpt lat="45.8494742" lon="6.8822700"><ele>4163.1</ele></trkpt>
      <trkpt lat="45.8495544" lon="6.8821498"><ele>4180.6</ele></trkpt>
      <trkpt lat="45.8497409" lon="6.8818701"><ele>4198.7</ele></trkpt>
      <trkpt lat="45.8496276" lon="6.8815985"><ele>4217.7</ele></trkpt>
      <trkpt lat="45.8495974" lon="6.8813223"><ele>4236.7</ele></trkpt>
      <trkpt lat="45.8496136" lon="6.8811534"><ele>4255.4</ele></trkpt>
      <trkpt lat="45.8496504" lon="6.8807697"><ele>4273.3</ele></trkpt>
      <trkpt lat="45.8495975" lon="6.8804942"><ele>4287.0</ele></trkpt>
      <trkpt lat="45.8495258" lon="6.8801208"><ele>4297.1</ele></trkpt>
      <trkpt lat="45.8494542" lon="6.8797474"><ele>4305.3</ele></trkpt>
      <trkpt lat="45.8493278" lon="6.8795087"><ele>4313.3</ele></trkpt>
      <trkpt lat="45.8492817" lon="6.8792996"><ele>4320.1</ele></trkpt>
      <trkpt lat="45.8492003" lon="6.8789303"><ele>4325.6</ele></trkpt>
      <trkpt lat="45.8491190" lon="6.8785610"><ele>4328.4</ele></trkpt>
      <trkpt lat="45.8489587" lon="6.8785117"><ele>4328.6</ele></trkpt>
      <trkpt lat="45.8489557" lon="6.8784961"><ele>4329.7</ele></trkpt>
      <trkpt lat="45.8488830" lon="6.8781231"><ele>4333.0</ele></trkpt>
      <trkpt lat="45.8488564" lon="6.8779095"><ele>4337.3</ele></trkpt>
      <trkpt lat="45.8488561" lon="6.8779089"><ele>4343.8</ele></trkpt>
      <trkpt lat="45.8486954" lon="6.8775978"><ele>4350.0</ele></trkpt>
      <trkpt lat="45.8485347" lon="6.8772866"><ele>4358.1</ele></trkpt>
      <trkpt lat="45.8485051" lon="6.8772595"><ele>4365.6</ele></trkpt>
      <trkpt lat="45.8482776" lon="6.8770514"><ele>4374.1</ele></trkpt>
      <trkpt lat="45.8482767" lon="6.8770483"><ele>4382.9</ele></trkpt>
      <trkpt lat="45.8481698" lon="6.8766927"><ele>4391.7</ele></trkpt>
      <trkpt lat="45.8481407" lon="6.8766468"><ele>4399.4</ele></trkpt>
      <trkpt lat="45.8479592" lon="6.8763602"><ele>4409.2</ele></trkpt>
      <trkpt lat="45.8479312" lon="6.8763070"><ele>4418.3</ele></trkpt>
      <trkpt lat="45.8477682" lon="6.8759983"><ele>4423.2</ele></trkpt>
      <trkpt lat="45.8477043" lon="6.8759316"><ele>4427.1</ele></trkpt>
      <trkpt lat="45.8474861" lon="6.8757040"><ele>4432.0</ele></trkpt>
      <trkpt lat="45.8474969" lon="6.8759309"><ele>4436.9</ele></trkpt>
    </trkseg>
  </trk>
</gpx>