<?xml version="1.0" encoding="UTF-8"?>
<gpx version="1.1" creator="AlpHD" xmlns="http://www.topografix.com/GPX/1/1">
  <trk>
    <name>Traversée des Aiguilles de Chamonix S→N</name>
    <trkseg>
      <trkpt lat="45.878463" lon="6.887892"><ele>3724.6</ele></trkpt>
      <trkpt lat="45.878840" lon="6.888103"><ele>3724.6</ele></trkpt>
      <trkpt lat="45.879055" lon="6.888480"><ele>3707.8</ele></trkpt>
      <trkpt lat="45.879353" lon="6.888692"><ele>3678.4</ele></trkpt>
      <trkpt lat="45.879753" lon="6.889352"><ele>3657.8</ele></trkpt>
      <trkpt lat="45.880050" lon="6.890680"><ele>3624.2</ele></trkpt>
      <trkpt lat="45.880118" lon="6.892802"><ele>3602.2</ele></trkpt>
      <trkpt lat="45.880575" lon="6.895140"><ele>3569.0</ele></trkpt>
      <trkpt lat="45.881938" lon="6.898670"><ele>3550.2</ele></trkpt>
      <trkpt lat="45.883020" lon="6.899905"><ele>3463.2</ele></trkpt>
      <trkpt lat="45.883120" lon="6.900840"><ele>3422.2</ele></trkpt>
      <trkpt lat="45.884345" lon="6.903195"><ele>3460.4</ele></trkpt>
      <trkpt lat="45.885072" lon="6.903637"><ele>3442.2</ele></trkpt>
      <trkpt lat="45.885302" lon="6.903655"><ele>3426.8</ele></trkpt>
      <trkpt lat="45.885712" lon="6.904362"><ele>3435.0</ele></trkpt>
      <trkpt lat="45.886095" lon="6.904753"><ele>3466.4</ele></trkpt>
      <trkpt lat="45.886447" lon="6.905200"><ele>3503.0</ele></trkpt>
      <trkpt lat="45.886860" lon="6.905210"><ele>3523.4</ele></trkpt>
      <trkpt lat="45.887883" lon="6.905650"><ele>3535.2</ele></trkpt>
      <trkpt lat="45.888672" lon="6.905533"><ele>3527.4</ele></trkpt>
      <trkpt lat="45.888947" lon="6.905622"><ele>3524.4</ele></trkpt>
      <trkpt lat="45.888818" lon="6.905915"><ele>3483.0</ele></trkpt>
      <trkpt lat="45.889727" lon="6.907350"><ele>3477.6</ele></trkpt>
      <trkpt lat="45.889062" lon="6.906002"><ele>3469.8</ele></trkpt>
      <trkpt lat="45.889280" lon="6.906015"><ele>3471.6</ele></trkpt>
      <trkpt lat="45.889483" lon="6.906158"><ele>3471.6</ele></trkpt>
      <trkpt lat="45.890018" lon="6.906205"><ele>3483.6</ele></trkpt>
      <trkpt lat="45.891200" lon="6.906747"><ele>3544.8</ele></trkpt>
      <trkpt lat="45.891445" lon="6.906995"><ele>3551.4</ele></trkpt>
      <trkpt lat="45.891692" lon="6.906832"><ele>3569.2</ele></trkpt>
      <trkpt lat="45.891708" lon="6.907443"><ele>3599.0</ele></trkpt>
      <trkpt lat="45.891708" lon="6.907103"><ele>3590.4</ele></trkpt>
      <trkpt lat="45.892523" lon="6.907325"><ele>3539.2</ele></trkpt>
      <trkpt lat="45.892722" lon="6.905985"><ele>3528.2</ele></trkpt>
      <trkpt lat="45.892578" lon="6.903862"><ele>3528.2</ele></trkpt>
      <trkpt lat="45.892800" lon="6.907592"><ele>3540.6</ele></trkpt>
      <trkpt lat="45.892623" lon="6.907283"><ele>3541.0</ele></trkpt>
      <trkpt lat="45.892920" lon="6.907460"><ele>3541.0</ele></trkpt>
      <trkpt lat="45.893040" lon="6.907793"><ele>3551.6</ele></trkpt>
      <trkpt lat="45.893218" lon="6.908073"><ele>3527.8</ele></trkpt>
      <trkpt lat="45.893398" lon="6.908142"><ele>3495.0</ele></trkpt>
      <trkpt lat="45.893807" lon="6.908373"><ele>3471.2</ele></trkpt>
      <trkpt lat="45.894057" lon="6.908827"><ele>3454.0</ele></trkpt>
      <trkpt lat="45.894112" lon="6.908578"><ele>3446.0</ele></trkpt>
      <trkpt lat="45.894443" lon="6.908658"><ele>3428.2</ele></trkpt>
      <trkpt lat="45.894508" lon="6.909123"><ele>3455.0</ele></trkpt>
      <trkpt lat="45.894227" lon="6.908935"><ele>3467.0</ele></trkpt>
      <trkpt lat="45.894495" lon="6.909212"><ele>3467.0</ele></trkpt>
      <trkpt lat="45.894732" lon="6.909315"><ele>3416.8</ele></trkpt>
      <trkpt lat="45.894877" lon="6.909155"><ele>3372.4</ele></trkpt>
      <trkpt lat="45.895042" lon="6.909593"><ele>3335.6</ele></trkpt>
      <trkpt lat="45.895350" lon="6.910202"><ele>3308.4</ele></trkpt>
      <trkpt lat="45.895522" lon="6.910307"><ele>3311.0</ele></trkpt>
      <trkpt lat="45.895628" lon="6.910702"><ele>3296.8</ele></trkpt>
      <trkpt lat="45.896063" lon="6.910853"><ele>3292.4</ele></trkpt>
      <trkpt lat="45.895785" lon="6.910933"><ele>3283.6</ele></trkpt>
      <trkpt lat="45.895983" lon="6.911100"><ele>3282.0</ele></trkpt>
      <trkpt lat="45.895775" lon="6.911132"><ele>3266.3</ele></trkpt>
      <trkpt lat="45.895702" lon="6.910657"><ele>3274.2</ele></trkpt>
      <trkpt lat="45.895868" lon="6.911117"><ele>3274.2</ele></trkpt>
      <trkpt lat="45.895887" lon="6.911387"><ele>3291.6</ele></trkpt>
      <trkpt lat="45.896237" lon="6.911523"><ele>3304.8</ele></trkpt>
      <trkpt lat="45.896488" lon="6.911377"><ele>3262.0</ele></trkpt>
      <trkpt lat="45.896252" lon="6.911515"><ele>3261.8</ele></trkpt>
      <trkpt lat="45.896450" lon="6.911345"><ele>3261.8</ele></trkpt>
      <trkpt lat="45.896613" lon="6.911525"><ele>3275.6</ele></trkpt>
      <trkpt lat="45.896435" lon="6.911350"><ele>3275.6</ele></trkpt>
      <trkpt lat="45.896610" lon="6.911453"><ele>3275.6</ele></trkpt>
      <trkpt lat="45.896435" lon="6.911352"><ele>3275.6</ele></trkpt>
      <trkpt lat="45.896623" lon="6.911448"><ele>3275.6</ele></trkpt>
      <trkpt lat="45.896687" lon="6.910160"><ele>3275.6</ele></trkpt>
      <trkpt lat="45.896700" lon="6.910505"><ele>3275.6</ele></trkpt>
      <trkpt lat="45.896610" lon="6.911027"><ele>3275.6</ele></trkpt>
      <trkpt lat="45.896620" lon="6.911352"><ele>3275.6</ele></trkpt>
      <trkpt lat="45.896380" lon="6.911587"><ele>3285.4</ele></trkpt>
      <trkpt lat="45.896675" lon="6.911310"><ele>3285.4</ele></trkpt>
      <trkpt lat="45.896502" lon="6.911570"><ele>3285.4</ele></trkpt>
      <trkpt lat="45.896752" lon="6.911642"><ele>3281.8</ele></trkpt>
      <trkpt lat="45.896898" lon="6.911857"><ele>3319.8</ele></trkpt>
      <trkpt lat="45.897093" lon="6.912037"><ele>3329.8</ele></trkpt>
      <trkpt lat="45.897235" lon="6.912200"><ele>3370.0</ele></trkpt>
      <trkpt lat="45.897513" lon="6.912100"><ele>3351.4</ele></trkpt>
      <trkpt lat="45.897337" lon="6.912380"><ele>3344.8</ele></trkpt>
      <trkpt lat="45.897622" lon="6.912590"><ele>3319.6</ele></trkpt>
      <trkpt lat="45.897922" lon="6.912855"><ele>3293.8</ele></trkpt>
      <trkpt lat="45.898160" lon="6.912915"><ele>3300.8</ele></trkpt>
      <trkpt lat="45.898482" lon="6.912955"><ele>3330.4</ele></trkpt>
      <trkpt lat="45.898927" lon="6.912978"><ele>3335.4</ele></trkpt>
      <trkpt lat="45.899893" lon="6.912797"><ele>3346.4</ele></trkpt>
      <trkpt lat="45.899522" lon="6.912920"><ele>3346.4</ele></trkpt>
      <trkpt lat="45.899785" lon="6.913125"><ele>3311.2</ele></trkpt>
      <trkpt lat="45.900038" lon="6.913175"><ele>3290.2</ele></trkpt>
      <trkpt lat="45.900377" lon="6.913460"><ele>3229.2</ele></trkpt>
      <trkpt lat="45.900748" lon="6.913498"><ele>3228.8</ele></trkpt>
      <trkpt lat="45.900502" lon="6.913410"><ele>3228.8</ele></trkpt>
      <trkpt lat="45.900213" lon="6.913498"><ele>3228.8</ele></trkpt>
      <trkpt lat="45.900565" lon="6.913715"><ele>3198.3</ele></trkpt>
      <trkpt lat="45.900783" lon="6.914355"><ele>3153.6</ele></trkpt>
      <trkpt lat="45.900892" lon="6.914615"><ele>3142.0</ele></trkpt>
      <trkpt lat="45.905468" lon="6.919128"><ele>3035.8</ele></trkpt>
      <trkpt lat="45.902367" lon="6.913645"><ele>2996.6</ele></trkpt>
      <trkpt lat="45.902838" lon="6.915685"><ele>2957.6</ele></trkpt>
      <trkpt lat="45.902998" lon="6.914520"><ele>2909.8</ele></trkpt>
      <trkpt lat="45.905113" lon="6.912367"><ele>2775.6</ele></trkpt>
      <trkpt lat="45.905347" lon="6.912273"><ele>2771.0</ele></trkpt>
      <trkpt lat="45.904912" lon="6.912502"><ele>2771.0</ele></trkpt>
      <trkpt lat="45.905142" lon="6.912335"><ele>2771.0</ele></trkpt>
      <trkpt lat="45.905357" lon="6.912580"><ele>2763.4</ele></trkpt>
      <trkpt lat="45.905500" lon="6.912417"><ele>2732.2</ele></trkpt>
      <trkpt lat="45.905577" lon="6.912653"><ele>2723.0</ele></trkpt>
      <trkpt lat="45.905897" lon="6.912403"><ele>2666.8</ele></trkpt>
      <trkpt lat="45.906160" lon="6.912168"><ele>2620.6</ele></trkpt>
      <trkpt lat="45.906700" lon="6.911088"><ele>2546.2</ele></trkpt>
      <trkpt lat="45.907187" lon="6.909345"><ele>2469.6</ele></trkpt>
      <trkpt lat="45.908732" lon="6.908120"><ele>2372.6</ele></trkpt>
      <trkpt lat="45.910080" lon="6.906007"><ele>2291.4</ele></trkpt>
      <trkpt lat="45.911532" lon="6.904778"><ele>2256.0</ele></trkpt>
      <trkpt lat="45.911247" lon="6.904755"><ele>2256.2</ele></trkpt>
      <trkpt lat="45.911647" lon="6.903938"><ele>2244.8</ele></trkpt>
      <trkpt lat="45.912127" lon="6.903093"><ele>2223.6</ele></trkpt>
      <trkpt lat="45.912415" lon="6.902450"><ele>2215.2</ele></trkpt>
      <trkpt lat="45.912718" lon="6.902125"><ele>2198.8</ele></trkpt>
      <trkpt lat="45.913452" lon="6.900640"><ele>2146.8</ele></trkpt>
      <trkpt lat="45.913868" lon="6.900118"><ele>2113.4</ele></trkpt>
      <trkpt lat="45.914237" lon="6.899377"><ele>2074.2</ele></trkpt>
      <trkpt lat="45.914425" lon="6.898542"><ele>2046.2</ele></trkpt>
      <trkpt lat="45.914325" lon="6.898270"><ele>2049.8</ele></trkpt>
      <trkpt lat="45.912840" lon="6.897490"><ele>2070.6</ele></trkpt>
      <trkpt lat="45.911833" lon="6.896713"><ele>2075.6</ele></trkpt>
      <trkpt lat="45.910518" lon="6.896253"><ele>2059.2</ele></trkpt>
      <trkpt lat="45.909657" lon="6.895280"><ele>2072.0</ele></trkpt>
      <trkpt lat="45.908760" lon="6.893970"><ele>2084.6</ele></trkpt>
      <trkpt lat="45.908035" lon="6.892493"><ele>2092.8</ele></trkpt>
      <trkpt lat="45.907138" lon="6.890880"><ele>2083.4</ele></trkpt>
      <trkpt lat="45.906150" lon="6.889405"><ele>2078.6</ele></trkpt>
      <trkpt lat="45.905935" lon="6.888483"><ele>2098.0</ele></trkpt>
      <trkpt lat="45.905378" lon="6.886895"><ele>2111.2</ele></trkpt>
      <trkpt lat="45.905132" lon="6.885317"><ele>2116.2</ele></trkpt>
      <trkpt lat="45.906168" lon="6.884205"><ele>2120.0</ele></trkpt>
      <trkpt lat="45.905587" lon="6.882790"><ele>2127.8</ele></trkpt>
      <trkpt lat="45.904080" lon="6.883138"><ele>2166.0</ele></trkpt>
      <trkpt lat="45.903347" lon="6.883175"><ele>2186.8</ele></trkpt>
      <trkpt lat="45.902360" lon="6.883957"><ele>2204.4</ele></trkpt>
      <trkpt lat="45.901625" lon="6.885095"><ele>2222.6</ele></trkpt>
    </trkseg>
  </trk>
</gpx>