<?xml version="1.0" encoding="UTF-8"?>
<gpx version="1.1" creator="AlpHD-batch" xmlns="http://www.topografix.com/GPX/1/1">
  <trk>
    <name>Par l'Aiguille du Goûter</name>
    <trkseg>
      <trkpt lat="45.8193671" lon="6.8320557"><ele>3075.3</ele></trkpt>
      <trkpt lat="45.8195017" lon="6.8321634"><ele>3074.6</ele></trkpt>
      <trkpt lat="45.8197373" lon="6.8323519"><ele>3074.2</ele></trkpt>
      <trkpt lat="45.8199730" lon="6.8325404"><ele>3074.4</ele></trkpt>
      <trkpt lat="45.8202086" lon="6.8327289"><ele>3073.8</ele></trkpt>
      <trkpt lat="45.8202627" lon="6.8327666"><ele>3071.1</ele></trkpt>
      <trkpt lat="45.8202889" lon="6.8327711"><ele>3068.8</ele></trkpt>
      <trkpt lat="45.8205567" lon="6.8328173"><ele>3067.2</ele></trkpt>
      <trkpt lat="45.8206846" lon="6.8328526"><ele>3066.3</ele></trkpt>
      <trkpt lat="45.8209495" lon="6.8329259"><ele>3065.9</ele></trkpt>
      <trkpt lat="45.8210815" lon="6.8328742"><ele>3066.7</ele></trkpt>
      <trkpt lat="45.8213418" lon="6.8327722"><ele>3067.6</ele></trkpt>
      <trkpt lat="45.8216020" lon="6.8326702"><ele>3069.8</ele></trkpt>
      <trkpt lat="45.8216720" lon="6.8326542"><ele>3073.1</ele></trkpt>
      <trkpt lat="45.8219384" lon="6.8325931"><ele>3078.2</ele></trkpt>
      <trkpt lat="45.8219799" lon="6.8325705"><ele>3083.6</ele></trkpt>
      <trkpt lat="45.8222322" lon="6.8324335"><ele>3088.6</ele></trkpt>
      <trkpt lat="45.8224942" lon="6.8324028"><ele>3094.2</ele></trkpt>
      <trkpt lat="45.8225731" lon="6.8324054"><ele>3100.4</ele></trkpt>
      <trkpt lat="45.8228429" lon="6.8324140"><ele>3106.6</ele></trkpt>
      <trkpt lat="45.8228746" lon="6.8324097"><ele>3113.3</ele></trkpt>
      <trkpt lat="45.8231432" lon="6.8323733"><ele>3118.6</ele></trkpt>
      <trkpt lat="45.8234118" lon="6.8323370"><ele>3124.7</ele></trkpt>
      <trkpt lat="45.8236805" lon="6.8323006"><ele>3131.5</ele></trkpt>
      <trkpt lat="45.8239148" lon="6.8321560"><ele>3139.6</ele></trkpt>
      <trkpt lat="45.8239373" lon="6.8321361"><ele>3147.9</ele></trkpt>
      <trkpt lat="45.8241671" lon="6.8319331"><ele>3157.4</ele></trkpt>
      <trkpt lat="45.8242473" lon="6.8318297"><ele>3166.9</ele></trkpt>
      <trkpt lat="45.8244481" lon="6.8315711"><ele>3175.5</ele></trkpt>
      <trkpt lat="45.8244777" lon="6.8315690"><ele>3184.3</ele></trkpt>
      <trkpt lat="45.8247471" lon="6.8315498"><ele>3193.0</ele></trkpt>
      <trkpt lat="45.8249153" lon="6.8315969"><ele>3202.1</ele></trkpt>
      <trkpt lat="45.8249350" lon="6.8316085"><ele>3211.9</ele></trkpt>
      <trkpt lat="45.8251848" lon="6.8317550"><ele>3220.2</ele></trkpt>
      <trkpt lat="45.8252027" lon="6.8317596"><ele>3229.0</ele></trkpt>
      <trkpt lat="45.8254685" lon="6.8318263"><ele>3236.5</ele></trkpt>
      <trkpt lat="45.8257342" lon="6.8318931"><ele>3243.1</ele></trkpt>
      <trkpt lat="45.8258165" lon="6.8318627"><ele>3251.2</ele></trkpt>
      <trkpt lat="45.8259238" lon="6.8318844"><ele>3259.4</ele></trkpt>
      <trkpt lat="45.8260816" lon="6.8318316"><ele>3268.1</ele></trkpt>
      <trkpt lat="45.8260836" lon="6.8318322"><ele>3276.7</ele></trkpt>
      <trkpt lat="45.8263478" lon="6.8319104"><ele>3284.3</ele></trkpt>
      <trkpt lat="45.8265629" lon="6.8320044"><ele>3292.1</ele></trkpt>
      <trkpt lat="45.8267014" lon="6.8320304"><ele>3300.0</ele></trkpt>
      <trkpt lat="45.8269690" lon="6.8320807"><ele>3307.4</ele></trkpt>
      <trkpt lat="45.8270704" lon="6.8321730"><ele>3315.0</ele></trkpt>
      <trkpt lat="45.8272287" lon="6.8322081"><ele>3322.7</ele></trkpt>
      <trkpt lat="45.8273418" lon="6.8322343"><ele>3329.9</ele></trkpt>
      <trkpt lat="45.8274105" lon="6.8323287"><ele>3337.6</ele></trkpt>
      <trkpt lat="45.8274363" lon="6.8323481"><ele>3345.1</ele></trkpt>
      <trkpt lat="45.8276752" lon="6.8325281"><ele>3353.3</ele></trkpt>
      <trkpt lat="45.8277662" lon="6.8327023"><ele>3360.8</ele></trkpt>
      <trkpt lat="45.8279281" lon="6.8330120"><ele>3369.4</ele></trkpt>
      <trkpt lat="45.8280901" lon="6.8333217"><ele>3378.2</ele></trkpt>
      <trkpt lat="45.8282498" lon="6.8334653"><ele>3388.3</ele></trkpt>
      <trkpt lat="45.8282573" lon="6.8334686"><ele>3398.3</ele></trkpt>
      <trkpt lat="45.8285153" lon="6.8335820"><ele>3408.0</ele></trkpt>
      <trkpt lat="45.8286300" lon="6.8335255"><ele>3416.5</ele></trkpt>
      <trkpt lat="45.8288851" lon="6.8333997"><ele>3425.1</ele></trkpt>
      <trkpt lat="45.8291280" lon="6.8334376"><ele>3433.6</ele></trkpt>
      <trkpt lat="45.8292556" lon="6.8335909"><ele>3443.3</ele></trkpt>
      <trkpt lat="45.8292769" lon="6.8335916"><ele>3451.2</ele></trkpt>
      <trkpt lat="45.8295467" lon="6.8336008"><ele>3459.6</ele></trkpt>
      <trkpt lat="45.8298164" lon="6.8336100"><ele>3467.3</ele></trkpt>
      <trkpt lat="45.8300861" lon="6.8336192"><ele>3474.0</ele></trkpt>
      <trkpt lat="45.8302676" lon="6.8338853"><ele>3482.7</ele></trkpt>
      <trkpt lat="45.8304352" lon="6.8338442"><ele>3491.7</ele></trkpt>
      <trkpt lat="45.8305234" lon="6.8337569"><ele>3500.9</ele></trkpt>
      <trkpt lat="45.8305829" lon="6.8337700"><ele>3509.4</ele></trkpt>
      <trkpt lat="45.8308495" lon="6.8338288"><ele>3517.4</ele></trkpt>
      <trkpt lat="45.8308841" lon="6.8338416"><ele>3527.1</ele></trkpt>
      <trkpt lat="45.8310444" lon="6.8338556"><ele>3536.6</ele></trkpt>
      <trkpt lat="45.8311084" lon="6.8338811"><ele>3545.5</ele></trkpt>
      <trkpt lat="45.8311994" lon="6.8339248"><ele>3554.2</ele></trkpt>
      <trkpt lat="45.8314552" lon="6.8340476"><ele>3561.3</ele></trkpt>
      <trkpt lat="45.8315819" lon="6.8341614"><ele>3569.9</ele></trkpt>
      <trkpt lat="45.8316412" lon="6.8341874"><ele>3577.5</ele></trkpt>
      <trkpt lat="45.8317253" lon="6.8342588"><ele>3584.8</ele></trkpt>
      <trkpt lat="45.8318307" lon="6.8342847"><ele>3591.9</ele></trkpt>
      <trkpt lat="45.8320966" lon="6.8343503"><ele>3598.2</ele></trkpt>
      <trkpt lat="45.8321722" lon="6.8344112"><ele>3603.7</ele></trkpt>
      <trkpt lat="45.8321990" lon="6.8345081"><ele>3610.8</ele></trkpt>
      <trkpt lat="45.8322982" lon="6.8348682"><ele>3618.2</ele></trkpt>
      <trkpt lat="45.8324091" lon="6.8349776"><ele>3625.7</ele></trkpt>
      <trkpt lat="45.8324291" lon="6.8349811"><ele>3631.9</ele></trkpt>
      <trkpt lat="45.8326969" lon="6.8350289"><ele>3637.7</ele></trkpt>
      <trkpt lat="45.8327872" lon="6.8350943"><ele>3643.9</ele></trkpt>
      <trkpt lat="45.8328152" lon="6.8352938"><ele>3650.3</ele></trkpt>
      <trkpt lat="45.8328975" lon="6.8353238"><ele>3655.7</ele></trkpt>
      <trkpt lat="45.8329065" lon="6.8353104"><ele>3661.7</ele></trkpt>
      <trkpt lat="45.8330944" lon="6.8350325"><ele>3665.8</ele></trkpt>
      <trkpt lat="45.8332823" lon="6.8347547"><ele>3669.9</ele></trkpt>
      <trkpt lat="45.8332902" lon="6.8347229"><ele>3673.5</ele></trkpt>
      <trkpt lat="45.8333811" lon="6.8343583"><ele>3677.3</ele></trkpt>
      <trkpt lat="45.8333895" lon="6.8343219"><ele>3681.2</ele></trkpt>
      <trkpt lat="45.8334746" lon="6.8339545"><ele>3685.0</ele></trkpt>
      <trkpt lat="45.8335460" lon="6.8338035"><ele>3688.8</ele></trkpt>
      <trkpt lat="45.8336976" lon="6.8334831"><ele>3692.9</ele></trkpt>
      <trkpt lat="45.8337280" lon="6.8334081"><ele>3696.3</ele></trkpt>
      <trkpt lat="45.8338637" lon="6.8330734"><ele>3700.5</ele></trkpt>
      <trkpt lat="45.8339993" lon="6.8327387"><ele>3704.8</ele></trkpt>
      <trkpt lat="45.8341002" lon="6.8325581"><ele>3709.5</ele></trkpt>
      <trkpt lat="45.8341086" lon="6.8325359"><ele>3714.0</ele></trkpt>
      <trkpt lat="45.8342371" lon="6.8321954"><ele>3719.0</ele></trkpt>
      <trkpt lat="45.8343657" lon="6.8318549"><ele>3724.8</ele></trkpt>
      <trkpt lat="45.8344942" lon="6.8315145"><ele>3731.3</ele></trkpt>
      <trkpt lat="45.8345568" lon="6.8314329"><ele>3738.8</ele></trkpt>
      <trkpt lat="45.8345904" lon="6.8312474"><ele>3747.6</ele></trkpt>
      <trkpt lat="45.8346584" lon="6.8308727"><ele>3756.8</ele></trkpt>
      <trkpt lat="45.8347264" lon="6.8304980"><ele>3766.8</ele></trkpt>
      <trkpt lat="45.8347943" lon="6.8301232"><ele>3776.1</ele></trkpt>
      <trkpt lat="45.8348623" lon="6.8297485"><ele>3787.4</ele></trkpt>
      <trkpt lat="45.8349572" lon="6.8295487"><ele>3798.6</ele></trkpt>
      <trkpt lat="45.8351009" lon="6.8294577"><ele>3810.4</ele></trkpt>
      <trkpt lat="45.8351110" lon="6.8294493"><ele>3822.1</ele></trkpt>
      <trkpt lat="45.8353447" lon="6.8292557"><ele>3834.3</ele></trkpt>
      <trkpt lat="45.8352232" lon="6.8289830"><ele>3846.9</ele></trkpt>
      <trkpt lat="45.8354723" lon="6.8289146"><ele>3860.0</ele></trkpt>
      <trkpt lat="45.8356269" lon="6.8291221"><ele>3872.3</ele></trkpt>
      <trkpt lat="45.8358239" lon="6.8293866"><ele>3886.5</ele></trkpt>
      <trkpt lat="45.8360209" lon="6.8296511"><ele>3900.5</ele></trkpt>
      <trkpt lat="45.8362350" lon="6.8298274"><ele>3914.9</ele></trkpt>
      <trkpt lat="45.8363093" lon="6.8298691"><ele>3929.6</ele></trkpt>
      <trkpt lat="45.8365605" lon="6.8300102"><ele>3943.3</ele></trkpt>
      <trkpt lat="45.8368118" lon="6.8301514"><ele>3955.4</ele></trkpt>
      <trkpt lat="45.8369114" lon="6.8302421"><ele>3966.5</ele></trkpt>
      <trkpt lat="45.8371392" lon="6.8304496"><ele>3976.7</ele></trkpt>
      <trkpt lat="45.8371698" lon="6.8307123"><ele>3987.0</ele></trkpt>
      <trkpt lat="45.8371769" lon="6.8307530"><ele>3996.0</ele></trkpt>
      <trkpt lat="45.8372424" lon="6.8311287"><ele>4003.6</ele></trkpt>
      <trkpt lat="45.8373079" lon="6.8315044"><ele>4010.5</ele></trkpt>
      <trkpt lat="45.8373734" lon="6.8318801"><ele>4016.8</ele></trkpt>
      <trkpt lat="45.8374389" lon="6.8322557"><ele>4024.1</ele></trkpt>
      <trkpt lat="45.8375044" lon="6.8326314"><ele>4032.3</ele></trkpt>
      <trkpt lat="45.8375158" lon="6.8327228"><ele>4040.8</ele></trkpt>
      <trkpt lat="45.8375635" lon="6.8331040"><ele>4049.3</ele></trkpt>
      <trkpt lat="45.8376112" lon="6.8334851"><ele>4058.6</ele></trkpt>
      <trkpt lat="45.8377398" lon="6.8338040"><ele>4068.6</ele></trkpt>
      <trkpt lat="45.8378750" lon="6.8341391"><ele>4079.3</ele></trkpt>
      <trkpt lat="45.8379257" lon="6.8343300"><ele>4091.2</ele></trkpt>
      <trkpt lat="45.8380219" lon="6.8346918"><ele>4101.6</ele></trkpt>
      <trkpt lat="45.8381180" lon="6.8350536"><ele>4110.5</ele></trkpt>
      <trkpt lat="45.8382141" lon="6.8354155"><ele>4118.4</ele></trkpt>
      <trkpt lat="45.8383103" lon="6.8357773"><ele>4125.1</ele></trkpt>
      <trkpt lat="45.8384434" lon="6.8360655"><ele>4131.4</ele></trkpt>
      <trkpt lat="45.8385935" lon="6.8362552"><ele>4136.7</ele></trkpt>
      <trkpt lat="45.8387960" lon="6.8365110"><ele>4140.8</ele></trkpt>
      <trkpt lat="45.8389986" lon="6.8367669"><ele>4144.3</ele></trkpt>
      <trkpt lat="45.8390923" lon="6.8371065"><ele>4147.2</ele></trkpt>
      <trkpt lat="45.8391917" lon="6.8374665"><ele>4151.0</ele></trkpt>
      <trkpt lat="45.8392539" lon="6.8376281"><ele>4155.0</ele></trkpt>
      <trkpt lat="45.8393844" lon="6.8379671"><ele>4159.9</ele></trkpt>
      <trkpt lat="45.8395148" lon="6.8383061"><ele>4165.6</ele></trkpt>
      <trkpt lat="45.8396453" lon="6.8386451"><ele>4171.8</ele></trkpt>
      <trkpt lat="45.8396761" lon="6.8387007"><ele>4178.5</ele></trkpt>
      <trkpt lat="45.8398441" lon="6.8390037"><ele>4185.5</ele></trkpt>
      <trkpt lat="45.8400121" lon="6.8393068"><ele>4192.1</ele></trkpt>
      <trkpt lat="45.8401800" lon="6.8396098"><ele>4198.7</ele></trkpt>
      <trkpt lat="45.8403480" lon="6.8399129"><ele>4205.1</ele></trkpt>
      <trkpt lat="45.8405160" lon="6.8402159"><ele>4211.4</ele></trkpt>
      <trkpt lat="45.8405830" lon="6.8403516"><ele>4218.3</ele></trkpt>
      <trkpt lat="45.8407391" lon="6.8406674"><ele>4225.8</ele></trkpt>
      <trkpt lat="45.8407842" lon="6.8408175"><ele>4233.1</ele></trkpt>
      <trkpt lat="45.8407852" lon="6.8408447"><ele>4240.4</ele></trkpt>
      <trkpt lat="45.8407993" lon="6.8412314"><ele>4247.0</ele></trkpt>
      <trkpt lat="45.8408134" lon="6.8416182"><ele>4253.4</ele></trkpt>
      <trkpt lat="45.8408166" lon="6.8419847"><ele>4259.0</ele></trkpt>
      <trkpt lat="45.8408200" lon="6.8423719"><ele>4264.2</ele></trkpt>
      <trkpt lat="45.8408833" lon="6.8426658"><ele>4268.6</ele></trkpt>
      <trkpt lat="45.8409630" lon="6.8430358"><ele>4270.7</ele></trkpt>
      <trkpt lat="45.8410427" lon="6.8434057"><ele>4270.5</ele></trkpt>
      <trkpt lat="45.8411225" lon="6.8437757"><ele>4269.2</ele></trkpt>
      <trkpt lat="45.8411631" lon="6.8440842"><ele>4266.3</ele></trkpt>
      <trkpt lat="45.8412132" lon="6.8444647"><ele>4263.3</ele></trkpt>
      <trkpt lat="45.8412634" lon="6.8448452"><ele>4259.8</ele></trkpt>
      <trkpt lat="45.8412703" lon="6.8450422"><ele>4255.8</ele></trkpt>
      <trkpt lat="45.8412840" lon="6.8454290"><ele>4251.3</ele></trkpt>
      <trkpt lat="45.8412665" lon="6.8454696"><ele>4247.2</ele></trkpt>
      <trkpt lat="45.8411245" lon="6.8457989"><ele>4243.7</ele></trkpt>
      <trkpt lat="45.8409825" lon="6.8461282"><ele>4241.4</ele></trkpt>
      <trkpt lat="45.8408405" lon="6.8464575"><ele>4239.9</ele></trkpt>
      <trkpt lat="45.8406985" lon="6.8467868"><ele>4239.4</ele></trkpt>
      <trkpt lat="45.8405566" lon="6.8471161"><ele>4239.3</ele></trkpt>
      <trkpt lat="45.8404133" lon="6.8474263"><ele>4239.6</ele></trkpt>
      <trkpt lat="45.8402643" lon="6.8477491"><ele>4240.8</ele></trkpt>
      <trkpt lat="45.8401152" lon="6.8480719"><ele>4242.8</ele></trkpt>
      <trkpt lat="45.8399661" lon="6.8483947"><ele>4245.7</ele></trkpt>
      <trkpt lat="45.8399456" lon="6.8484610"><ele>4249.6</ele></trkpt>
      <trkpt lat="45.8398360" lon="6.8488148"><ele>4253.3</ele></trkpt>
      <trkpt lat="45.8397264" lon="6.8491687"><ele>4257.7</ele></trkpt>
      <trkpt lat="45.8396168" lon="6.8495226"><ele>4262.8</ele></trkpt>
      <trkpt lat="45.8395071" lon="6.8498764"><ele>4268.4</ele></trkpt>
      <trkpt lat="45.8395097" lon="6.8499982"><ele>4275.2</ele></trkpt>
      <trkpt lat="45.8395180" lon="6.8503853"><ele>4282.8</ele></trkpt>
      <trkpt lat="45.8395262" lon="6.8507723"><ele>4291.1</ele></trkpt>
      <trkpt lat="45.8395344" lon="6.8511594"><ele>4298.9</ele></trkpt>
      <trkpt lat="45.8395787" lon="6.8513686"><ele>4306.5</ele></trkpt>
      <trkpt lat="45.8394319" lon="6.8515293"><ele>4315.3</ele></trkpt>
      <trkpt lat="45.8395175" lon="6.8518590"><ele>4321.6</ele></trkpt>
      <trkpt lat="45.8395039" lon="6.8518777"><ele>4326.2</ele></trkpt>
      <trkpt lat="45.8394464" lon="6.8519129"><ele>4328.2</ele></trkpt>
      <trkpt lat="45.8391983" lon="6.8520650"><ele>4328.8</ele></trkpt>
      <trkpt lat="45.8391580" lon="6.8521058"><ele>4326.9</ele></trkpt>
      <trkpt lat="45.8392112" lon="6.8520417"><ele>4323.8</ele></trkpt>
      <trkpt lat="45.8393977" lon="6.8520104"><ele>4321.5</ele></trkpt>
      <trkpt lat="45.8394562" lon="6.8518950"><ele>4319.1</ele></trkpt>
      <trkpt lat="45.8396066" lon="6.8518185"><ele>4317.0</ele></trkpt>
      <trkpt lat="45.8396037" lon="6.8518306"><ele>4316.8</ele></trkpt>
      <trkpt lat="45.8394516" lon="6.8518931"><ele>4319.7</ele></trkpt>
      <trkpt lat="45.8394053" lon="6.8519955"><ele>4323.0</ele></trkpt>
      <trkpt lat="45.8392557" lon="6.8520298"><ele>4323.6</ele></trkpt>
      <trkpt lat="45.8392124" lon="6.8520488"><ele>4325.9</ele></trkpt>
      <trkpt lat="45.8389544" lon="6.8521621"><ele>4329.0</ele></trkpt>
      <trkpt lat="45.8390649" lon="6.8521552"><ele>4332.8</ele></trkpt>
      <trkpt lat="45.8393345" lon="6.8521384"><ele>4336.8</ele></trkpt>
      <trkpt lat="45.8392068" lon="6.8521140"><ele>4339.0</ele></trkpt>
      <trkpt lat="45.8390630" lon="6.8520646"><ele>4341.7</ele></trkpt>
      <trkpt lat="45.8389942" lon="6.8521362"><ele>4342.9</ele></trkpt>
      <trkpt lat="45.8389180" lon="6.8520952"><ele>4345.9</ele></trkpt>
      <trkpt lat="45.8388954" lon="6.8520973"><ele>4353.0</ele></trkpt>
      <trkpt lat="45.8386261" lon="6.8521215"><ele>4360.4</ele></trkpt>
      <trkpt lat="45.8383568" lon="6.8521458"><ele>4368.0</ele></trkpt>
      <trkpt lat="45.8382272" lon="6.8522936"><ele>4375.6</ele></trkpt>
      <trkpt lat="45.8380160" lon="6.8525345"><ele>4383.5</ele></trkpt>
      <trkpt lat="45.8378047" lon="6.8527754"><ele>4391.9</ele></trkpt>
      <trkpt lat="45.8376766" lon="6.8529802"><ele>4400.5</ele></trkpt>
      <trkpt lat="45.8374964" lon="6.8532684"><ele>4408.5</ele></trkpt>
      <trkpt lat="45.8373721" lon="6.8533377"><ele>4416.0</ele></trkpt>
      <trkpt lat="45.8373336" lon="6.8534853"><ele>4424.1</ele></trkpt>
      <trkpt lat="45.8372655" lon="6.8536466"><ele>4433.3</ele></trkpt>
      <trkpt lat="45.8372512" lon="6.8537173"><ele>4441.8</ele></trkpt>
      <trkpt lat="45.8372394" lon="6.8537659"><ele>4450.2</ele></trkpt>
      <trkpt lat="45.8371502" lon="6.8541314"><ele>4457.9</ele></trkpt>
      <trkpt lat="45.8369105" lon="6.8542277"><ele>4466.2</ele></trkpt>
      <trkpt lat="45.8368666" lon="6.8542821"><ele>4474.2</ele></trkpt>
      <trkpt lat="45.8366623" lon="6.8545351"><ele>4482.0</ele></trkpt>
      <trkpt lat="45.8366272" lon="6.8545640"><ele>4489.9</ele></trkpt>
      <trkpt lat="45.8363930" lon="6.8547564"><ele>4496.6</ele></trkpt>
      <trkpt lat="45.8362387" lon="6.8547775"><ele>4502.3</ele></trkpt>
      <trkpt lat="45.8361456" lon="6.8548137"><ele>4507.7</ele></trkpt>
      <trkpt lat="45.8358852" lon="6.8549150"><ele>4512.2</ele></trkpt>
      <trkpt lat="45.8357057" lon="6.8551410"><ele>4517.1</ele></trkpt>
      <trkpt lat="45.8355018" lon="6.8553171"><ele>4520.7</ele></trkpt>
      <trkpt lat="45.8354929" lon="6.8553317"><ele>4524.1</ele></trkpt>
      <trkpt lat="45.8353161" lon="6.8556242"><ele>4527.9</ele></trkpt>
      <trkpt lat="45.8351392" lon="6.8559167"><ele>4532.0</ele></trkpt>
      <trkpt lat="45.8350038" lon="6.8560778"><ele>4536.3</ele></trkpt>
      <trkpt lat="45.8349467" lon="6.8562549"><ele>4540.6</ele></trkpt>
      <trkpt lat="45.8348333" lon="6.8566063"><ele>4545.3</ele></trkpt>
      <trkpt lat="45.8347200" lon="6.8569576"><ele>4551.2</ele></trkpt>
      <trkpt lat="45.8346068" lon="6.8571202"><ele>4557.5</ele></trkpt>
      <trkpt lat="45.8344162" lon="6.8573942"><ele>4564.1</ele></trkpt>
      <trkpt lat="45.8343672" lon="6.8574791"><ele>4571.9</ele></trkpt>
      <trkpt lat="45.8341952" lon="6.8577773"><ele>4580.0</ele></trkpt>
      <trkpt lat="45.8341862" lon="6.8580947"><ele>4588.7</ele></trkpt>
      <trkpt lat="45.8341714" lon="6.8581362"><ele>4598.6</ele></trkpt>
      <trkpt lat="45.8340485" lon="6.8584809"><ele>4607.8</ele></trkpt>
      <trkpt lat="45.8339112" lon="6.8586498"><ele>4616.9</ele></trkpt>
      <trkpt lat="45.8337940" lon="6.8588120"><ele>4625.9</ele></trkpt>
      <trkpt lat="45.8335999" lon="6.8590808"><ele>4635.6</ele></trkpt>
      <trkpt lat="45.8335394" lon="6.8591186"><ele>4646.7</ele></trkpt>
      <trkpt lat="45.8334981" lon="6.8592120"><ele>4656.5</ele></trkpt>
      <trkpt lat="45.8333534" lon="6.8595388"><ele>4667.1</ele></trkpt>
      <trkpt lat="45.8332088" lon="6.8598656"><ele>4678.2</ele></trkpt>
      <trkpt lat="45.8330641" lon="6.8601925"><ele>4689.1</ele></trkpt>
      <trkpt lat="45.8330532" lon="6.8602541"><ele>4699.7</ele></trkpt>
      <trkpt lat="45.8329873" lon="6.8606296"><ele>4711.0</ele></trkpt>
      <trkpt lat="45.8329214" lon="6.8610051"><ele>4721.7</ele></trkpt>
      <trkpt lat="45.8328555" lon="6.8613806"><ele>4730.9</ele></trkpt>
      <trkpt lat="45.8328514" lon="6.8614640"><ele>4739.1</ele></trkpt>
      <trkpt lat="45.8328326" lon="6.8618503"><ele>4747.6</ele></trkpt>
      <trkpt lat="45.8328138" lon="6.8622366"><ele>4755.0</ele></trkpt>
      <trkpt lat="45.8328093" lon="6.8622758"><ele>4761.2</ele></trkpt>
      <trkpt lat="45.8327654" lon="6.8626579"><ele>4767.0</ele></trkpt>
      <trkpt lat="45.8327215" lon="6.8630399"><ele>4770.1</ele></trkpt>
      <trkpt lat="45.8326777" lon="6.8634220"><ele>4772.8</ele></trkpt>
      <trkpt lat="45.8326338" lon="6.8638041"><ele>4774.8</ele></trkpt>
      <trkpt lat="45.8326308" lon="6.8641754"><ele>4777.4</ele></trkpt>
    </trkseg>
  </trk>
</gpx>