<?xml version="1.0" encoding="UTF-8"?>
<gpx version="1.1" creator="AlpHD-batch" xmlns="http://www.topografix.com/GPX/1/1">
  <trk>
    <name>Pilier S - Voie Contamine</name>
    <trkseg>
      <trkpt lat="45.9246320" lon="6.9552330"><ele>2833.1</ele></trkpt>
      <trkpt lat="45.9245084" lon="6.9553753"><ele>2837.1</ele></trkpt>
      <trkpt lat="45.9244717" lon="6.9555712"><ele>2841.2</ele></trkpt>
      <trkpt lat="45.9245988" lon="6.9556999"><ele>2845.1</ele></trkpt>
      <trkpt lat="45.9248193" lon="6.9559233"><ele>2849.3</ele></trkpt>
      <trkpt lat="45.9250399" lon="6.9561467"><ele>2855.9</ele></trkpt>
      <trkpt lat="45.9252604" lon="6.9563701"><ele>2860.7</ele></trkpt>
      <trkpt lat="45.9253291" lon="6.9565664"><ele>2863.4</ele></trkpt>
      <trkpt lat="45.9254504" lon="6.9569128"><ele>2864.4</ele></trkpt>
      <trkpt lat="45.9253845" lon="6.9568188"><ele>2863.2</ele></trkpt>
      <trkpt lat="45.9251929" lon="6.9565457"><ele>2861.3</ele></trkpt>
      <trkpt lat="45.9250014" lon="6.9562725"><ele>2859.7</ele></trkpt>
      <trkpt lat="45.9248098" lon="6.9559994"><ele>2857.4</ele></trkpt>
      <trkpt lat="45.9246183" lon="6.9557262"><ele>2854.5</ele></trkpt>
      <trkpt lat="45.9246413" lon="6.9558583"><ele>2852.2</ele></trkpt>
      <trkpt lat="45.9247068" lon="6.9562346"><ele>2852.7</ele></trkpt>
      <trkpt lat="45.9247131" lon="6.9562946"><ele>2856.2</ele></trkpt>
      <trkpt lat="45.9247533" lon="6.9566782"><ele>2860.9</ele></trkpt>
      <trkpt lat="45.9247711" lon="6.9567350"><ele>2868.3</ele></trkpt>
      <trkpt lat="45.9248823" lon="6.9570884"><ele>2876.4</ele></trkpt>
      <trkpt lat="45.9249934" lon="6.9574418"><ele>2883.5</ele></trkpt>
      <trkpt lat="45.9252444" lon="6.9574216"><ele>2892.0</ele></trkpt>
      <trkpt lat="45.9254626" lon="6.9575549"><ele>2902.4</ele></trkpt>
      <trkpt lat="45.9254596" lon="6.9577812"><ele>2913.3</ele></trkpt>
      <trkpt lat="45.9254827" lon="6.9577925"><ele>2923.9</ele></trkpt>
      <trkpt lat="45.9257382" lon="6.9579171"><ele>2934.4</ele></trkpt>
      <trkpt lat="45.9258976" lon="6.9581573"><ele>2946.1</ele></trkpt>
      <trkpt lat="45.9260257" lon="6.9582822"><ele>2957.8</ele></trkpt>
      <trkpt lat="45.9262490" lon="6.9584998"><ele>2968.4</ele></trkpt>
      <trkpt lat="45.9264723" lon="6.9587175"><ele>2979.4</ele></trkpt>
      <trkpt lat="45.9266956" lon="6.9589352"><ele>2989.4</ele></trkpt>
      <trkpt lat="45.9269189" lon="6.9591528"><ele>2996.8</ele></trkpt>
      <trkpt lat="45.9269529" lon="6.9591552"><ele>3002.8</ele></trkpt>
      <trkpt lat="45.9272224" lon="6.9591741"><ele>3008.3</ele></trkpt>
      <trkpt lat="45.9274919" lon="6.9591929"><ele>3012.3</ele></trkpt>
      <trkpt lat="45.9276196" lon="6.9590348"><ele>3014.9</ele></trkpt>
      <trkpt lat="45.9278241" lon="6.9587817"><ele>3015.8</ele></trkpt>
      <trkpt lat="45.9279823" lon="6.9588747"><ele>3016.5</ele></trkpt>
      <trkpt lat="45.9279874" lon="6.9588687"><ele>3018.2</ele></trkpt>
      <trkpt lat="45.9281939" lon="6.9586191"><ele>3020.7</ele></trkpt>
      <trkpt lat="45.9282810" lon="6.9584197"><ele>3024.9</ele></trkpt>
      <trkpt lat="45.9282909" lon="6.9584147"><ele>3029.8</ele></trkpt>
      <trkpt lat="45.9285458" lon="6.9582877"><ele>3034.3</ele></trkpt>
      <trkpt lat="45.9288007" lon="6.9581606"><ele>3039.3</ele></trkpt>
      <trkpt lat="45.9290556" lon="6.9580335"><ele>3044.7</ele></trkpt>
      <trkpt lat="45.9290429" lon="6.9578586"><ele>3049.7</ele></trkpt>
      <trkpt lat="45.9290148" lon="6.9574728"><ele>3054.7</ele></trkpt>
      <trkpt lat="45.9289867" lon="6.9570871"><ele>3056.4</ele></trkpt>
      <trkpt lat="45.9289586" lon="6.9567013"><ele>3056.9</ele></trkpt>
      <trkpt lat="45.9288635" lon="6.9565191"><ele>3057.0</ele></trkpt>
      <trkpt lat="45.9288591" lon="6.9565053"><ele>3058.2</ele></trkpt>
      <trkpt lat="45.9287465" lon="6.9561528"><ele>3062.3</ele></trkpt>
      <trkpt lat="45.9287540" lon="6.9561268"><ele>3070.6</ele></trkpt>
      <trkpt lat="45.9288574" lon="6.9557685"><ele>3079.4</ele></trkpt>
      <trkpt lat="45.9289368" lon="6.9556847"><ele>3092.9</ele></trkpt>
      <trkpt lat="45.9291543" lon="6.9554552"><ele>3104.0</ele></trkpt>
      <trkpt lat="45.9293666" lon="6.9556055"><ele>3119.1</ele></trkpt>
      <trkpt lat="45.9293046" lon="6.9558926"><ele>3133.4</ele></trkpt>
      <trkpt lat="45.9295045" lon="6.9558745"><ele>3145.7</ele></trkpt>
      <trkpt lat="45.9295145" lon="6.9555423"><ele>3155.9</ele></trkpt>
      <trkpt lat="45.9295108" lon="6.9557817"><ele>3162.3</ele></trkpt>
      <trkpt lat="45.9295772" lon="6.9555253"><ele>3161.9</ele></trkpt>
      <trkpt lat="45.9296713" lon="6.9551618"><ele>3161.3</ele></trkpt>
      <trkpt lat="45.9297655" lon="6.9547983"><ele>3157.9</ele></trkpt>
      <trkpt lat="45.9297338" lon="6.9548550"><ele>3162.5</ele></trkpt>
      <trkpt lat="45.9295645" lon="6.9551571"><ele>3159.2</ele></trkpt>
      <trkpt lat="45.9294845" lon="6.9554011"><ele>3161.1</ele></trkpt>
      <trkpt lat="45.9295040" lon="6.9554720"><ele>3164.2</ele></trkpt>
      <trkpt lat="45.9296037" lon="6.9558324"><ele>3167.8</ele></trkpt>
      <trkpt lat="45.9294452" lon="6.9556070"><ele>3168.0</ele></trkpt>
      <trkpt lat="45.9296026" lon="6.9557226"><ele>3173.0</ele></trkpt>
      <trkpt lat="45.9295988" lon="6.9557460"><ele>3182.4</ele></trkpt>
      <trkpt lat="45.9295773" lon="6.9557616"><ele>3194.4</ele></trkpt>
      <trkpt lat="45.9293362" lon="6.9559357"><ele>3206.2</ele></trkpt>
      <trkpt lat="45.9294875" lon="6.9559016"><ele>3228.8</ele></trkpt>
      <trkpt lat="45.9297541" lon="6.9558414"><ele>3247.0</ele></trkpt>
      <trkpt lat="45.9299453" lon="6.9558647"><ele>3267.4</ele></trkpt>
      <trkpt lat="45.9302141" lon="6.9558975"><ele>3292.9</ele></trkpt>
      <trkpt lat="45.9304829" lon="6.9559304"><ele>3324.7</ele></trkpt>
      <trkpt lat="45.9304892" lon="6.9559196"><ele>3353.9</ele></trkpt>
      <trkpt lat="45.9306624" lon="6.9556221"><ele>3378.5</ele></trkpt>
      <trkpt lat="45.9308438" lon="6.9557983"><ele>3402.9</ele></trkpt>
      <trkpt lat="45.9310023" lon="6.9558736"><ele>3424.3</ele></trkpt>
      <trkpt lat="45.9310185" lon="6.9558201"><ele>3441.6</ele></trkpt>
      <trkpt lat="45.9310534" lon="6.9559250"><ele>3463.2</ele></trkpt>
      <trkpt lat="45.9312809" lon="6.9558893"><ele>3483.1</ele></trkpt>
      <trkpt lat="45.9314768" lon="6.9559242"><ele>3500.5</ele></trkpt>
      <trkpt lat="45.9315498" lon="6.9559272"><ele>3512.8</ele></trkpt>
      <trkpt lat="45.9318195" lon="6.9559384"><ele>3529.8</ele></trkpt>
      <trkpt lat="45.9318597" lon="6.9560066"><ele>3542.4</ele></trkpt>
      <trkpt lat="45.9320341" lon="6.9563026"><ele>3556.8</ele></trkpt>
      <trkpt lat="45.9320153" lon="6.9566273"><ele>3569.5</ele></trkpt>
      <trkpt lat="45.9321735" lon="6.9567123"><ele>3581.3</ele></trkpt>
      <trkpt lat="45.9320899" lon="6.9568269"><ele>3589.0</ele></trkpt>
      <trkpt lat="45.9322594" lon="6.9568676"><ele>3594.3</ele></trkpt>
      <trkpt lat="45.9324082" lon="6.9570514"><ele>3601.3</ele></trkpt>
      <trkpt lat="45.9325002" lon="6.9570494"><ele>3607.6</ele></trkpt>
      <trkpt lat="45.9327700" lon="6.9570436"><ele>3609.0</ele></trkpt>
      <trkpt lat="45.9326926" lon="6.9573022"><ele>3617.0</ele></trkpt>
      <trkpt lat="45.9326701" lon="6.9571305"><ele>3618.5</ele></trkpt>
    </trkseg>
  </trk>
</gpx>