<?xml version="1.0" encoding="UTF-8"?>
<gpx version="1.1" creator="AlpHD-fetch-route" xmlns="http://www.topografix.com/GPX/1/1">
  <trk>
    <name>Voie normale du refuge du Requin</name>
    <trkseg>
      <trkpt lat="45.8847127" lon="6.9296918"><ele>2537.0</ele></trkpt>
      <trkpt lat="45.8847177" lon="6.9296821"><ele>2539.5</ele></trkpt>
      <trkpt lat="45.8848767" lon="6.9293691"><ele>2542.2</ele></trkpt>
      <trkpt lat="45.8848769" lon="6.9291887"><ele>2544.3</ele></trkpt>
      <trkpt lat="45.8847239" lon="6.9289484"><ele>2546.6</ele></trkpt>
      <trkpt lat="45.8847172" lon="6.9288877"><ele>2551.8</ele></trkpt>
      <trkpt lat="45.8846810" lon="6.9285041"><ele>2557.7</ele></trkpt>
      <trkpt lat="45.8846814" lon="6.9284794"><ele>2563.1</ele></trkpt>
      <trkpt lat="45.8846730" lon="6.9280919"><ele>2567.8</ele></trkpt>
      <trkpt lat="45.8846805" lon="6.9277044"><ele>2572.3</ele></trkpt>
      <trkpt lat="45.8846758" lon="6.9273163"><ele>2576.8</ele></trkpt>
      <trkpt lat="45.8847074" lon="6.9272041"><ele>2580.8</ele></trkpt>
      <trkpt lat="45.8848114" lon="6.9268360"><ele>2585.6</ele></trkpt>
      <trkpt lat="45.8848171" lon="6.9267451"><ele>2590.1</ele></trkpt>
      <trkpt lat="45.8848149" lon="6.9266736"><ele>2595.5</ele></trkpt>
      <trkpt lat="45.8848152" lon="6.9265888"><ele>2599.5</ele></trkpt>
      <trkpt lat="45.8848172" lon="6.9262010"><ele>2603.3</ele></trkpt>
      <trkpt lat="45.8848472" lon="6.9260111"><ele>2607.3</ele></trkpt>
      <trkpt lat="45.8849188" lon="6.9256381"><ele>2612.0</ele></trkpt>
      <trkpt lat="45.8850502" lon="6.9253833"><ele>2617.7</ele></trkpt>
      <trkpt lat="45.8852258" lon="6.9252583"><ele>2624.5</ele></trkpt>
      <trkpt lat="45.8853353" lon="6.9251569"><ele>2630.5</ele></trkpt>
      <trkpt lat="45.8855615" lon="6.9249501"><ele>2637.2</ele></trkpt>
      <trkpt lat="45.8856753" lon="6.9247481"><ele>2643.9</ele></trkpt>
      <trkpt lat="45.8858250" lon="6.9244383"><ele>2651.6</ele></trkpt>
      <trkpt lat="45.8856656" lon="6.9242784"><ele>2659.6</ele></trkpt>
      <trkpt lat="45.8856640" lon="6.9240603"><ele>2670.4</ele></trkpt>
      <trkpt lat="45.8856886" lon="6.9236888"><ele>2681.0</ele></trkpt>
      <trkpt lat="45.8856694" lon="6.9236578"><ele>2691.5</ele></trkpt>
      <trkpt lat="45.8856464" lon="6.9235747"><ele>2700.9</ele></trkpt>
      <trkpt lat="45.8855008" lon="6.9232663"><ele>2712.7</ele></trkpt>
      <trkpt lat="45.8854560" lon="6.9231794"><ele>2723.6</ele></trkpt>
      <trkpt lat="45.8854908" lon="6.9230307"><ele>2734.4</ele></trkpt>
      <trkpt lat="45.8854883" lon="6.9229973"><ele>2745.0</ele></trkpt>
      <trkpt lat="45.8854547" lon="6.9226136"><ele>2755.8</ele></trkpt>
      <trkpt lat="45.8854512" lon="6.9226053"><ele>2763.7</ele></trkpt>
      <trkpt lat="45.8853056" lon="6.9222784"><ele>2772.1</ele></trkpt>
      <trkpt lat="45.8852926" lon="6.9222677"><ele>2780.2</ele></trkpt>
      <trkpt lat="45.8850526" lon="6.9220727"><ele>2790.1</ele></trkpt>
      <trkpt lat="45.8849604" lon="6.9219896"><ele>2797.3</ele></trkpt>
      <trkpt lat="45.8847286" lon="6.9217730"><ele>2805.2</ele></trkpt>
      <trkpt lat="45.8845006" lon="6.9215670"><ele>2812.5</ele></trkpt>
      <trkpt lat="45.8842580" lon="6.9214360"><ele>2819.9</ele></trkpt>
      <trkpt lat="45.8842423" lon="6.9213623"><ele>2828.2</ele></trkpt>
      <trkpt lat="45.8841836" lon="6.9209854"><ele>2837.2</ele></trkpt>
      <trkpt lat="45.8841263" lon="6.9206070"><ele>2845.5</ele></trkpt>
      <trkpt lat="45.8841442" lon="6.9205461"><ele>2854.2</ele></trkpt>
      <trkpt lat="45.8842424" lon="6.9201752"><ele>2861.6</ele></trkpt>
      <trkpt lat="45.8842984" lon="6.9199122"><ele>2870.3</ele></trkpt>
      <trkpt lat="45.8843727" lon="6.9197141"><ele>2879.0</ele></trkpt>
      <trkpt lat="45.8845031" lon="6.9193632"><ele>2887.5</ele></trkpt>
      <trkpt lat="45.8845401" lon="6.9192092"><ele>2897.3</ele></trkpt>
      <trkpt lat="45.8846293" lon="6.9188448"><ele>2905.5</ele></trkpt>
      <trkpt lat="45.8846939" lon="6.9186898"><ele>2914.5</ele></trkpt>
      <trkpt lat="45.8847366" lon="6.9184452"><ele>2924.2</ele></trkpt>
      <trkpt lat="45.8848218" lon="6.9182681"><ele>2932.9</ele></trkpt>
      <trkpt lat="45.8848222" lon="6.9182660"><ele>2943.2</ele></trkpt>
      <trkpt lat="45.8849173" lon="6.9178988"><ele>2952.5</ele></trkpt>
      <trkpt lat="45.8848140" lon="6.9176813"><ele>2963.1</ele></trkpt>
      <trkpt lat="45.8848011" lon="6.9176213"><ele>2974.6</ele></trkpt>
      <trkpt lat="45.8847281" lon="6.9172425"><ele>2986.0</ele></trkpt>
      <trkpt lat="45.8848032" lon="6.9171830"><ele>2999.4</ele></trkpt>
      <trkpt lat="45.8850386" lon="6.9169801"><ele>3013.8</ele></trkpt>
      <trkpt lat="45.8852824" lon="6.9167848"><ele>3028.1</ele></trkpt>
      <trkpt lat="45.8853942" lon="6.9166538"><ele>3045.8</ele></trkpt>
      <trkpt lat="45.8856023" lon="6.9164041"><ele>3059.9</ele></trkpt>
      <trkpt lat="45.8858152" lon="6.9161646"><ele>3073.7</ele></trkpt>
      <trkpt lat="45.8860262" lon="6.9159044"><ele>3087.3</ele></trkpt>
      <trkpt lat="45.8861167" lon="6.9156558"><ele>3099.8</ele></trkpt>
      <trkpt lat="45.8861578" lon="6.9155857"><ele>3111.0</ele></trkpt>
      <trkpt lat="45.8861920" lon="6.9155737"><ele>3122.6</ele></trkpt>
      <trkpt lat="45.8864620" lon="6.9154762"><ele>3131.4</ele></trkpt>
      <trkpt lat="45.8865353" lon="6.9154049"><ele>3140.0</ele></trkpt>
      <trkpt lat="45.8865389" lon="6.9153961"><ele>3144.9</ele></trkpt>
      <trkpt lat="45.8866877" lon="6.9150793"><ele>3152.6</ele></trkpt>
      <trkpt lat="45.8866798" lon="6.9149070"><ele>3161.8</ele></trkpt>
      <trkpt lat="45.8866640" lon="6.9145204"><ele>3169.4</ele></trkpt>
      <trkpt lat="45.8866664" lon="6.9145073"><ele>3178.4</ele></trkpt>
      <trkpt lat="45.8867448" lon="6.9141387"><ele>3188.6</ele></trkpt>
      <trkpt lat="45.8868264" lon="6.9137833"><ele>3198.6</ele></trkpt>
      <trkpt lat="45.8868529" lon="6.9137185"><ele>3209.8</ele></trkpt>
      <trkpt lat="45.8869743" lon="6.9133952"><ele>3219.7</ele></trkpt>
      <trkpt lat="45.8871597" lon="6.9132662"><ele>3231.4</ele></trkpt>
      <trkpt lat="45.8874028" lon="6.9131033"><ele>3243.9</ele></trkpt>
      <trkpt lat="45.8875388" lon="6.9128714"><ele>3256.4</ele></trkpt>
      <trkpt lat="45.8875471" lon="6.9128290"><ele>3268.5</ele></trkpt>
      <trkpt lat="45.8876189" lon="6.9124496"><ele>3279.2</ele></trkpt>
      <trkpt lat="45.8876770" lon="6.9120754"><ele>3289.4</ele></trkpt>
      <trkpt lat="45.8877293" lon="6.9116945"><ele>3298.2</ele></trkpt>
      <trkpt lat="45.8877314" lon="6.9116883"><ele>3306.0</ele></trkpt>
      <trkpt lat="45.8878383" lon="6.9113330"><ele>3315.2</ele></trkpt>
      <trkpt lat="45.8877959" lon="6.9110219"><ele>3322.6</ele></trkpt>
      <trkpt lat="45.8877446" lon="6.9106378"><ele>3329.4</ele></trkpt>
      <trkpt lat="45.8877737" lon="6.9105991"><ele>3335.2</ele></trkpt>
      <trkpt lat="45.8879738" lon="6.9103251"><ele>3341.6</ele></trkpt>
      <trkpt lat="45.8879977" lon="6.9102778"><ele>3349.0</ele></trkpt>
      <trkpt lat="45.8881578" lon="6.9099798"><ele>3355.5</ele></trkpt>
      <trkpt lat="45.8881983" lon="6.9097085"><ele>3362.9</ele></trkpt>
      <trkpt lat="45.8882433" lon="6.9095726"><ele>3370.0</ele></trkpt>
      <trkpt lat="45.8883457" lon="6.9092238"><ele>3376.8</ele></trkpt>
      <trkpt lat="45.8884015" lon="6.9089698"><ele>3384.5</ele></trkpt>
      <trkpt lat="45.8884882" lon="6.9086217"><ele>3391.6</ele></trkpt>
      <trkpt lat="45.8884899" lon="6.9086093"><ele>3398.2</ele></trkpt>
      <trkpt lat="45.8885562" lon="6.9082231"><ele>3406.1</ele></trkpt>
      <trkpt lat="45.8886148" lon="6.9078490"><ele>3414.1</ele></trkpt>
      <trkpt lat="45.8887110" lon="6.9077167"><ele>3422.8</ele></trkpt>
      <trkpt lat="45.8887758" lon="6.9077078"><ele>3430.3</ele></trkpt>
      <trkpt lat="45.8890432" lon="6.9076539"><ele>3440.2</ele></trkpt>
      <trkpt lat="45.8893099" lon="6.9076105"><ele>3449.8</ele></trkpt>
      <trkpt lat="45.8895060" lon="6.9074644"><ele>3460.3</ele></trkpt>
      <trkpt lat="45.8895578" lon="6.9074619"><ele>3470.5</ele></trkpt>
      <trkpt lat="45.8898307" lon="6.9074645"><ele>3483.6</ele></trkpt>
      <trkpt lat="45.8898692" lon="6.9073485"><ele>3495.8</ele></trkpt>
      <trkpt lat="45.8899787" lon="6.9070000"><ele>3507.9</ele></trkpt>
      <trkpt lat="45.8900016" lon="6.9069224"><ele>3520.6</ele></trkpt>
      <trkpt lat="45.8901087" lon="6.9065618"><ele>3534.5</ele></trkpt>
      <trkpt lat="45.8902044" lon="6.9065259"><ele>3548.5</ele></trkpt>
      <trkpt lat="45.8904654" lon="6.9064308"><ele>3562.2</ele></trkpt>
      <trkpt lat="45.8906338" lon="6.9065061"><ele>3574.5</ele></trkpt>
      <trkpt lat="45.8908911" lon="6.9066226"><ele>3587.2</ele></trkpt>
      <trkpt lat="45.8911583" lon="6.9067487"><ele>3601.7</ele></trkpt>
      <trkpt lat="45.8911863" lon="6.9067545"><ele>3608.6</ele></trkpt>
      <trkpt lat="45.8914646" lon="6.9068027"><ele>3615.1</ele></trkpt>
      <trkpt lat="45.8915114" lon="6.9068815"><ele>3621.8</ele></trkpt>
      <trkpt lat="45.8916836" lon="6.9071862"><ele>3628.2</ele></trkpt>
    </trkseg>
  </trk>
</gpx>