<?xml version="1.0" encoding="UTF-8"?>
<gpx version="1.1" creator="AlpHD-batch" xmlns="http://www.topografix.com/GPX/1/1">
  <trk>
    <name>Arêtes de Rochefort en AR </name>
    <trkseg>
      <trkpt lat="45.8453843" lon="6.9335216"><ele>3368.5</ele></trkpt>
      <trkpt lat="45.8456269" lon="6.9334023"><ele>3366.8</ele></trkpt>
      <trkpt lat="45.8458944" lon="6.9332843"><ele>3365.2</ele></trkpt>
      <trkpt lat="45.8461612" lon="6.9333239"><ele>3363.8</ele></trkpt>
      <trkpt lat="45.8464169" lon="6.9333955"><ele>3362.4</ele></trkpt>
      <trkpt lat="45.8466842" lon="6.9334590"><ele>3358.7</ele></trkpt>
      <trkpt lat="45.8469430" lon="6.9335120"><ele>3356.0</ele></trkpt>
      <trkpt lat="45.8472096" lon="6.9335653"><ele>3354.0</ele></trkpt>
      <trkpt lat="45.8473643" lon="6.9338210"><ele>3351.9</ele></trkpt>
      <trkpt lat="45.8475364" lon="6.9341189"><ele>3349.6</ele></trkpt>
      <trkpt lat="45.8475449" lon="6.9341289"><ele>3347.6</ele></trkpt>
      <trkpt lat="45.8477636" lon="6.9343468"><ele>3345.6</ele></trkpt>
      <trkpt lat="45.8479805" lon="6.9345684"><ele>3343.4</ele></trkpt>
      <trkpt lat="45.8481885" lon="6.9347793"><ele>3341.2</ele></trkpt>
      <trkpt lat="45.8482233" lon="6.9347980"><ele>3339.0</ele></trkpt>
      <trkpt lat="45.8484579" lon="6.9349788"><ele>3336.6</ele></trkpt>
      <trkpt lat="45.8487005" lon="6.9351801"><ele>3334.0</ele></trkpt>
      <trkpt lat="45.8489448" lon="6.9353718"><ele>3331.6</ele></trkpt>
      <trkpt lat="45.8491688" lon="6.9355532"><ele>3329.4</ele></trkpt>
      <trkpt lat="45.8494022" lon="6.9357193"><ele>3327.0</ele></trkpt>
      <trkpt lat="45.8496507" lon="6.9359079"><ele>3324.7</ele></trkpt>
      <trkpt lat="45.8496830" lon="6.9359231"><ele>3322.3</ele></trkpt>
      <trkpt lat="45.8499369" lon="6.9360594"><ele>3320.0</ele></trkpt>
      <trkpt lat="45.8501903" lon="6.9361998"><ele>3317.7</ele></trkpt>
      <trkpt lat="45.8504334" lon="6.9363428"><ele>3315.4</ele></trkpt>
      <trkpt lat="45.8506819" lon="6.9364929"><ele>3313.3</ele></trkpt>
      <trkpt lat="45.8509317" lon="6.9366205"><ele>3311.3</ele></trkpt>
      <trkpt lat="45.8511836" lon="6.9367522"><ele>3309.6</ele></trkpt>
      <trkpt lat="45.8514363" lon="6.9368849"><ele>3308.2</ele></trkpt>
      <trkpt lat="45.8517084" lon="6.9370254"><ele>3307.3</ele></trkpt>
      <trkpt lat="45.8518082" lon="6.9371788"><ele>3307.3</ele></trkpt>
      <trkpt lat="45.8520119" lon="6.9374541"><ele>3308.2</ele></trkpt>
      <trkpt lat="45.8520244" lon="6.9374652"><ele>3309.9</ele></trkpt>
      <trkpt lat="45.8522544" lon="6.9376620"><ele>3312.5</ele></trkpt>
      <trkpt lat="45.8524827" lon="6.9378734"><ele>3315.7</ele></trkpt>
      <trkpt lat="45.8527027" lon="6.9380852"><ele>3319.8</ele></trkpt>
      <trkpt lat="45.8529283" lon="6.9383009"><ele>3324.3</ele></trkpt>
      <trkpt lat="45.8531445" lon="6.9385345"><ele>3329.6</ele></trkpt>
      <trkpt lat="45.8531888" lon="6.9387408"><ele>3335.4</ele></trkpt>
      <trkpt lat="45.8532441" lon="6.9391102"><ele>3340.7</ele></trkpt>
      <trkpt lat="45.8532986" lon="6.9394823"><ele>3345.5</ele></trkpt>
      <trkpt lat="45.8533396" lon="6.9398521"><ele>3349.9</ele></trkpt>
      <trkpt lat="45.8533922" lon="6.9402558"><ele>3353.9</ele></trkpt>
      <trkpt lat="45.8534300" lon="6.9403458"><ele>3357.4</ele></trkpt>
      <trkpt lat="45.8535622" lon="6.9406882"><ele>3360.3</ele></trkpt>
      <trkpt lat="45.8536972" lon="6.9410409"><ele>3362.5</ele></trkpt>
      <trkpt lat="45.8538311" lon="6.9413783"><ele>3364.1</ele></trkpt>
      <trkpt lat="45.8539646" lon="6.9417132"><ele>3365.0</ele></trkpt>
      <trkpt lat="45.8540995" lon="6.9420574"><ele>3366.1</ele></trkpt>
      <trkpt lat="45.8542242" lon="6.9423924"><ele>3367.2</ele></trkpt>
      <trkpt lat="45.8543593" lon="6.9427349"><ele>3368.3</ele></trkpt>
      <trkpt lat="45.8544942" lon="6.9430693"><ele>3369.8</ele></trkpt>
      <trkpt lat="45.8546327" lon="6.9434097"><ele>3371.9</ele></trkpt>
      <trkpt lat="45.8547729" lon="6.9437442"><ele>3374.5</ele></trkpt>
      <trkpt lat="45.8548571" lon="6.9438479"><ele>3377.7</ele></trkpt>
      <trkpt lat="45.8550573" lon="6.9441134"><ele>3381.4</ele></trkpt>
      <trkpt lat="45.8552607" lon="6.9443759"><ele>3385.6</ele></trkpt>
      <trkpt lat="45.8554686" lon="6.9446475"><ele>3390.3</ele></trkpt>
      <trkpt lat="45.8556707" lon="6.9449041"><ele>3395.4</ele></trkpt>
      <trkpt lat="45.8558744" lon="6.9451621"><ele>3401.1</ele></trkpt>
      <trkpt lat="45.8560761" lon="6.9454184"><ele>3407.0</ele></trkpt>
      <trkpt lat="45.8562765" lon="6.9456744"><ele>3412.5</ele></trkpt>
      <trkpt lat="45.8564775" lon="6.9459303"><ele>3418.6</ele></trkpt>
      <trkpt lat="45.8566801" lon="6.9461885"><ele>3425.1</ele></trkpt>
      <trkpt lat="45.8568855" lon="6.9464484"><ele>3432.2</ele></trkpt>
      <trkpt lat="45.8569314" lon="6.9465403"><ele>3439.5</ele></trkpt>
      <trkpt lat="45.8570862" lon="6.9468615"><ele>3447.7</ele></trkpt>
      <trkpt lat="45.8572338" lon="6.9471734"><ele>3456.4</ele></trkpt>
      <trkpt lat="45.8573771" lon="6.9474757"><ele>3465.8</ele></trkpt>
      <trkpt lat="45.8575769" lon="6.9475505"><ele>3475.7</ele></trkpt>
      <trkpt lat="45.8578681" lon="6.9476301"><ele>3485.6</ele></trkpt>
      <trkpt lat="45.8581232" lon="6.9477077"><ele>3495.7</ele></trkpt>
      <trkpt lat="45.8583876" lon="6.9477911"><ele>3506.1</ele></trkpt>
      <trkpt lat="45.8586543" lon="6.9478476"><ele>3516.3</ele></trkpt>
      <trkpt lat="45.8587180" lon="6.9478877"><ele>3527.6</ele></trkpt>
      <trkpt lat="45.8589543" lon="6.9480342"><ele>3539.8</ele></trkpt>
      <trkpt lat="45.8592100" lon="6.9482005"><ele>3553.1</ele></trkpt>
      <trkpt lat="45.8593043" lon="6.9482384"><ele>3567.1</ele></trkpt>
      <trkpt lat="45.8595558" lon="6.9483291"><ele>3582.1</ele></trkpt>
      <trkpt lat="45.8598200" lon="6.9484395"><ele>3599.9</ele></trkpt>
      <trkpt lat="45.8600720" lon="6.9485690"><ele>3619.0</ele></trkpt>
      <trkpt lat="45.8603171" lon="6.9486567"><ele>3639.8</ele></trkpt>
      <trkpt lat="45.8602906" lon="6.9490248"><ele>3661.0</ele></trkpt>
      <trkpt lat="45.8602505" lon="6.9494084"><ele>3682.6</ele></trkpt>
      <trkpt lat="45.8602099" lon="6.9497735"><ele>3705.8</ele></trkpt>
      <trkpt lat="45.8601895" lon="6.9501626"><ele>3727.4</ele></trkpt>
      <trkpt lat="45.8602335" lon="6.9502977"><ele>3748.2</ele></trkpt>
      <trkpt lat="45.8603458" lon="6.9506389"><ele>3767.4</ele></trkpt>
      <trkpt lat="45.8604896" lon="6.9509721"><ele>3784.8</ele></trkpt>
      <trkpt lat="45.8605796" lon="6.9510557"><ele>3800.5</ele></trkpt>
      <trkpt lat="45.8608047" lon="6.9512741"><ele>3813.9</ele></trkpt>
      <trkpt lat="45.8608514" lon="6.9514369"><ele>3826.6</ele></trkpt>
      <trkpt lat="45.8609501" lon="6.9518117"><ele>3837.1</ele></trkpt>
      <trkpt lat="45.8611872" lon="6.9517777"><ele>3843.8</ele></trkpt>
      <trkpt lat="45.8614315" lon="6.9517766"><ele>3849.7</ele></trkpt>
      <trkpt lat="45.8614524" lon="6.9519035"><ele>3854.3</ele></trkpt>
      <trkpt lat="45.8614904" lon="6.9522730"><ele>3858.2</ele></trkpt>
      <trkpt lat="45.8614841" lon="6.9522864"><ele>3860.5</ele></trkpt>
      <trkpt lat="45.8613490" lon="6.9526260"><ele>3862.1</ele></trkpt>
      <trkpt lat="45.8613474" lon="6.9526444"><ele>3862.7</ele></trkpt>
      <trkpt lat="45.8613112" lon="6.9530335"><ele>3863.1</ele></trkpt>
      <trkpt lat="45.8612883" lon="6.9534028"><ele>3863.4</ele></trkpt>
      <trkpt lat="45.8612604" lon="6.9537902"><ele>3863.9</ele></trkpt>
      <trkpt lat="45.8612321" lon="6.9541889"><ele>3864.8</ele></trkpt>
      <trkpt lat="45.8612131" lon="6.9545414"><ele>3865.8</ele></trkpt>
      <trkpt lat="45.8611912" lon="6.9549497"><ele>3867.7</ele></trkpt>
      <trkpt lat="45.8611690" lon="6.9553310"><ele>3871.0</ele></trkpt>
      <trkpt lat="45.8611434" lon="6.9557386"><ele>3875.0</ele></trkpt>
      <trkpt lat="45.8611307" lon="6.9558251"><ele>3879.9</ele></trkpt>
      <trkpt lat="45.8610598" lon="6.9561882"><ele>3883.8</ele></trkpt>
      <trkpt lat="45.8609870" lon="6.9565647"><ele>3886.1</ele></trkpt>
      <trkpt lat="45.8609205" lon="6.9569323"><ele>3888.3</ele></trkpt>
      <trkpt lat="45.8608505" lon="6.9573049"><ele>3890.8</ele></trkpt>
      <trkpt lat="45.8609754" lon="6.9574754"><ele>3894.7</ele></trkpt>
      <trkpt lat="45.8611582" lon="6.9577455"><ele>3898.9</ele></trkpt>
      <trkpt lat="45.8613485" lon="6.9580173"><ele>3903.8</ele></trkpt>
      <trkpt lat="45.8614010" lon="6.9581592"><ele>3909.2</ele></trkpt>
      <trkpt lat="45.8615107" lon="6.9585150"><ele>3913.4</ele></trkpt>
      <trkpt lat="45.8616098" lon="6.9588516"><ele>3918.7</ele></trkpt>
      <trkpt lat="45.8617279" lon="6.9592109"><ele>3924.7</ele></trkpt>
      <trkpt lat="45.8618377" lon="6.9595772"><ele>3930.1</ele></trkpt>
      <trkpt lat="45.8619115" lon="6.9596497"><ele>3934.5</ele></trkpt>
      <trkpt lat="45.8621190" lon="6.9598197"><ele>3937.0</ele></trkpt>
      <trkpt lat="45.8623451" lon="6.9600133"><ele>3938.1</ele></trkpt>
      <trkpt lat="45.8625771" lon="6.9602111"><ele>3937.1</ele></trkpt>
      <trkpt lat="45.8628104" lon="6.9604024"><ele>3934.2</ele></trkpt>
      <trkpt lat="45.8630441" lon="6.9605943"><ele>3931.2</ele></trkpt>
      <trkpt lat="45.8630621" lon="6.9607111"><ele>3927.4</ele></trkpt>
      <trkpt lat="45.8631197" lon="6.9610855"><ele>3923.7</ele></trkpt>
      <trkpt lat="45.8631768" lon="6.9614620"><ele>3920.1</ele></trkpt>
      <trkpt lat="45.8632340" lon="6.9618386"><ele>3916.5</ele></trkpt>
      <trkpt lat="45.8632910" lon="6.9622158"><ele>3913.3</ele></trkpt>
      <trkpt lat="45.8633572" lon="6.9626151"><ele>3910.0</ele></trkpt>
      <trkpt lat="45.8634191" lon="6.9630034"><ele>3907.1</ele></trkpt>
      <trkpt lat="45.8634748" lon="6.9633825"><ele>3904.3</ele></trkpt>
      <trkpt lat="45.8635153" lon="6.9635205"><ele>3901.8</ele></trkpt>
      <trkpt lat="45.8636202" lon="6.9638775"><ele>3899.6</ele></trkpt>
      <trkpt lat="45.8637250" lon="6.9642345"><ele>3897.7</ele></trkpt>
      <trkpt lat="45.8638298" lon="6.9645915"><ele>3896.2</ele></trkpt>
      <trkpt lat="45.8639346" lon="6.9649485"><ele>3895.5</ele></trkpt>
      <trkpt lat="45.8640395" lon="6.9653055"><ele>3895.2</ele></trkpt>
      <trkpt lat="45.8641443" lon="6.9656625"><ele>3895.4</ele></trkpt>
      <trkpt lat="45.8641362" lon="6.9656269"><ele>3896.2</ele></trkpt>
      <trkpt lat="45.8640523" lon="6.9652587"><ele>3897.5</ele></trkpt>
      <trkpt lat="45.8639685" lon="6.9648904"><ele>3898.4</ele></trkpt>
      <trkpt lat="45.8638846" lon="6.9645222"><ele>3898.5</ele></trkpt>
      <trkpt lat="45.8638008" lon="6.9641539"><ele>3899.0</ele></trkpt>
      <trkpt lat="45.8637169" lon="6.9637857"><ele>3899.8</ele></trkpt>
      <trkpt lat="45.8637629" lon="6.9635501"><ele>3900.9</ele></trkpt>
      <trkpt lat="45.8638356" lon="6.9631770"><ele>3902.5</ele></trkpt>
      <trkpt lat="45.8637339" lon="6.9629208"><ele>3904.6</ele></trkpt>
      <trkpt lat="45.8636002" lon="6.9625842"><ele>3907.2</ele></trkpt>
      <trkpt lat="45.8635346" lon="6.9622375"><ele>3909.5</ele></trkpt>
      <trkpt lat="45.8634572" lon="6.9618438"><ele>3913.3</ele></trkpt>
      <trkpt lat="45.8633909" lon="6.9614703"><ele>3919.0</ele></trkpt>
      <trkpt lat="45.8633246" lon="6.9610969"><ele>3925.3</ele></trkpt>
      <trkpt lat="45.8633127" lon="6.9610768"><ele>3932.3</ele></trkpt>
      <trkpt lat="45.8631384" lon="6.9607824"><ele>3939.7</ele></trkpt>
      <trkpt lat="45.8629640" lon="6.9604891"><ele>3946.8</ele></trkpt>
      <trkpt lat="45.8627897" lon="6.9601975"><ele>3954.0</ele></trkpt>
      <trkpt lat="45.8625634" lon="6.9601752"><ele>3957.3</ele></trkpt>
      <trkpt lat="45.8622991" lon="6.9601477"><ele>3961.4</ele></trkpt>
      <trkpt lat="45.8622930" lon="6.9600748"><ele>3965.6</ele></trkpt>
      <trkpt lat="45.8622076" lon="6.9600301"><ele>3969.7</ele></trkpt>
    </trkseg>
  </trk>
</gpx>