<?xml version="1.0" encoding="UTF-8"?>
<gpx version="1.1" creator="AlpHD" xmlns="http://www.topografix.com/GPX/1/1">
  <trk>
    <name>Aiguille du Tour — Voie normale Col Supérieur</name>
    <trkseg>
      <trkpt lat="46.00369001" lon="6.94693200"><ele>1483.2</ele></trkpt>
      <trkpt lat="46.00405001" lon="6.94761700"><ele>1486.0</ele></trkpt>
      <trkpt lat="46.00416501" lon="6.94748500"><ele>1485.8</ele></trkpt>
      <trkpt lat="46.00418001" lon="6.94738700"><ele>1485.8</ele></trkpt>
      <trkpt lat="46.00415001" lon="6.94725500"><ele>1485.6</ele></trkpt>
      <trkpt lat="46.00403501" lon="6.94718000"><ele>1485.8</ele></trkpt>
      <trkpt lat="46.00404201" lon="6.94711000"><ele>1485.8</ele></trkpt>
      <trkpt lat="46.00396201" lon="6.94715500"><ele>1486.4</ele></trkpt>
      <trkpt lat="46.00396501" lon="6.94732000"><ele>1487.6</ele></trkpt>
      <trkpt lat="46.00408001" lon="6.94734500"><ele>1490.4</ele></trkpt>
      <trkpt lat="46.00436201" lon="6.94779700"><ele>1495.8</ele></trkpt>
      <trkpt lat="46.00424501" lon="6.94776500"><ele>1495.6</ele></trkpt>
      <trkpt lat="46.00420001" lon="6.94795500"><ele>1496.2</ele></trkpt>
      <trkpt lat="46.00425001" lon="6.94881200"><ele>1503.6</ele></trkpt>
      <trkpt lat="46.00418201" lon="6.94924200"><ele>1509.8</ele></trkpt>
      <trkpt lat="46.00410001" lon="6.95153700"><ele>1539.4</ele></trkpt>
      <trkpt lat="46.00419501" lon="6.95203200"><ele>1546.8</ele></trkpt>
      <trkpt lat="46.00454501" lon="6.95300500"><ele>1562.0</ele></trkpt>
      <trkpt lat="46.00446701" lon="6.95344500"><ele>1568.4</ele></trkpt>
      <trkpt lat="46.00448501" lon="6.95371500"><ele>1574.2</ele></trkpt>
      <trkpt lat="46.00477701" lon="6.95446000"><ele>1587.6</ele></trkpt>
      <trkpt lat="46.00462201" lon="6.95484200"><ele>1591.4</ele></trkpt>
      <trkpt lat="46.00465501" lon="6.95499700"><ele>1593.2</ele></trkpt>
      <trkpt lat="46.00457201" lon="6.95567500"><ele>1597.4</ele></trkpt>
      <trkpt lat="46.00459001" lon="6.95584000"><ele>1598.4</ele></trkpt>
      <trkpt lat="46.00472001" lon="6.95610500"><ele>1601.6</ele></trkpt>
      <trkpt lat="46.00470201" lon="6.95634000"><ele>1602.4</ele></trkpt>
      <trkpt lat="46.00461001" lon="6.95658000"><ele>1603.4</ele></trkpt>
      <trkpt lat="46.00476701" lon="6.95686000"><ele>1604.6</ele></trkpt>
      <trkpt lat="46.00476701" lon="6.95703700"><ele>1605.8</ele></trkpt>
      <trkpt lat="46.00485201" lon="6.95718200"><ele>1607.2</ele></trkpt>
      <trkpt lat="46.00476701" lon="6.95730000"><ele>1609.4</ele></trkpt>
      <trkpt lat="46.00471201" lon="6.95755200"><ele>1617.6</ele></trkpt>
      <trkpt lat="46.00481701" lon="6.95736500"><ele>1623.0</ele></trkpt>
      <trkpt lat="46.00492001" lon="6.95738000"><ele>1626.6</ele></trkpt>
      <trkpt lat="46.00496501" lon="6.95758500"><ele>1638.2</ele></trkpt>
      <trkpt lat="46.00504001" lon="6.95763500"><ele>1641.8</ele></trkpt>
      <trkpt lat="46.00497201" lon="6.95785700"><ele>1653.4</ele></trkpt>
      <trkpt lat="46.00503501" lon="6.95799500"><ele>1658.6</ele></trkpt>
      <trkpt lat="46.00491001" lon="6.95841200"><ele>1668.0</ele></trkpt>
      <trkpt lat="46.00492501" lon="6.95881500"><ele>1690.4</ele></trkpt>
      <trkpt lat="46.00479701" lon="6.95929000"><ele>1704.4</ele></trkpt>
      <trkpt lat="46.00461001" lon="6.95969200"><ele>1712.4</ele></trkpt>
      <trkpt lat="46.00442001" lon="6.95974700"><ele>1714.0</ele></trkpt>
      <trkpt lat="46.00428001" lon="6.95997000"><ele>1721.4</ele></trkpt>
      <trkpt lat="46.00448501" lon="6.96006700"><ele>1730.0</ele></trkpt>
      <trkpt lat="46.00439001" lon="6.96015700"><ele>1734.4</ele></trkpt>
      <trkpt lat="46.00435501" lon="6.96058500"><ele>1744.8</ele></trkpt>
      <trkpt lat="46.00424001" lon="6.96074000"><ele>1751.4</ele></trkpt>
      <trkpt lat="46.00427001" lon="6.96082000"><ele>1757.6</ele></trkpt>
      <trkpt lat="46.00417001" lon="6.96099200"><ele>1760.4</ele></trkpt>
      <trkpt lat="46.00418001" lon="6.96114200"><ele>1768.8</ele></trkpt>
      <trkpt lat="46.00425001" lon="6.96114700"><ele>1771.0</ele></trkpt>
      <trkpt lat="46.00426001" lon="6.96124000"><ele>1775.6</ele></trkpt>
      <trkpt lat="46.00435301" lon="6.96129000"><ele>1779.2</ele></trkpt>
      <trkpt lat="46.00431701" lon="6.96134500"><ele>1781.4</ele></trkpt>
      <trkpt lat="46.00437001" lon="6.96136300"><ele>1783.8</ele></trkpt>
      <trkpt lat="46.00440701" lon="6.96152500"><ele>1792.2</ele></trkpt>
      <trkpt lat="46.00437501" lon="6.96177200"><ele>1802.6</ele></trkpt>
      <trkpt lat="46.00455201" lon="6.96174000"><ele>1809.6</ele></trkpt>
      <trkpt lat="46.00445001" lon="6.96198700"><ele>1818.2</ele></trkpt>
      <trkpt lat="46.00453701" lon="6.96200000"><ele>1822.4</ele></trkpt>
      <trkpt lat="46.00448501" lon="6.96233000"><ele>1835.6</ele></trkpt>
      <trkpt lat="46.00455201" lon="6.96248000"><ele>1844.4</ele></trkpt>
      <trkpt lat="46.00454001" lon="6.96280700"><ele>1857.2</ele></trkpt>
      <trkpt lat="46.00440701" lon="6.96280500"><ele>1859.2</ele></trkpt>
      <trkpt lat="46.00437501" lon="6.96297500"><ele>1877.0</ele></trkpt>
      <trkpt lat="46.00423501" lon="6.96295500"><ele>1883.0</ele></trkpt>
      <trkpt lat="46.00424201" lon="6.96303500"><ele>1886.6</ele></trkpt>
      <trkpt lat="46.00416501" lon="6.96311200"><ele>1894.0</ele></trkpt>
      <trkpt lat="46.00406501" lon="6.96304000"><ele>1896.8</ele></trkpt>
      <trkpt lat="46.00408501" lon="6.96325000"><ele>1909.2</ele></trkpt>
      <trkpt lat="46.00417701" lon="6.96340000"><ele>1917.6</ele></trkpt>
      <trkpt lat="46.00393501" lon="6.96338700"><ele>1924.4</ele></trkpt>
      <trkpt lat="46.00383701" lon="6.96347500"><ele>1933.0</ele></trkpt>
      <trkpt lat="46.00379001" lon="6.96364000"><ele>1939.2</ele></trkpt>
      <trkpt lat="46.00360201" lon="6.96367000"><ele>1942.4</ele></trkpt>
      <trkpt lat="46.00364501" lon="6.96376200"><ele>1947.2</ele></trkpt>
      <trkpt lat="46.00347701" lon="6.96411500"><ele>1960.6</ele></trkpt>
      <trkpt lat="46.00330701" lon="6.96424000"><ele>1964.0</ele></trkpt>
      <trkpt lat="46.00319701" lon="6.96449200"><ele>1970.6</ele></trkpt>
      <trkpt lat="46.00317001" lon="6.96507500"><ele>1972.8</ele></trkpt>
      <trkpt lat="46.00287501" lon="6.96558500"><ele>1969.2</ele></trkpt>
      <trkpt lat="46.00284501" lon="6.96581200"><ele>1972.6</ele></trkpt>
      <trkpt lat="46.00235001" lon="6.96638500"><ele>1979.4</ele></trkpt>
      <trkpt lat="46.00233001" lon="6.96673000"><ele>1988.8</ele></trkpt>
      <trkpt lat="46.00223701" lon="6.96688000"><ele>1991.6</ele></trkpt>
      <trkpt lat="46.00216001" lon="6.96683500"><ele>1993.2</ele></trkpt>
      <trkpt lat="46.00215201" lon="6.96710000"><ele>2002.6</ele></trkpt>
      <trkpt lat="46.00184501" lon="6.96719700"><ele>2018.0</ele></trkpt>
      <trkpt lat="46.00182501" lon="6.96742000"><ele>2025.0</ele></trkpt>
      <trkpt lat="46.00187001" lon="6.96751500"><ele>2029.8</ele></trkpt>
      <trkpt lat="46.00180701" lon="6.96757000"><ele>2032.8</ele></trkpt>
      <trkpt lat="46.00181701" lon="6.96771500"><ele>2041.8</ele></trkpt>
      <trkpt lat="46.00172001" lon="6.96806500"><ele>2054.4</ele></trkpt>
      <trkpt lat="46.00177001" lon="6.96838000"><ele>2066.6</ele></trkpt>
      <trkpt lat="46.00169201" lon="6.96875500"><ele>2083.0</ele></trkpt>
      <trkpt lat="46.00183001" lon="6.96907500"><ele>2098.4</ele></trkpt>
      <trkpt lat="46.00177001" lon="6.96935200"><ele>2109.8</ele></trkpt>
      <trkpt lat="46.00180001" lon="6.96966200"><ele>2124.2</ele></trkpt>
      <trkpt lat="46.00175001" lon="6.96975500"><ele>2128.0</ele></trkpt>
      <trkpt lat="46.00180201" lon="6.96979000"><ele>2129.0</ele></trkpt>
      <trkpt lat="46.00174501" lon="6.97020000"><ele>2144.6</ele></trkpt>
      <trkpt lat="46.00163501" lon="6.97032200"><ele>2152.6</ele></trkpt>
      <trkpt lat="46.00165501" lon="6.97057000"><ele>2161.8</ele></trkpt>
      <trkpt lat="46.00170501" lon="6.97064000"><ele>2165.6</ele></trkpt>
      <trkpt lat="46.00168701" lon="6.97105300"><ele>2181.8</ele></trkpt>
      <trkpt lat="46.00160501" lon="6.97139700"><ele>2196.2</ele></trkpt>
      <trkpt lat="46.00160001" lon="6.97159000"><ele>2206.2</ele></trkpt>
      <trkpt lat="46.00164701" lon="6.97164500"><ele>2206.8</ele></trkpt>
      <trkpt lat="46.00158501" lon="6.97187500"><ele>2216.6</ele></trkpt>
      <trkpt lat="46.00156701" lon="6.97244700"><ele>2237.2</ele></trkpt>
      <trkpt lat="46.00142701" lon="6.97304000"><ele>2260.6</ele></trkpt>
      <trkpt lat="46.00142501" lon="6.97399500"><ele>2292.8</ele></trkpt>
      <trkpt lat="46.00137001" lon="6.97418200"><ele>2295.2</ele></trkpt>
      <trkpt lat="46.00139001" lon="6.97436200"><ele>2302.6</ele></trkpt>
      <trkpt lat="46.00126501" lon="6.97520000"><ele>2327.4</ele></trkpt>
      <trkpt lat="46.00121501" lon="6.97600800"><ele>2354.6</ele></trkpt>
      <trkpt lat="46.00116001" lon="6.97612200"><ele>2358.8</ele></trkpt>
      <trkpt lat="46.00115501" lon="6.97648000"><ele>2371.6</ele></trkpt>
      <trkpt lat="46.00100201" lon="6.97682500"><ele>2385.6</ele></trkpt>
      <trkpt lat="46.00095701" lon="6.97713000"><ele>2397.2</ele></trkpt>
      <trkpt lat="46.00087701" lon="6.97722700"><ele>2400.2</ele></trkpt>
      <trkpt lat="46.00085501" lon="6.97759000"><ele>2411.6</ele></trkpt>
      <trkpt lat="46.00062501" lon="6.97811500"><ele>2427.8</ele></trkpt>
      <trkpt lat="46.00062501" lon="6.97827500"><ele>2432.8</ele></trkpt>
      <trkpt lat="46.00048701" lon="6.97864200"><ele>2440.8</ele></trkpt>
      <trkpt lat="46.00040001" lon="6.97912500"><ele>2451.2</ele></trkpt>
      <trkpt lat="46.00006701" lon="6.97984500"><ele>2473.0</ele></trkpt>
      <trkpt lat="45.99997501" lon="6.98017500"><ele>2481.2</ele></trkpt>
      <trkpt lat="45.99970501" lon="6.98069500"><ele>2497.6</ele></trkpt>
      <trkpt lat="45.99964501" lon="6.98094000"><ele>2504.6</ele></trkpt>
      <trkpt lat="45.99922801" lon="6.98139200"><ele>2527.6</ele></trkpt>
      <trkpt lat="45.99901501" lon="6.98183700"><ele>2543.2</ele></trkpt>
      <trkpt lat="45.99835001" lon="6.98366500"><ele>2595.4</ele></trkpt>
      <trkpt lat="45.99787001" lon="6.98467500"><ele>2619.8</ele></trkpt>
      <trkpt lat="45.99769201" lon="6.98489500"><ele>2626.2</ele></trkpt>
      <trkpt lat="45.99763001" lon="6.98514500"><ele>2632.4</ele></trkpt>
      <trkpt lat="45.99695501" lon="6.98586500"><ele>2660.2</ele></trkpt>
      <trkpt lat="45.99701001" lon="6.98601700"><ele>2666.4</ele></trkpt>
      <trkpt lat="45.99722501" lon="6.98613500"><ele>2673.0</ele></trkpt>
      <trkpt lat="45.99729701" lon="6.98636000"><ele>2679.6</ele></trkpt>
      <trkpt lat="45.99720701" lon="6.98646500"><ele>2686.2</ele></trkpt>
      <trkpt lat="45.99693201" lon="6.98655000"><ele>2702.2</ele></trkpt>
      <trkpt lat="45.99700701" lon="6.98662500"><ele>2704.4</ele></trkpt>
      <trkpt lat="45.99698201" lon="6.98675700"><ele>2707.6</ele></trkpt>
      <trkpt lat="45.99678501" lon="6.98676000"><ele>2707.4</ele></trkpt>
      <trkpt lat="45.99651501" lon="6.98688200"><ele>2706.2</ele></trkpt>
      <trkpt lat="45.99685701" lon="6.98676000"><ele>2708.0</ele></trkpt>
      <trkpt lat="45.99669501" lon="6.98692000"><ele>2710.8</ele></trkpt>
      <trkpt lat="45.99671501" lon="6.98709000"><ele>2717.0</ele></trkpt>
      <trkpt lat="45.99677001" lon="6.98711500"><ele>2719.8</ele></trkpt>
      <trkpt lat="45.99653001" lon="6.98730200"><ele>2720.8</ele></trkpt>
      <trkpt lat="45.99654201" lon="6.98743000"><ele>2722.0</ele></trkpt>
      <trkpt lat="45.99643501" lon="6.98757300"><ele>2724.2</ele></trkpt>
      <trkpt lat="45.99651201" lon="6.98771700"><ele>2730.4</ele></trkpt>
      <trkpt lat="45.99647701" lon="6.98801500"><ele>2733.8</ele></trkpt>
      <trkpt lat="45.99619001" lon="6.98826200"><ele>2735.0</ele></trkpt>
      <trkpt lat="45.99610001" lon="6.98862500"><ele>2739.4</ele></trkpt>
      <trkpt lat="45.99593501" lon="6.98883000"><ele>2741.6</ele></trkpt>
      <trkpt lat="45.99590201" lon="6.98905000"><ele>2744.6</ele></trkpt>
      <trkpt lat="45.99576501" lon="6.98921700"><ele>2749.6</ele></trkpt>
      <trkpt lat="45.99577201" lon="6.98947500"><ele>2752.6</ele></trkpt>
      <trkpt lat="45.99570001" lon="6.98958500"><ele>2754.0</ele></trkpt>
      <trkpt lat="45.99572001" lon="6.98988500"><ele>2757.4</ele></trkpt>
      <trkpt lat="45.99566201" lon="6.99002000"><ele>2761.2</ele></trkpt>
      <trkpt lat="45.99569501" lon="6.99078000"><ele>2765.6</ele></trkpt>
      <trkpt lat="45.99545501" lon="6.99113500"><ele>2762.0</ele></trkpt>
      <trkpt lat="45.99548001" lon="6.99136500"><ele>2760.8</ele></trkpt>
      <trkpt lat="45.99545001" lon="6.99135000"><ele>2758.6</ele></trkpt>
      <trkpt lat="45.99543001" lon="6.99162500"><ele>2751.8</ele></trkpt>
      <trkpt lat="45.99550501" lon="6.99211700"><ele>2748.8</ele></trkpt>
      <trkpt lat="45.99556001" lon="6.99213000"><ele>2751.2</ele></trkpt>
      <trkpt lat="45.99566001" lon="6.99258000"><ele>2756.2</ele></trkpt>
      <trkpt lat="45.99569501" lon="6.99291500"><ele>2758.6</ele></trkpt>
      <trkpt lat="45.99564501" lon="6.99301000"><ele>2761.0</ele></trkpt>
      <trkpt lat="45.99567201" lon="6.99279200"><ele>2760.6</ele></trkpt>
      <trkpt lat="45.99562301" lon="6.99251200"><ele>2756.2</ele></trkpt>
      <trkpt lat="45.99567201" lon="6.99259000"><ele>2758.0</ele></trkpt>
      <trkpt lat="45.99565501" lon="6.99285500"><ele>2758.8</ele></trkpt>
      <trkpt lat="45.99559701" lon="6.99298000"><ele>2761.4</ele></trkpt>
      <trkpt lat="45.99561001" lon="6.99319700"><ele>2763.0</ele></trkpt>
      <trkpt lat="45.99554501" lon="6.99342000"><ele>2765.4</ele></trkpt>
      <trkpt lat="45.99524001" lon="6.99371200"><ele>2765.6</ele></trkpt>
      <trkpt lat="45.99517001" lon="6.99389500"><ele>2764.4</ele></trkpt>
      <trkpt lat="45.99513701" lon="6.99380500"><ele>2764.4</ele></trkpt>
      <trkpt lat="45.99516001" lon="6.99390700"><ele>2763.8</ele></trkpt>
      <trkpt lat="45.99521201" lon="6.99392000"><ele>2764.0</ele></trkpt>
      <trkpt lat="45.99519801" lon="6.99405000"><ele>2764.4</ele></trkpt>
      <trkpt lat="45.99515001" lon="6.99389200"><ele>2764.2</ele></trkpt>
      <trkpt lat="45.99507001" lon="6.99418000"><ele>2765.8</ele></trkpt>
      <trkpt lat="45.99511701" lon="6.99447700"><ele>2772.8</ele></trkpt>
      <trkpt lat="45.99507501" lon="6.99457200"><ele>2773.4</ele></trkpt>
      <trkpt lat="45.99514501" lon="6.99489000"><ele>2779.0</ele></trkpt>
      <trkpt lat="45.99511501" lon="6.99505000"><ele>2782.6</ele></trkpt>
      <trkpt lat="45.99499001" lon="6.99519200"><ele>2787.0</ele></trkpt>
      <trkpt lat="45.99501801" lon="6.99530000"><ele>2791.0</ele></trkpt>
      <trkpt lat="45.99494501" lon="6.99541200"><ele>2803.0</ele></trkpt>
      <trkpt lat="45.99497001" lon="6.99554500"><ele>2803.4</ele></trkpt>
      <trkpt lat="45.99487001" lon="6.99558500"><ele>2805.2</ele></trkpt>
      <trkpt lat="45.99486501" lon="6.99572200"><ele>2814.2</ele></trkpt>
      <trkpt lat="45.99492701" lon="6.99604500"><ele>2822.0</ele></trkpt>
      <trkpt lat="45.99491201" lon="6.99625200"><ele>2831.4</ele></trkpt>
      <trkpt lat="45.99506701" lon="6.99648200"><ele>2835.2</ele></trkpt>
      <trkpt lat="45.99497301" lon="6.99672700"><ele>2844.8</ele></trkpt>
      <trkpt lat="45.99500001" lon="6.99698700"><ele>2853.2</ele></trkpt>
      <trkpt lat="45.99486701" lon="6.99702500"><ele>2857.2</ele></trkpt>
      <trkpt lat="45.99470501" lon="6.99730700"><ele>2874.8</ele></trkpt>
      <trkpt lat="45.99451701" lon="6.99744200"><ele>2887.8</ele></trkpt>
      <trkpt lat="45.99441301" lon="6.99746000"><ele>2901.2</ele></trkpt>
      <trkpt lat="45.99406201" lon="6.99726000"><ele>2904.8</ele></trkpt>
      <trkpt lat="45.99402001" lon="6.99729500"><ele>2906.2</ele></trkpt>
      <trkpt lat="45.99385201" lon="6.99757000"><ele>2903.0</ele></trkpt>
      <trkpt lat="45.99377501" lon="6.99807500"><ele>2891.2</ele></trkpt>
      <trkpt lat="45.99374201" lon="6.99808500"><ele>2891.0</ele></trkpt>
      <trkpt lat="45.99375001" lon="6.99802000"><ele>2892.4</ele></trkpt>
      <trkpt lat="45.99363201" lon="6.99836000"><ele>2898.6</ele></trkpt>
      <trkpt lat="45.99338801" lon="6.99858500"><ele>2908.8</ele></trkpt>
      <trkpt lat="45.99316301" lon="6.99903000"><ele>2917.8</ele></trkpt>
      <trkpt lat="45.99291301" lon="6.99914500"><ele>2920.8</ele></trkpt>
      <trkpt lat="45.99274501" lon="6.99941500"><ele>2926.8</ele></trkpt>
      <trkpt lat="45.99273001" lon="6.99958500"><ele>2929.8</ele></trkpt>
      <trkpt lat="45.99244701" lon="7.00041500"><ele>2953.4</ele></trkpt>
      <trkpt lat="45.99224001" lon="7.00087700"><ele>2969.6</ele></trkpt>
      <trkpt lat="45.99177701" lon="7.00109500"><ele>2982.2</ele></trkpt>
      <trkpt lat="45.99151201" lon="7.00155500"><ele>2996.4</ele></trkpt>
      <trkpt lat="45.99113201" lon="7.00200500"><ele>3017.0</ele></trkpt>
      <trkpt lat="45.99073001" lon="7.00227500"><ele>3027.6</ele></trkpt>
      <trkpt lat="45.99030201" lon="7.00239700"><ele>3038.4</ele></trkpt>
      <trkpt lat="45.99002701" lon="7.00240700"><ele>3043.0</ele></trkpt>
      <trkpt lat="45.98983001" lon="7.00233200"><ele>3046.4</ele></trkpt>
      <trkpt lat="45.98959701" lon="7.00239000"><ele>3056.0</ele></trkpt>
      <trkpt lat="45.98928501" lon="7.00284000"><ele>3069.4</ele></trkpt>
      <trkpt lat="45.98872201" lon="7.00340200"><ele>3085.2</ele></trkpt>
      <trkpt lat="45.98860001" lon="7.00366200"><ele>3083.0</ele></trkpt>
      <trkpt lat="45.98826701" lon="7.00379500"><ele>3079.4</ele></trkpt>
      <trkpt lat="45.98796501" lon="7.00432000"><ele>3084.2</ele></trkpt>
      <trkpt lat="45.98785701" lon="7.00499700"><ele>3092.8</ele></trkpt>
      <trkpt lat="45.98764501" lon="7.00578500"><ele>3097.2</ele></trkpt>
      <trkpt lat="45.98767001" lon="7.00617200"><ele>3100.2</ele></trkpt>
      <trkpt lat="45.98762501" lon="7.00680000"><ele>3103.0</ele></trkpt>
      <trkpt lat="45.98753501" lon="7.00708500"><ele>3103.4</ele></trkpt>
      <trkpt lat="45.98737501" lon="7.00805000"><ele>3117.8</ele></trkpt>
      <trkpt lat="45.98744501" lon="7.00879200"><ele>3141.2</ele></trkpt>
      <trkpt lat="45.98782501" lon="7.00972000"><ele>3174.6</ele></trkpt>
      <trkpt lat="45.98806001" lon="7.01006000"><ele>3189.8</ele></trkpt>
      <trkpt lat="45.98816501" lon="7.01060000"><ele>3212.6</ele></trkpt>
      <trkpt lat="45.98835201" lon="7.01097500"><ele>3228.8</ele></trkpt>
      <trkpt lat="45.98836001" lon="7.01124200"><ele>3242.8</ele></trkpt>
      <trkpt lat="45.98842201" lon="7.01142500"><ele>3255.4</ele></trkpt>
      <trkpt lat="45.98845701" lon="7.01132500"><ele>3260.0</ele></trkpt>
      <trkpt lat="45.98856501" lon="7.01164000"><ele>3281.4</ele></trkpt>
      <trkpt lat="45.98853201" lon="7.01186200"><ele>3294.0</ele></trkpt>
      <trkpt lat="45.98910201" lon="7.01236000"><ele>3290.0</ele></trkpt>
      <trkpt lat="45.98953001" lon="7.01258200"><ele>3294.2</ele></trkpt>
      <trkpt lat="45.99063501" lon="7.01342500"><ele>3316.6</ele></trkpt>
      <trkpt lat="45.99102501" lon="7.01381000"><ele>3323.0</ele></trkpt>
      <trkpt lat="45.99137001" lon="7.01398700"><ele>3335.4</ele></trkpt>
      <trkpt lat="45.99156201" lon="7.01395500"><ele>3345.4</ele></trkpt>
      <trkpt lat="45.99177001" lon="7.01379500"><ele>3362.0</ele></trkpt>
      <trkpt lat="45.99182201" lon="7.01364200"><ele>3368.6</ele></trkpt>
      <trkpt lat="45.99229501" lon="7.01317700"><ele>3387.0</ele></trkpt>
      <trkpt lat="45.99255801" lon="7.01277000"><ele>3391.8</ele></trkpt>
      <trkpt lat="45.99275801" lon="7.01257200"><ele>3397.2</ele></trkpt>
      <trkpt lat="45.99345501" lon="7.01219000"><ele>3416.0</ele></trkpt>
      <trkpt lat="45.99391701" lon="7.01175500"><ele>3426.0</ele></trkpt>
      <trkpt lat="45.99441001" lon="7.01156200"><ele>3431.8</ele></trkpt>
      <trkpt lat="45.99467001" lon="7.01157500"><ele>3440.8</ele></trkpt>
      <trkpt lat="45.99482501" lon="7.01148500"><ele>3446.2</ele></trkpt>
      <trkpt lat="45.99475001" lon="7.01131000"><ele>3454.6</ele></trkpt>
      <trkpt lat="45.99463001" lon="7.01121700"><ele>3452.6</ele></trkpt>
      <trkpt lat="45.99399201" lon="7.01109500"><ele>3464.2</ele></trkpt>
      <trkpt lat="45.99387701" lon="7.01084500"><ele>3481.8</ele></trkpt>
      <trkpt lat="45.99399701" lon="7.01064700"><ele>3495.4</ele></trkpt>
      <trkpt lat="45.99405501" lon="7.01074700"><ele>3495.8</ele></trkpt>
      <trkpt lat="45.99451001" lon="7.01048000"><ele>3522.8</ele></trkpt>
      <trkpt lat="45.99445001" lon="7.01034500"><ele>3537.4</ele></trkpt>
      <trkpt lat="45.99436701" lon="7.01031000"><ele>3542.4</ele></trkpt>
    </trkseg>
  </trk>
</gpx>