<?xml version="1.0" encoding="UTF-8"?>
<gpx version="1.1" creator="AlpHD-batch" xmlns="http://www.topografix.com/GPX/1/1">
  <trk>
    <name> Standard ascent</name>
    <trkseg>
      <trkpt lat="45.8529090" lon="6.9766500"><ele>2802.2</ele></trkpt>
      <trkpt lat="45.8528663" lon="6.9766495"><ele>2802.7</ele></trkpt>
      <trkpt lat="45.8525965" lon="6.9766460"><ele>2804.0</ele></trkpt>
      <trkpt lat="45.8526589" lon="6.9766995"><ele>2805.0</ele></trkpt>
      <trkpt lat="45.8528906" lon="6.9768979"><ele>2807.0</ele></trkpt>
      <trkpt lat="45.8529388" lon="6.9769619"><ele>2808.9</ele></trkpt>
      <trkpt lat="45.8531366" lon="6.9772252"><ele>2811.2</ele></trkpt>
      <trkpt lat="45.8532130" lon="6.9773816"><ele>2816.6</ele></trkpt>
      <trkpt lat="45.8533348" lon="6.9772656"><ele>2822.0</ele></trkpt>
      <trkpt lat="45.8534025" lon="6.9772152"><ele>2828.2</ele></trkpt>
      <trkpt lat="45.8534046" lon="6.9772114"><ele>2835.6</ele></trkpt>
      <trkpt lat="45.8535740" lon="6.9769098"><ele>2842.6</ele></trkpt>
      <trkpt lat="45.8535972" lon="6.9768713"><ele>2850.7</ele></trkpt>
      <trkpt lat="45.8537738" lon="6.9765783"><ele>2858.7</ele></trkpt>
      <trkpt lat="45.8540229" lon="6.9764959"><ele>2866.9</ele></trkpt>
      <trkpt lat="45.8540512" lon="6.9764672"><ele>2875.4</ele></trkpt>
      <trkpt lat="45.8542718" lon="6.9762442"><ele>2882.8</ele></trkpt>
      <trkpt lat="45.8544167" lon="6.9762434"><ele>2890.6</ele></trkpt>
      <trkpt lat="45.8545899" lon="6.9760846"><ele>2897.9</ele></trkpt>
      <trkpt lat="45.8546452" lon="6.9760725"><ele>2904.7</ele></trkpt>
      <trkpt lat="45.8547183" lon="6.9761489"><ele>2912.2</ele></trkpt>
      <trkpt lat="45.8547883" lon="6.9762897"><ele>2920.7</ele></trkpt>
      <trkpt lat="45.8549131" lon="6.9763946"><ele>2928.9</ele></trkpt>
      <trkpt lat="45.8550479" lon="6.9764150"><ele>2937.5</ele></trkpt>
      <trkpt lat="45.8551441" lon="6.9764397"><ele>2946.4</ele></trkpt>
      <trkpt lat="45.8554097" lon="6.9765078"><ele>2956.9</ele></trkpt>
      <trkpt lat="45.8554901" lon="6.9764553"><ele>2967.3</ele></trkpt>
      <trkpt lat="45.8556447" lon="6.9764609"><ele>2978.8</ele></trkpt>
      <trkpt lat="45.8557130" lon="6.9764025"><ele>2990.6</ele></trkpt>
      <trkpt lat="45.8559448" lon="6.9762042"><ele>3003.1</ele></trkpt>
      <trkpt lat="45.8560105" lon="6.9761948"><ele>3014.1</ele></trkpt>
      <trkpt lat="45.8562790" lon="6.9761567"><ele>3024.7</ele></trkpt>
      <trkpt lat="45.8564736" lon="6.9762637"><ele>3034.8</ele></trkpt>
      <trkpt lat="45.8567133" lon="6.9761852"><ele>3045.0</ele></trkpt>
      <trkpt lat="45.8569674" lon="6.9762384"><ele>3053.3</ele></trkpt>
      <trkpt lat="45.8570101" lon="6.9762576"><ele>3061.6</ele></trkpt>
      <trkpt lat="45.8572676" lon="6.9763735"><ele>3068.0</ele></trkpt>
      <trkpt lat="45.8575250" lon="6.9764895"><ele>3073.4</ele></trkpt>
      <trkpt lat="45.8575742" lon="6.9765002"><ele>3078.4</ele></trkpt>
      <trkpt lat="45.8576751" lon="6.9765364"><ele>3083.1</ele></trkpt>
      <trkpt lat="45.8577853" lon="6.9765382"><ele>3087.8</ele></trkpt>
      <trkpt lat="45.8578223" lon="6.9765417"><ele>3093.0</ele></trkpt>
      <trkpt lat="45.8580915" lon="6.9765672"><ele>3098.3</ele></trkpt>
      <trkpt lat="45.8581905" lon="6.9766075"><ele>3103.5</ele></trkpt>
      <trkpt lat="45.8581988" lon="6.9766162"><ele>3108.6</ele></trkpt>
      <trkpt lat="45.8582610" lon="6.9766431"><ele>3113.1</ele></trkpt>
      <trkpt lat="45.8584007" lon="6.9766877"><ele>3118.6</ele></trkpt>
      <trkpt lat="45.8584212" lon="6.9767094"><ele>3123.3</ele></trkpt>
      <trkpt lat="45.8584704" lon="6.9767291"><ele>3128.0</ele></trkpt>
      <trkpt lat="45.8584849" lon="6.9767385"><ele>3133.1</ele></trkpt>
      <trkpt lat="45.8587311" lon="6.9768971"><ele>3137.1</ele></trkpt>
      <trkpt lat="45.8588306" lon="6.9769104"><ele>3140.6</ele></trkpt>
      <trkpt lat="45.8589869" lon="6.9769946"><ele>3144.6</ele></trkpt>
      <trkpt lat="45.8591116" lon="6.9770325"><ele>3148.4</ele></trkpt>
      <trkpt lat="45.8591453" lon="6.9770447"><ele>3153.4</ele></trkpt>
      <trkpt lat="45.8592368" lon="6.9770536"><ele>3157.8</ele></trkpt>
      <trkpt lat="45.8593747" lon="6.9771092"><ele>3162.3</ele></trkpt>
      <trkpt lat="45.8593769" lon="6.9771107"><ele>3167.8</ele></trkpt>
      <trkpt lat="45.8596187" lon="6.9772827"><ele>3174.2</ele></trkpt>
      <trkpt lat="45.8597502" lon="6.9773225"><ele>3181.4</ele></trkpt>
      <trkpt lat="45.8598339" lon="6.9773514"><ele>3189.3</ele></trkpt>
      <trkpt lat="45.8600962" lon="6.9774422"><ele>3197.9</ele></trkpt>
      <trkpt lat="45.8600657" lon="6.9774219"><ele>3206.7</ele></trkpt>
      <trkpt lat="45.8600584" lon="6.9773961"><ele>3215.6</ele></trkpt>
      <trkpt lat="45.8601415" lon="6.9773143"><ele>3225.0</ele></trkpt>
      <trkpt lat="45.8602810" lon="6.9771523"><ele>3234.6</ele></trkpt>
      <trkpt lat="45.8603395" lon="6.9771383"><ele>3243.6</ele></trkpt>
      <trkpt lat="45.8606056" lon="6.9770746"><ele>3251.5</ele></trkpt>
      <trkpt lat="45.8608455" lon="6.9769959"><ele>3259.7</ele></trkpt>
      <trkpt lat="45.8610411" lon="6.9771092"><ele>3267.6</ele></trkpt>
      <trkpt lat="45.8610461" lon="6.9773820"><ele>3275.5</ele></trkpt>
      <trkpt lat="45.8610829" lon="6.9773724"><ele>3286.6</ele></trkpt>
      <trkpt lat="45.8613483" lon="6.9773029"><ele>3299.7</ele></trkpt>
      <trkpt lat="45.8614898" lon="6.9772866"><ele>3312.0</ele></trkpt>
      <trkpt lat="45.8615785" lon="6.9773089"><ele>3324.0</ele></trkpt>
      <trkpt lat="45.8618443" lon="6.9773758"><ele>3337.5</ele></trkpt>
      <trkpt lat="45.8621100" lon="6.9774426"><ele>3351.7</ele></trkpt>
      <trkpt lat="45.8621231" lon="6.9774405"><ele>3366.2</ele></trkpt>
      <trkpt lat="45.8621684" lon="6.9774359"><ele>3379.7</ele></trkpt>
      <trkpt lat="45.8624375" lon="6.9774080"><ele>3393.1</ele></trkpt>
      <trkpt lat="45.8626003" lon="6.9775252"><ele>3403.2</ele></trkpt>
      <trkpt lat="45.8628415" lon="6.9776989"><ele>3410.3</ele></trkpt>
      <trkpt lat="45.8628417" lon="6.9776993"><ele>3417.9</ele></trkpt>
      <trkpt lat="45.8630074" lon="6.9780050"><ele>3425.8</ele></trkpt>
      <trkpt lat="45.8630148" lon="6.9780109"><ele>3431.6</ele></trkpt>
      <trkpt lat="45.8631405" lon="6.9780851"><ele>3436.5</ele></trkpt>
      <trkpt lat="45.8632474" lon="6.9780910"><ele>3441.2</ele></trkpt>
      <trkpt lat="45.8634329" lon="6.9782505"><ele>3447.1</ele></trkpt>
      <trkpt lat="45.8634537" lon="6.9783950"><ele>3452.7</ele></trkpt>
      <trkpt lat="45.8634716" lon="6.9784092"><ele>3458.7</ele></trkpt>
      <trkpt lat="45.8635458" lon="6.9784455"><ele>3465.0</ele></trkpt>
      <trkpt lat="45.8635930" lon="6.9784758"><ele>3473.6</ele></trkpt>
      <trkpt lat="45.8635474" lon="6.9784987"><ele>3480.1</ele></trkpt>
      <trkpt lat="45.8635712" lon="6.9784974"><ele>3484.5</ele></trkpt>
      <trkpt lat="45.8635662" lon="6.9784848"><ele>3488.5</ele></trkpt>
      <trkpt lat="45.8637185" lon="6.9784692"><ele>3489.7</ele></trkpt>
      <trkpt lat="45.8637515" lon="6.9785070"><ele>3490.6</ele></trkpt>
      <trkpt lat="45.8635261" lon="6.9784362"><ele>3492.5</ele></trkpt>
      <trkpt lat="45.8634593" lon="6.9784270"><ele>3494.3</ele></trkpt>
      <trkpt lat="45.8631908" lon="6.9783902"><ele>3496.3</ele></trkpt>
      <trkpt lat="45.8633177" lon="6.9784263"><ele>3495.8</ele></trkpt>
      <trkpt lat="45.8635823" lon="6.9785016"><ele>3496.7</ele></trkpt>
      <trkpt lat="45.8636355" lon="6.9785315"><ele>3500.3</ele></trkpt>
      <trkpt lat="45.8637855" lon="6.9786103"><ele>3504.5</ele></trkpt>
      <trkpt lat="45.8637105" lon="6.9785728"><ele>3511.4</ele></trkpt>
      <trkpt lat="45.8637105" lon="6.9785784"><ele>3518.5</ele></trkpt>
      <trkpt lat="45.8637528" lon="6.9786360"><ele>3524.2</ele></trkpt>
      <trkpt lat="45.8637659" lon="6.9786400"><ele>3530.0</ele></trkpt>
      <trkpt lat="45.8638275" lon="6.9786592"><ele>3535.9</ele></trkpt>
      <trkpt lat="45.8639195" lon="6.9787098"><ele>3541.1</ele></trkpt>
      <trkpt lat="45.8639487" lon="6.9787192"><ele>3546.2</ele></trkpt>
      <trkpt lat="45.8640468" lon="6.9786772"><ele>3549.6</ele></trkpt>
      <trkpt lat="45.8641820" lon="6.9787301"><ele>3553.0</ele></trkpt>
      <trkpt lat="45.8642966" lon="6.9786840"><ele>3556.6</ele></trkpt>
      <trkpt lat="45.8642770" lon="6.9786843"><ele>3559.3</ele></trkpt>
      <trkpt lat="45.8641638" lon="6.9786505"><ele>3561.9</ele></trkpt>
      <trkpt lat="45.8641870" lon="6.9786668"><ele>3566.3</ele></trkpt>
      <trkpt lat="45.8644293" lon="6.9788373"><ele>3570.5</ele></trkpt>
      <trkpt lat="45.8644564" lon="6.9788486"><ele>3575.8</ele></trkpt>
      <trkpt lat="45.8644594" lon="6.9788521"><ele>3581.4</ele></trkpt>
      <trkpt lat="45.8646692" lon="6.9790958"><ele>3588.2</ele></trkpt>
      <trkpt lat="45.8647225" lon="6.9791939"><ele>3596.6</ele></trkpt>
      <trkpt lat="45.8648273" lon="6.9793027"><ele>3604.3</ele></trkpt>
      <trkpt lat="45.8648424" lon="6.9793149"><ele>3613.1</ele></trkpt>
      <trkpt lat="45.8648799" lon="6.9793621"><ele>3622.7</ele></trkpt>
      <trkpt lat="45.8650045" lon="6.9795015"><ele>3630.1</ele></trkpt>
      <trkpt lat="45.8650763" lon="6.9795292"><ele>3637.6</ele></trkpt>
      <trkpt lat="45.8652411" lon="6.9796571"><ele>3641.2</ele></trkpt>
      <trkpt lat="45.8653475" lon="6.9797715"><ele>3645.7</ele></trkpt>
      <trkpt lat="45.8653819" lon="6.9797986"><ele>3650.6</ele></trkpt>
      <trkpt lat="45.8656184" lon="6.9799850"><ele>3654.6</ele></trkpt>
    </trkseg>
  </trk>
</gpx>