<?xml version="1.0" encoding="UTF-8"?>
<gpx version="1.1" creator="AlpHD" xmlns="http://www.topografix.com/GPX/1/1">
  <trk>
    <name>Mont Blanc du Tacul — Supercouloir</name>
    <trkseg>
      <trkpt lat="45.873238" lon="6.886862"><ele>3538.8</ele></trkpt>
      <trkpt lat="45.873367" lon="6.886660"><ele>3543.7</ele></trkpt>
      <trkpt lat="45.873546" lon="6.886386"><ele>3551.6</ele></trkpt>
      <trkpt lat="45.873732" lon="6.886517"><ele>3552.4</ele></trkpt>
      <trkpt lat="45.873826" lon="6.886908"><ele>3546.6</ele></trkpt>
      <trkpt lat="45.873548" lon="6.887047"><ele>3539.8</ele></trkpt>
      <trkpt lat="45.873569" lon="6.887362"><ele>3510.4</ele></trkpt>
      <trkpt lat="45.873176" lon="6.887767"><ele>3505.5</ele></trkpt>
      <trkpt lat="45.872015" lon="6.889391"><ele>3472.9</ele></trkpt>
      <trkpt lat="45.871199" lon="6.890989"><ele>3460.0</ele></trkpt>
      <trkpt lat="45.870662" lon="6.891882"><ele>3456.4</ele></trkpt>
      <trkpt lat="45.870555" lon="6.892185"><ele>3454.0</ele></trkpt>
      <trkpt lat="45.870468" lon="6.892762"><ele>3449.0</ele></trkpt>
      <trkpt lat="45.869584" lon="6.895594"><ele>3432.3</ele></trkpt>
      <trkpt lat="45.868774" lon="6.897134"><ele>3418.2</ele></trkpt>
      <trkpt lat="45.868411" lon="6.897701"><ele>3411.9</ele></trkpt>
      <trkpt lat="45.868382" lon="6.898142"><ele>3408.2</ele></trkpt>
      <trkpt lat="45.868098" lon="6.898443"><ele>3403.9</ele></trkpt>
      <trkpt lat="45.867872" lon="6.898882"><ele>3398.5</ele></trkpt>
      <trkpt lat="45.867602" lon="6.899233"><ele>3393.2</ele></trkpt>
      <trkpt lat="45.867397" lon="6.899431"><ele>3389.8</ele></trkpt>
      <trkpt lat="45.866858" lon="6.899242"><ele>3388.4</ele></trkpt>
      <trkpt lat="45.866288" lon="6.899195"><ele>3378.6</ele></trkpt>
      <trkpt lat="45.866232" lon="6.899574"><ele>3361.8</ele></trkpt>
      <trkpt lat="45.866023" lon="6.899652"><ele>3353.6</ele></trkpt>
      <trkpt lat="45.864748" lon="6.898579"><ele>3337.3</ele></trkpt>
      <trkpt lat="45.864200" lon="6.898236"><ele>3344.8</ele></trkpt>
      <trkpt lat="45.863712" lon="6.898015"><ele>3341.4</ele></trkpt>
      <trkpt lat="45.863369" lon="6.897948"><ele>3326.3</ele></trkpt>
      <trkpt lat="45.862870" lon="6.898022"><ele>3308.1</ele></trkpt>
      <trkpt lat="45.862360" lon="6.898814"><ele>3280.4</ele></trkpt>
      <trkpt lat="45.862333" lon="6.899166"><ele>3271.0</ele></trkpt>
      <trkpt lat="45.862204" lon="6.899418"><ele>3264.3</ele></trkpt>
      <trkpt lat="45.861735" lon="6.899818"><ele>3256.4</ele></trkpt>
      <trkpt lat="45.860912" lon="6.900352"><ele>3241.1</ele></trkpt>
      <trkpt lat="45.859885" lon="6.900351"><ele>3223.1</ele></trkpt>
      <trkpt lat="45.859524" lon="6.900469"><ele>3224.8</ele></trkpt>
      <trkpt lat="45.859333" lon="6.900502"><ele>3229.8</ele></trkpt>
      <trkpt lat="45.859147" lon="6.900331"><ele>3239.4</ele></trkpt>
      <trkpt lat="45.858918" lon="6.900335"><ele>3247.6</ele></trkpt>
      <trkpt lat="45.858736" lon="6.900107"><ele>3260.9</ele></trkpt>
      <trkpt lat="45.858505" lon="6.900201"><ele>3265.6</ele></trkpt>
      <trkpt lat="45.858262" lon="6.900316"><ele>3268.9</ele></trkpt>
      <trkpt lat="45.858009" lon="6.900353"><ele>3275.7</ele></trkpt>
      <trkpt lat="45.857798" lon="6.900249"><ele>3285.9</ele></trkpt>
      <trkpt lat="45.857576" lon="6.900125"><ele>3296.6</ele></trkpt>
      <trkpt lat="45.857598" lon="6.899446"><ele>3319.0</ele></trkpt>
      <trkpt lat="45.857605" lon="6.898972"><ele>3341.3</ele></trkpt>
      <trkpt lat="45.857709" lon="6.898487"><ele>3357.4</ele></trkpt>
      <trkpt lat="45.857641" lon="6.898209"><ele>3372.3</ele></trkpt>
      <trkpt lat="45.857539" lon="6.897977"><ele>3383.5</ele></trkpt>
      <trkpt lat="45.857698" lon="6.897304"><ele>3405.7</ele></trkpt>
      <trkpt lat="45.857681" lon="6.897030"><ele>3418.8</ele></trkpt>
      <trkpt lat="45.857714" lon="6.896756"><ele>3430.2</ele></trkpt>
      <trkpt lat="45.857570" lon="6.896512"><ele>3456.2</ele></trkpt>
      <trkpt lat="45.857395" lon="6.896356"><ele>3478.0</ele></trkpt>
      <trkpt lat="45.857499" lon="6.896092"><ele>3491.4</ele></trkpt>
      <trkpt lat="45.857380" lon="6.895884"><ele>3513.3</ele></trkpt>
      <trkpt lat="45.857285" lon="6.895658"><ele>3541.5</ele></trkpt>
      <trkpt lat="45.857288" lon="6.895396"><ele>3563.9</ele></trkpt>
      <trkpt lat="45.857164" lon="6.895058"><ele>3603.9</ele></trkpt>
      <trkpt lat="45.857165" lon="6.894569"><ele>3650.9</ele></trkpt>
      <trkpt lat="45.857029" lon="6.894344"><ele>3684.5</ele></trkpt>
      <trkpt lat="45.856839" lon="6.894098"><ele>3718.4</ele></trkpt>
      <trkpt lat="45.857076" lon="6.894105"><ele>3702.4</ele></trkpt>
      <trkpt lat="45.856977" lon="6.893842"><ele>3733.5</ele></trkpt>
      <trkpt lat="45.856990" lon="6.893454"><ele>3768.8</ele></trkpt>
      <trkpt lat="45.856911" lon="6.893106"><ele>3802.2</ele></trkpt>
      <trkpt lat="45.857058" lon="6.892902"><ele>3810.8</ele></trkpt>
      <trkpt lat="45.856900" lon="6.892710"><ele>3845.9</ele></trkpt>
      <trkpt lat="45.856818" lon="6.892327"><ele>3884.2</ele></trkpt>
      <trkpt lat="45.856812" lon="6.892068"><ele>3901.1</ele></trkpt>
      <trkpt lat="45.856812" lon="6.891788"><ele>3923.4</ele></trkpt>
      <trkpt lat="45.856860" lon="6.891326"><ele>3963.4</ele></trkpt>
      <trkpt lat="45.856870" lon="6.891600"><ele>3941.7</ele></trkpt>
      <trkpt lat="45.856821" lon="6.891272"><ele>3968.7</ele></trkpt>
      <trkpt lat="45.856743" lon="6.890963"><ele>3996.6</ele></trkpt>
      <trkpt lat="45.856715" lon="6.890684"><ele>4021.9</ele></trkpt>
      <trkpt lat="45.856541" lon="6.890299"><ele>4042.9</ele></trkpt>
      <trkpt lat="45.856535" lon="6.889995"><ele>4061.6</ele></trkpt>
      <trkpt lat="45.856385" lon="6.889761"><ele>4064.4</ele></trkpt>
      <trkpt lat="45.856727" lon="6.888666"><ele>4141.0</ele></trkpt>
      <trkpt lat="45.856633" lon="6.888266"><ele>4146.1</ele></trkpt>
      <trkpt lat="45.856628" lon="6.887888"><ele>4146.8</ele></trkpt>
      <trkpt lat="45.857005" lon="6.887693"><ele>4145.7</ele></trkpt>
      <trkpt lat="45.857129" lon="6.887487"><ele>4147.5</ele></trkpt>
      <trkpt lat="45.857342" lon="6.887292"><ele>4154.3</ele></trkpt>
      <trkpt lat="45.857468" lon="6.886860"><ele>4162.0</ele></trkpt>
    </trkseg>
  </trk>
</gpx>