<?xml version="1.0" encoding="UTF-8"?>
<gpx version="1.1" creator="AlpHD-batch" xmlns="http://www.topografix.com/GPX/1/1">
  <trk>
    <name>SW Face by the Burgener Slabs</name>
    <trkseg>
      <trkpt lat="45.8451762" lon="6.9337598"><ele>3350.3</ele></trkpt>
      <trkpt lat="45.8452752" lon="6.9335500"><ele>3349.4</ele></trkpt>
      <trkpt lat="45.8453210" lon="6.9335401"><ele>3349.0</ele></trkpt>
      <trkpt lat="45.8455639" lon="6.9334533"><ele>3348.5</ele></trkpt>
      <trkpt lat="45.8457881" lon="6.9334046"><ele>3347.9</ele></trkpt>
      <trkpt lat="45.8460332" lon="6.9333614"><ele>3347.4</ele></trkpt>
      <trkpt lat="45.8461423" lon="6.9333870"><ele>3346.3</ele></trkpt>
      <trkpt lat="45.8464233" lon="6.9334906"><ele>3345.0</ele></trkpt>
      <trkpt lat="45.8466920" lon="6.9335783"><ele>3342.9</ele></trkpt>
      <trkpt lat="45.8469508" lon="6.9336727"><ele>3341.7</ele></trkpt>
      <trkpt lat="45.8472119" lon="6.9337650"><ele>3340.6</ele></trkpt>
      <trkpt lat="45.8474590" lon="6.9338676"><ele>3339.3</ele></trkpt>
      <trkpt lat="45.8476480" lon="6.9340298"><ele>3337.8</ele></trkpt>
      <trkpt lat="45.8476779" lon="6.9340506"><ele>3336.3</ele></trkpt>
      <trkpt lat="45.8479193" lon="6.9342223"><ele>3334.9</ele></trkpt>
      <trkpt lat="45.8481573" lon="6.9343885"><ele>3333.3</ele></trkpt>
      <trkpt lat="45.8484007" lon="6.9345585"><ele>3331.5</ele></trkpt>
      <trkpt lat="45.8485670" lon="6.9348036"><ele>3329.7</ele></trkpt>
      <trkpt lat="45.8487128" lon="6.9349346"><ele>3327.4</ele></trkpt>
      <trkpt lat="45.8489368" lon="6.9351505"><ele>3324.2</ele></trkpt>
      <trkpt lat="45.8491621" lon="6.9353661"><ele>3321.6</ele></trkpt>
      <trkpt lat="45.8493881" lon="6.9355789"><ele>3318.9</ele></trkpt>
      <trkpt lat="45.8496143" lon="6.9357867"><ele>3316.4</ele></trkpt>
      <trkpt lat="45.8498256" lon="6.9360068"><ele>3313.6</ele></trkpt>
      <trkpt lat="45.8499859" lon="6.9362026"><ele>3311.1</ele></trkpt>
      <trkpt lat="45.8501915" lon="6.9364603"><ele>3307.9</ele></trkpt>
      <trkpt lat="45.8504067" lon="6.9367074"><ele>3306.0</ele></trkpt>
      <trkpt lat="45.8504157" lon="6.9367182"><ele>3304.3</ele></trkpt>
      <trkpt lat="45.8506430" lon="6.9369288"><ele>3303.8</ele></trkpt>
      <trkpt lat="45.8506857" lon="6.9369533"><ele>3302.7</ele></trkpt>
      <trkpt lat="45.8509568" lon="6.9370435"><ele>3301.8</ele></trkpt>
      <trkpt lat="45.8511017" lon="6.9370947"><ele>3300.5</ele></trkpt>
      <trkpt lat="45.8513700" lon="6.9371932"><ele>3299.4</ele></trkpt>
      <trkpt lat="45.8516405" lon="6.9373127"><ele>3299.4</ele></trkpt>
      <trkpt lat="45.8519036" lon="6.9374127"><ele>3301.0</ele></trkpt>
      <trkpt lat="45.8521653" lon="6.9375119"><ele>3301.6</ele></trkpt>
      <trkpt lat="45.8524183" lon="6.9376589"><ele>3302.8</ele></trkpt>
      <trkpt lat="45.8525081" lon="6.9377333"><ele>3304.5</ele></trkpt>
      <trkpt lat="45.8527446" lon="6.9379438"><ele>3306.3</ele></trkpt>
      <trkpt lat="45.8527553" lon="6.9379538"><ele>3309.9</ele></trkpt>
      <trkpt lat="45.8529653" lon="6.9381785"><ele>3313.9</ele></trkpt>
      <trkpt lat="45.8530376" lon="6.9383031"><ele>3319.0</ele></trkpt>
      <trkpt lat="45.8531916" lon="6.9386160"><ele>3324.1</ele></trkpt>
      <trkpt lat="45.8532489" lon="6.9388979"><ele>3329.3</ele></trkpt>
      <trkpt lat="45.8532528" lon="6.9389758"><ele>3334.6</ele></trkpt>
      <trkpt lat="45.8532912" lon="6.9393614"><ele>3339.8</ele></trkpt>
      <trkpt lat="45.8533263" lon="6.9397437"><ele>3345.0</ele></trkpt>
      <trkpt lat="45.8533536" lon="6.9401184"><ele>3350.4</ele></trkpt>
      <trkpt lat="45.8533707" lon="6.9402136"><ele>3354.1</ele></trkpt>
      <trkpt lat="45.8534576" lon="6.9405653"><ele>3358.0</ele></trkpt>
      <trkpt lat="45.8535494" lon="6.9409542"><ele>3361.0</ele></trkpt>
      <trkpt lat="45.8536003" lon="6.9411628"><ele>3363.0</ele></trkpt>
      <trkpt lat="45.8536809" lon="6.9415318"><ele>3364.6</ele></trkpt>
      <trkpt lat="45.8537612" lon="6.9419022"><ele>3366.3</ele></trkpt>
      <trkpt lat="45.8538463" lon="6.9422162"><ele>3367.8</ele></trkpt>
      <trkpt lat="45.8539433" lon="6.9425778"><ele>3369.0</ele></trkpt>
      <trkpt lat="45.8540427" lon="6.9429358"><ele>3370.0</ele></trkpt>
      <trkpt lat="45.8541428" lon="6.9432982"><ele>3371.4</ele></trkpt>
      <trkpt lat="45.8542442" lon="6.9436565"><ele>3373.0</ele></trkpt>
      <trkpt lat="45.8543448" lon="6.9440161"><ele>3375.1</ele></trkpt>
      <trkpt lat="45.8544453" lon="6.9443773"><ele>3377.4</ele></trkpt>
      <trkpt lat="45.8544713" lon="6.9444564"><ele>3380.1</ele></trkpt>
      <trkpt lat="45.8545908" lon="6.9448036"><ele>3383.3</ele></trkpt>
      <trkpt lat="45.8547157" lon="6.9451516"><ele>3387.0</ele></trkpt>
      <trkpt lat="45.8548031" lon="6.9452298"><ele>3391.1</ele></trkpt>
      <trkpt lat="45.8550313" lon="6.9454442"><ele>3396.0</ele></trkpt>
      <trkpt lat="45.8552588" lon="6.9456573"><ele>3400.3</ele></trkpt>
      <trkpt lat="45.8554819" lon="6.9458665"><ele>3405.3</ele></trkpt>
      <trkpt lat="45.8557064" lon="6.9460627"><ele>3411.0</ele></trkpt>
      <trkpt lat="45.8559397" lon="6.9462630"><ele>3417.2</ele></trkpt>
      <trkpt lat="45.8560724" lon="6.9463935"><ele>3423.8</ele></trkpt>
      <trkpt lat="45.8562941" lon="6.9466196"><ele>3429.7</ele></trkpt>
      <trkpt lat="45.8565106" lon="6.9468523"><ele>3435.3</ele></trkpt>
      <trkpt lat="45.8567320" lon="6.9470791"><ele>3441.8</ele></trkpt>
      <trkpt lat="45.8569426" lon="6.9472999"><ele>3448.2</ele></trkpt>
      <trkpt lat="45.8569432" lon="6.9473004"><ele>3455.5</ele></trkpt>
      <trkpt lat="45.8571657" lon="6.9474979"><ele>3461.9</ele></trkpt>
      <trkpt lat="45.8573904" lon="6.9476921"><ele>3468.3</ele></trkpt>
      <trkpt lat="45.8576241" lon="6.9478816"><ele>3475.4</ele></trkpt>
      <trkpt lat="45.8577558" lon="6.9479379"><ele>3482.9</ele></trkpt>
      <trkpt lat="45.8577857" lon="6.9479382"><ele>3490.4</ele></trkpt>
      <trkpt lat="45.8580549" lon="6.9479819"><ele>3497.7</ele></trkpt>
      <trkpt lat="45.8583398" lon="6.9479686"><ele>3505.4</ele></trkpt>
      <trkpt lat="45.8586105" lon="6.9479558"><ele>3513.0</ele></trkpt>
      <trkpt lat="45.8586533" lon="6.9479726"><ele>3521.8</ele></trkpt>
      <trkpt lat="45.8586985" lon="6.9479845"><ele>3530.7</ele></trkpt>
      <trkpt lat="45.8589895" lon="6.9480681"><ele>3539.0</ele></trkpt>
      <trkpt lat="45.8590747" lon="6.9481205"><ele>3547.1</ele></trkpt>
      <trkpt lat="45.8592996" lon="6.9483005"><ele>3556.1</ele></trkpt>
      <trkpt lat="45.8594934" lon="6.9482546"><ele>3567.6</ele></trkpt>
      <trkpt lat="45.8595036" lon="6.9482606"><ele>3581.3</ele></trkpt>
      <trkpt lat="45.8595500" lon="6.9482935"><ele>3594.1</ele></trkpt>
      <trkpt lat="45.8598239" lon="6.9484309"><ele>3606.8</ele></trkpt>
      <trkpt lat="45.8600665" lon="6.9485581"><ele>3617.7</ele></trkpt>
      <trkpt lat="45.8601039" lon="6.9488487"><ele>3630.8</ele></trkpt>
      <trkpt lat="45.8600883" lon="6.9490725"><ele>3644.6</ele></trkpt>
      <trkpt lat="45.8600921" lon="6.9491150"><ele>3659.2</ele></trkpt>
      <trkpt lat="45.8600949" lon="6.9491443"><ele>3674.7</ele></trkpt>
      <trkpt lat="45.8601172" lon="6.9495181"><ele>3689.5</ele></trkpt>
      <trkpt lat="45.8601438" lon="6.9497147"><ele>3703.2</ele></trkpt>
      <trkpt lat="45.8601469" lon="6.9499272"><ele>3717.2</ele></trkpt>
      <trkpt lat="45.8601969" lon="6.9502810"><ele>3733.6</ele></trkpt>
      <trkpt lat="45.8603090" lon="6.9504602"><ele>3750.2</ele></trkpt>
      <trkpt lat="45.8603528" lon="6.9505985"><ele>3765.1</ele></trkpt>
      <trkpt lat="45.8604155" lon="6.9507237"><ele>3778.9</ele></trkpt>
      <trkpt lat="45.8605834" lon="6.9510009"><ele>3791.0</ele></trkpt>
      <trkpt lat="45.8607934" lon="6.9509629"><ele>3800.3</ele></trkpt>
      <trkpt lat="45.8609080" lon="6.9509038"><ele>3809.5</ele></trkpt>
      <trkpt lat="45.8609484" lon="6.9509022"><ele>3818.0</ele></trkpt>
      <trkpt lat="45.8612247" lon="6.9509827"><ele>3825.3</ele></trkpt>
      <trkpt lat="45.8612581" lon="6.9510281"><ele>3829.9</ele></trkpt>
      <trkpt lat="45.8614804" lon="6.9512770"><ele>3834.0</ele></trkpt>
      <trkpt lat="45.8615316" lon="6.9511747"><ele>3837.3</ele></trkpt>
      <trkpt lat="45.8615807" lon="6.9510999"><ele>3840.3</ele></trkpt>
      <trkpt lat="45.8615829" lon="6.9510952"><ele>3842.7</ele></trkpt>
      <trkpt lat="45.8616033" lon="6.9510944"><ele>3844.1</ele></trkpt>
      <trkpt lat="45.8616321" lon="6.9510427"><ele>3844.6</ele></trkpt>
      <trkpt lat="45.8616350" lon="6.9510023"><ele>3845.0</ele></trkpt>
      <trkpt lat="45.8616402" lon="6.9509902"><ele>3845.6</ele></trkpt>
      <trkpt lat="45.8616434" lon="6.9509657"><ele>3847.9</ele></trkpt>
      <trkpt lat="45.8616514" lon="6.9509194"><ele>3850.1</ele></trkpt>
      <trkpt lat="45.8616869" lon="6.9508443"><ele>3853.7</ele></trkpt>
      <trkpt lat="45.8617190" lon="6.9508562"><ele>3859.9</ele></trkpt>
      <trkpt lat="45.8617536" lon="6.9508351"><ele>3871.5</ele></trkpt>
      <trkpt lat="45.8617873" lon="6.9508646"><ele>3886.6</ele></trkpt>
      <trkpt lat="45.8618015" lon="6.9509331"><ele>3901.0</ele></trkpt>
      <trkpt lat="45.8617950" lon="6.9510442"><ele>3916.7</ele></trkpt>
      <trkpt lat="45.8617917" lon="6.9512602"><ele>3933.4</ele></trkpt>
      <trkpt lat="45.8618186" lon="6.9514869"><ele>3941.7</ele></trkpt>
      <trkpt lat="45.8618193" lon="6.9514899"><ele>3952.3</ele></trkpt>
      <trkpt lat="45.8618594" lon="6.9516965"><ele>3964.7</ele></trkpt>
      <trkpt lat="45.8618677" lon="6.9518578"><ele>3977.8</ele></trkpt>
    </trkseg>
  </trk>
</gpx>