<?xml version="1.0" encoding="UTF-8"?>
<gpx version="1.1" creator="AlpHD" xmlns="http://www.topografix.com/GPX/1/1">
  <trk>
    <name>Pilier Gervasutti — Mont Blanc du Tacul</name>
    <trkseg>
      <trkpt lat="46.331062" lon="7.857370"><ele>1828.0</ele></trkpt>
      <trkpt lat="46.331577" lon="7.856791"><ele>1828.0</ele></trkpt>
      <trkpt lat="46.330998" lon="7.856104"><ele>1828.0</ele></trkpt>
      <trkpt lat="46.331062" lon="7.856126"><ele>1985.0</ele></trkpt>
      <trkpt lat="46.331191" lon="7.857349"><ele>1987.0</ele></trkpt>
      <trkpt lat="46.331363" lon="7.857907"><ele>1994.0</ele></trkpt>
      <trkpt lat="46.331728" lon="7.856770"><ele>2014.0</ele></trkpt>
      <trkpt lat="46.331835" lon="7.856169"><ele>2026.0</ele></trkpt>
      <trkpt lat="46.332178" lon="7.855031"><ele>2042.0</ele></trkpt>
      <trkpt lat="46.332264" lon="7.854452"><ele>2044.0</ele></trkpt>
      <trkpt lat="46.332436" lon="7.853916"><ele>2067.0</ele></trkpt>
      <trkpt lat="46.332629" lon="7.854195"><ele>2081.0</ele></trkpt>
      <trkpt lat="46.332994" lon="7.854238"><ele>2094.0</ele></trkpt>
      <trkpt lat="46.333101" lon="7.854345"><ele>2094.0</ele></trkpt>
      <trkpt lat="46.333058" lon="7.854667"><ele>2093.0</ele></trkpt>
      <trkpt lat="46.333466" lon="7.854753"><ele>2110.0</ele></trkpt>
      <trkpt lat="46.333745" lon="7.855804"><ele>2130.0</ele></trkpt>
      <trkpt lat="46.334023" lon="7.856083"><ele>2163.0</ele></trkpt>
      <trkpt lat="46.334410" lon="7.856276"><ele>2168.0</ele></trkpt>
      <trkpt lat="46.334710" lon="7.856555"><ele>2172.0</ele></trkpt>
      <trkpt lat="46.334903" lon="7.856834"><ele>2188.0</ele></trkpt>
      <trkpt lat="46.335247" lon="7.857113"><ele>2206.0</ele></trkpt>
      <trkpt lat="46.335504" lon="7.857542"><ele>2223.0</ele></trkpt>
      <trkpt lat="46.335182" lon="7.857950"><ele>2232.0</ele></trkpt>
      <trkpt lat="46.334753" lon="7.858100"><ele>2240.0</ele></trkpt>
      <trkpt lat="46.334710" lon="7.858722"><ele>2257.0</ele></trkpt>
      <trkpt lat="46.335483" lon="7.859130"><ele>2275.0</ele></trkpt>
      <trkpt lat="46.336384" lon="7.859280"><ele>2288.0</ele></trkpt>
      <trkpt lat="46.336813" lon="7.859473"><ele>2291.0</ele></trkpt>
      <trkpt lat="46.337178" lon="7.859795"><ele>2305.0</ele></trkpt>
      <trkpt lat="46.337500" lon="7.860246"><ele>2319.0</ele></trkpt>
      <trkpt lat="46.338658" lon="7.861211"><ele>2346.0</ele></trkpt>
      <trkpt lat="46.339087" lon="7.861383"><ele>2351.0</ele></trkpt>
      <trkpt lat="46.339495" lon="7.861190"><ele>2356.0</ele></trkpt>
      <trkpt lat="46.340289" lon="7.861748"><ele>2367.0</ele></trkpt>
      <trkpt lat="46.340718" lon="7.861876"><ele>2371.0</ele></trkpt>
      <trkpt lat="46.341598" lon="7.861984"><ele>2387.0</ele></trkpt>
      <trkpt lat="46.342006" lon="7.862198"><ele>2399.0</ele></trkpt>
      <trkpt lat="46.342864" lon="7.862477"><ele>2417.0</ele></trkpt>
      <trkpt lat="46.343272" lon="7.862284"><ele>2429.0</ele></trkpt>
      <trkpt lat="46.343679" lon="7.861984"><ele>2439.0</ele></trkpt>
      <trkpt lat="46.344495" lon="7.861598"><ele>2460.0</ele></trkpt>
      <trkpt lat="46.344903" lon="7.861576"><ele>2470.0</ele></trkpt>
      <trkpt lat="46.345718" lon="7.860031"><ele>2512.0</ele></trkpt>
      <trkpt lat="46.346147" lon="7.859945"><ele>2519.0</ele></trkpt>
      <trkpt lat="46.346619" lon="7.860053"><ele>2524.0</ele></trkpt>
      <trkpt lat="46.347048" lon="7.860053"><ele>2531.0</ele></trkpt>
      <trkpt lat="46.347284" lon="7.859795"><ele>2547.0</ele></trkpt>
      <trkpt lat="46.347671" lon="7.859666"><ele>2563.0</ele></trkpt>
      <trkpt lat="46.348078" lon="7.859902"><ele>2574.0</ele></trkpt>
      <trkpt lat="46.348443" lon="7.860010"><ele>2587.0</ele></trkpt>
      <trkpt lat="46.349280" lon="7.860096"><ele>2606.0</ele></trkpt>
      <trkpt lat="46.350074" lon="7.859838"><ele>2627.0</ele></trkpt>
      <trkpt lat="46.350460" lon="7.860074"><ele>2622.0</ele></trkpt>
      <trkpt lat="46.351404" lon="7.859387"><ele>2826.0</ele></trkpt>
      <trkpt lat="46.351683" lon="7.859559"><ele>2815.0</ele></trkpt>
      <trkpt lat="46.352477" lon="7.859516"><ele>2902.0</ele></trkpt>
      <trkpt lat="46.353014" lon="7.859323"><ele>2945.0</ele></trkpt>
      <trkpt lat="46.353357" lon="7.859280"><ele>2968.0</ele></trkpt>
      <trkpt lat="46.353722" lon="7.859108"><ele>2986.0</ele></trkpt>
      <trkpt lat="46.354043" lon="7.858915"><ele>2995.0</ele></trkpt>
      <trkpt lat="46.354322" lon="7.858486"><ele>2985.0</ele></trkpt>
      <trkpt lat="46.354537" lon="7.857950"><ele>2982.0</ele></trkpt>
      <trkpt lat="46.354859" lon="7.856834"><ele>2994.0</ele></trkpt>
      <trkpt lat="46.354966" lon="7.856233"><ele>3006.0</ele></trkpt>
      <trkpt lat="46.354408" lon="7.855482"><ele>2987.0</ele></trkpt>
      <trkpt lat="46.354280" lon="7.855096"><ele>2978.0</ele></trkpt>
      <trkpt lat="46.354215" lon="7.854624"><ele>2957.0</ele></trkpt>
      <trkpt lat="46.353829" lon="7.854066"><ele>2914.0</ele></trkpt>
      <trkpt lat="46.353400" lon="7.853251"><ele>2874.0</ele></trkpt>
      <trkpt lat="46.353121" lon="7.852972"><ele>2854.0</ele></trkpt>
      <trkpt lat="46.352971" lon="7.853272"><ele>2830.0</ele></trkpt>
      <trkpt lat="46.353056" lon="7.853422"><ele>2814.0</ele></trkpt>
      <trkpt lat="46.352370" lon="7.853529"><ele>2781.0</ele></trkpt>
      <trkpt lat="46.352091" lon="7.853701"><ele>2764.0</ele></trkpt>
      <trkpt lat="46.351855" lon="7.854066"><ele>2752.0</ele></trkpt>
      <trkpt lat="46.351705" lon="7.854474"><ele>2739.0</ele></trkpt>
      <trkpt lat="46.351104" lon="7.854581"><ele>2720.0</ele></trkpt>
      <trkpt lat="46.350932" lon="7.855053"><ele>2713.0</ele></trkpt>
      <trkpt lat="46.350653" lon="7.855332"><ele>2702.0</ele></trkpt>
      <trkpt lat="46.350288" lon="7.855482"><ele>2688.0</ele></trkpt>
      <trkpt lat="46.349688" lon="7.856190"><ele>2686.0</ele></trkpt>
      <trkpt lat="46.349838" lon="7.856770"><ele>2684.0</ele></trkpt>
      <trkpt lat="46.350052" lon="7.857263"><ele>2678.0</ele></trkpt>
      <trkpt lat="46.350417" lon="7.859473"><ele>2643.0</ele></trkpt>
      <trkpt lat="46.350439" lon="7.860010"><ele>2628.0</ele></trkpt>
      <trkpt lat="46.350331" lon="7.860096"><ele>2620.0</ele></trkpt>
      <trkpt lat="46.349902" lon="7.860138"><ele>2613.0</ele></trkpt>
      <trkpt lat="46.349516" lon="7.860074"><ele>2608.0</ele></trkpt>
      <trkpt lat="46.349065" lon="7.860138"><ele>2604.0</ele></trkpt>
      <trkpt lat="46.348658" lon="7.859967"><ele>2595.0</ele></trkpt>
      <trkpt lat="46.348228" lon="7.860010"><ele>2582.0</ele></trkpt>
      <trkpt lat="46.347864" lon="7.859688"><ele>2570.0</ele></trkpt>
      <trkpt lat="46.347435" lon="7.859709"><ele>2556.0</ele></trkpt>
      <trkpt lat="46.347134" lon="7.859967"><ele>2535.0</ele></trkpt>
      <trkpt lat="46.346748" lon="7.860074"><ele>2522.0</ele></trkpt>
      <trkpt lat="46.346297" lon="7.859967"><ele>2518.0</ele></trkpt>
      <trkpt lat="46.345868" lon="7.859988"><ele>2510.0</ele></trkpt>
      <trkpt lat="46.344860" lon="7.861555"><ele>2467.0</ele></trkpt>
      <trkpt lat="46.345181" lon="7.860761"><ele>2475.0</ele></trkpt>
      <trkpt lat="46.345632" lon="7.860117"><ele>2504.0</ele></trkpt>
      <trkpt lat="46.344709" lon="7.861512"><ele>2471.0</ele></trkpt>
      <trkpt lat="46.344366" lon="7.861598"><ele>2459.0</ele></trkpt>
      <trkpt lat="46.343443" lon="7.862005"><ele>2441.0</ele></trkpt>
      <trkpt lat="46.343057" lon="7.862306"><ele>2432.0</ele></trkpt>
      <trkpt lat="46.342628" lon="7.862327"><ele>2416.0</ele></trkpt>
      <trkpt lat="46.341362" lon="7.861855"><ele>2380.0</ele></trkpt>
      <trkpt lat="46.340482" lon="7.861834"><ele>2366.0</ele></trkpt>
      <trkpt lat="46.339688" lon="7.861254"><ele>2354.0</ele></trkpt>
      <trkpt lat="46.338830" lon="7.861297"><ele>2342.0</ele></trkpt>
      <trkpt lat="46.338422" lon="7.861040"><ele>2337.0</ele></trkpt>
      <trkpt lat="46.337671" lon="7.860332"><ele>2317.0</ele></trkpt>
      <trkpt lat="46.337028" lon="7.859538"><ele>2296.0</ele></trkpt>
      <trkpt lat="46.336620" lon="7.859302"><ele>2287.0</ele></trkpt>
      <trkpt lat="46.336148" lon="7.859259"><ele>2284.0</ele></trkpt>
      <trkpt lat="46.335247" lon="7.858980"><ele>2268.0</ele></trkpt>
      <trkpt lat="46.334882" lon="7.858937"><ele>2264.0</ele></trkpt>
      <trkpt lat="46.334689" lon="7.858465"><ele>2246.0</ele></trkpt>
      <trkpt lat="46.334925" lon="7.858014"><ele>2236.0</ele></trkpt>
      <trkpt lat="46.335332" lon="7.857842"><ele>2227.0</ele></trkpt>
      <trkpt lat="46.335418" lon="7.857306"><ele>2214.0</ele></trkpt>
      <trkpt lat="46.335011" lon="7.856963"><ele>2196.0</ele></trkpt>
      <trkpt lat="46.334603" lon="7.856748"><ele>2187.0</ele></trkpt>
      <trkpt lat="46.334260" lon="7.856426"><ele>2184.0</ele></trkpt>
      <trkpt lat="46.333981" lon="7.856061"><ele>2177.0</ele></trkpt>
      <trkpt lat="46.333208" lon="7.855589"><ele>2156.0</ele></trkpt>
      <trkpt lat="46.333251" lon="7.854946"><ele>2140.0</ele></trkpt>
      <trkpt lat="46.332607" lon="7.854366"><ele>2130.0</ele></trkpt>
      <trkpt lat="46.332521" lon="7.853937"><ele>2119.0</ele></trkpt>
      <trkpt lat="46.332393" lon="7.853873"><ele>2081.0</ele></trkpt>
      <trkpt lat="46.332092" lon="7.855139"><ele>2066.0</ele></trkpt>
      <trkpt lat="46.331835" lon="7.855740"><ele>2060.0</ele></trkpt>
      <trkpt lat="46.331513" lon="7.857006"><ele>2038.0</ele></trkpt>
      <trkpt lat="46.331084" lon="7.858164"><ele>2030.0</ele></trkpt>
      <trkpt lat="46.330976" lon="7.857907"><ele>2030.0</ele></trkpt>
      <trkpt lat="46.330912" lon="7.856061"><ele>2021.0</ele></trkpt>
      <trkpt lat="46.330740" lon="7.856576"><ele>2001.0</ele></trkpt>
      <trkpt lat="46.330397" lon="7.856898"><ele>1994.0</ele></trkpt>
      <trkpt lat="46.329989" lon="7.856748"><ele>1986.0</ele></trkpt>
      <trkpt lat="46.329689" lon="7.855697"><ele>1888.0</ele></trkpt>
      <trkpt lat="46.329346" lon="7.855718"><ele>1881.0</ele></trkpt>
      <trkpt lat="46.329346" lon="7.855139"><ele>1863.0</ele></trkpt>
      <trkpt lat="46.329453" lon="7.854474"><ele>1859.0</ele></trkpt>
      <trkpt lat="46.329560" lon="7.854323"><ele>1858.0</ele></trkpt>
    </trkseg>
  </trk>
</gpx>
