<?xml version="1.0" encoding="UTF-8"?>
<gpx version="1.1" creator="AlpHD" xmlns="http://www.topografix.com/GPX/1/1">
  <trk>
    <name>Aiguille du Tour — Voie Normale</name>
    <trkseg>
      <trkpt lat="46.00237738" lon="6.94747313"><ele>1481.4</ele></trkpt>
      <trkpt lat="46.00191764" lon="6.94800865"><ele>1484.2</ele></trkpt>
      <trkpt lat="46.00199726" lon="6.95094994"><ele>1512.4</ele></trkpt>
      <trkpt lat="46.00175394" lon="6.95138723"><ele>1517.4</ele></trkpt>
      <trkpt lat="46.00165830" lon="6.95241208"><ele>1527.2</ele></trkpt>
      <trkpt lat="46.00172276" lon="6.95310200"><ele>1534.4</ele></trkpt>
      <trkpt lat="46.00235098" lon="6.95455366"><ele>1549.8</ele></trkpt>
      <trkpt lat="46.00146283" lon="6.95466514"><ele>1564.0</ele></trkpt>
      <trkpt lat="46.00127198" lon="6.95495792"><ele>1567.2</ele></trkpt>
      <trkpt lat="46.00130240" lon="6.95547324"><ele>1573.2</ele></trkpt>
      <trkpt lat="46.00082112" lon="6.95620925"><ele>1575.6</ele></trkpt>
      <trkpt lat="46.00076856" lon="6.95852752"><ele>1614.2</ele></trkpt>
      <trkpt lat="46.00047712" lon="6.95911400"><ele>1626.2</ele></trkpt>
      <trkpt lat="46.00039640" lon="6.96000860"><ele>1646.6</ele></trkpt>
      <trkpt lat="46.00015090" lon="6.96007641"><ele>1650.2</ele></trkpt>
      <trkpt lat="45.99993465" lon="6.96078896"><ele>1676.8</ele></trkpt>
      <trkpt lat="45.99902462" lon="6.96141953"><ele>1716.4</ele></trkpt>
      <trkpt lat="45.99898808" lon="6.96206703"><ele>1745.0</ele></trkpt>
      <trkpt lat="45.99867040" lon="6.96188984"><ele>1751.0</ele></trkpt>
      <trkpt lat="45.99939376" lon="6.96337461"><ele>1779.6</ele></trkpt>
      <trkpt lat="45.99882228" lon="6.96297647"><ele>1790.8</ele></trkpt>
      <trkpt lat="45.99827955" lon="6.96315735"><ele>1815.4</ele></trkpt>
      <trkpt lat="45.99762987" lon="6.96271336"><ele>1833.8</ele></trkpt>
      <trkpt lat="45.99728161" lon="6.96299113"><ele>1847.6</ele></trkpt>
      <trkpt lat="45.99742636" lon="6.96316724"><ele>1853.4</ele></trkpt>
      <trkpt lat="45.99693736" lon="6.96392504"><ele>1886.4</ele></trkpt>
      <trkpt lat="45.99719100" lon="6.96410132"><ele>1893.2</ele></trkpt>
      <trkpt lat="45.99697055" lon="6.96448538"><ele>1908.0</ele></trkpt>
      <trkpt lat="45.99719552" lon="6.96458629"><ele>1914.2</ele></trkpt>
      <trkpt lat="45.99658356" lon="6.96473683"><ele>1922.6</ele></trkpt>
      <trkpt lat="45.99591552" lon="6.96358566"><ele>1972.4</ele></trkpt>
      <trkpt lat="45.99571897" lon="6.96194951"><ele>1971.8</ele></trkpt>
      <trkpt lat="45.99584201" lon="6.96251060"><ele>1982.2</ele></trkpt>
      <trkpt lat="45.99582450" lon="6.96178984"><ele>1963.6</ele></trkpt>
      <trkpt lat="45.99637234" lon="6.96184407"><ele>1943.0</ele></trkpt>
      <trkpt lat="45.99618676" lon="6.96147979"><ele>1940.4</ele></trkpt>
      <trkpt lat="45.99630704" lon="6.96182010"><ele>1946.6</ele></trkpt>
      <trkpt lat="45.99601091" lon="6.96164341"><ele>1957.4</ele></trkpt>
      <trkpt lat="45.99588736" lon="6.96195580"><ele>1970.0</ele></trkpt>
      <trkpt lat="45.99511279" lon="6.96129925"><ele>1997.4</ele></trkpt>
      <trkpt lat="45.99502109" lon="6.96153444"><ele>2004.0</ele></trkpt>
      <trkpt lat="45.99434149" lon="6.96116949"><ele>2022.2</ele></trkpt>
      <trkpt lat="45.99420712" lon="6.96150611"><ele>2033.6</ele></trkpt>
      <trkpt lat="45.99392365" lon="6.96148809"><ele>2049.8</ele></trkpt>
      <trkpt lat="45.99404049" lon="6.96188933"><ele>2060.2</ele></trkpt>
      <trkpt lat="45.99310281" lon="6.96187517"><ele>2105.6</ele></trkpt>
      <trkpt lat="45.99312636" lon="6.96364450"><ele>2137.0</ele></trkpt>
      <trkpt lat="45.99263049" lon="6.96391591"><ele>2164.8</ele></trkpt>
      <trkpt lat="45.99271774" lon="6.96508887"><ele>2192.0</ele></trkpt>
      <trkpt lat="45.99322166" lon="6.96598859"><ele>2202.8</ele></trkpt>
      <trkpt lat="45.99291857" lon="6.96837248"><ele>2244.4</ele></trkpt>
      <trkpt lat="45.99305143" lon="6.96917220"><ele>2265.4</ele></trkpt>
      <trkpt lat="45.99279477" lon="6.96997586"><ele>2288.2</ele></trkpt>
      <trkpt lat="45.99182448" lon="6.97018758"><ele>2313.6</ele></trkpt>
      <trkpt lat="45.99209564" lon="6.97164210"><ele>2331.2</ele></trkpt>
      <trkpt lat="45.99260031" lon="6.97226387"><ele>2346.8</ele></trkpt>
      <trkpt lat="45.99188425" lon="6.97274457"><ele>2361.8</ele></trkpt>
      <trkpt lat="45.99205021" lon="6.97316400"><ele>2378.4</ele></trkpt>
      <trkpt lat="45.99165953" lon="6.97371611"><ele>2395.0</ele></trkpt>
      <trkpt lat="45.99179037" lon="6.97407913"><ele>2406.6</ele></trkpt>
      <trkpt lat="45.99075194" lon="6.97455397"><ele>2437.8</ele></trkpt>
      <trkpt lat="45.99054012" lon="6.97510215"><ele>2450.4</ele></trkpt>
      <trkpt lat="45.99099308" lon="6.97530390"><ele>2456.4</ele></trkpt>
      <trkpt lat="45.99019018" lon="6.97672295"><ele>2521.0</ele></trkpt>
      <trkpt lat="45.98931243" lon="6.97645121"><ele>2544.6</ele></trkpt>
      <trkpt lat="45.98859779" lon="6.97566558"><ele>2567.2</ele></trkpt>
      <trkpt lat="45.98814399" lon="6.97647627"><ele>2593.2</ele></trkpt>
      <trkpt lat="45.98783562" lon="6.97621023"><ele>2606.8</ele></trkpt>
      <trkpt lat="45.98873760" lon="6.97908137"><ele>2640.0</ele></trkpt>
      <trkpt lat="45.98804701" lon="6.97973063"><ele>2676.6</ele></trkpt>
      <trkpt lat="45.98765935" lon="6.98054577"><ele>2700.6</ele></trkpt>
      <trkpt lat="45.98677380" lon="6.98113603"><ele>2739.0</ele></trkpt>
      <trkpt lat="45.98607433" lon="6.98204571"><ele>2771.0</ele></trkpt>
      <trkpt lat="45.98584819" lon="6.98368966"><ele>2792.0</ele></trkpt>
      <trkpt lat="45.98335147" lon="6.98668837"><ele>2848.8</ele></trkpt>
      <trkpt lat="45.98254077" lon="6.98900839"><ele>2871.0</ele></trkpt>
      <trkpt lat="45.98227557" lon="6.98925692"><ele>2873.4</ele></trkpt>
      <trkpt lat="45.98105516" lon="6.99404256"><ele>2929.2</ele></trkpt>
      <trkpt lat="45.98106313" lon="6.99523464"><ele>2939.8</ele></trkpt>
      <trkpt lat="45.98167383" lon="6.99868354"><ele>2979.0</ele></trkpt>
      <trkpt lat="45.98296607" lon="7.00067357"><ele>3010.2</ele></trkpt>
      <trkpt lat="45.98488016" lon="7.00233746"><ele>3047.8</ele></trkpt>
      <trkpt lat="45.98756882" lon="7.00942797"><ele>3166.0</ele></trkpt>
      <trkpt lat="45.98789438" lon="7.00963894"><ele>3181.2</ele></trkpt>
      <trkpt lat="45.98842822" lon="7.01099924"><ele>3245.6</ele></trkpt>
      <trkpt lat="45.98871798" lon="7.01102329"><ele>3254.6</ele></trkpt>
      <trkpt lat="45.98845353" lon="7.01177037"><ele>3285.8</ele></trkpt>
      <trkpt lat="45.99154436" lon="7.01411814"><ele>3347.0</ele></trkpt>
      <trkpt lat="45.99297607" lon="7.01230447"><ele>3410.6</ele></trkpt>
      <trkpt lat="45.99479134" lon="7.01079514"><ele>3495.4</ele></trkpt>
      <trkpt lat="45.99434660" lon="7.01028099"><ele>3525.0</ele></trkpt>
    </trkseg>
  </trk>
</gpx>