<?xml version="1.0" encoding="UTF-8"?>
<gpx version="1.1" creator="AlpHD-batch" xmlns="http://www.topografix.com/GPX/1/1">
  <trk>
    <name>Traversée Tricot → Aiguille de Bionnassay → Mont Blanc</name>
    <trkseg>
      <trkpt lat="45.8659556" lon="6.7675968"><ele>1430.1</ele></trkpt>
      <trkpt lat="45.8659655" lon="6.7679864"><ele>1430.5</ele></trkpt>
      <trkpt lat="45.8659741" lon="6.7683743"><ele>1430.6</ele></trkpt>
      <trkpt lat="45.8659835" lon="6.7687542"><ele>1430.3</ele></trkpt>
      <trkpt lat="45.8659926" lon="6.7691189"><ele>1430.0</ele></trkpt>
      <trkpt lat="45.8659710" lon="6.7692764"><ele>1429.7</ele></trkpt>
      <trkpt lat="45.8659141" lon="6.7696542"><ele>1429.2</ele></trkpt>
      <trkpt lat="45.8658199" lon="6.7698455"><ele>1428.6</ele></trkpt>
      <trkpt lat="45.8658143" lon="6.7698497"><ele>1427.6</ele></trkpt>
      <trkpt lat="45.8655841" lon="6.7700381"><ele>1426.9</ele></trkpt>
      <trkpt lat="45.8653506" lon="6.7702275"><ele>1426.3</ele></trkpt>
      <trkpt lat="45.8653249" lon="6.7702335"><ele>1426.1</ele></trkpt>
      <trkpt lat="45.8650620" lon="6.7703328"><ele>1426.7</ele></trkpt>
      <trkpt lat="45.8649894" lon="6.7702812"><ele>1427.4</ele></trkpt>
      <trkpt lat="45.8649854" lon="6.7701324"><ele>1428.6</ele></trkpt>
      <trkpt lat="45.8650127" lon="6.7697416"><ele>1429.9</ele></trkpt>
      <trkpt lat="45.8650054" lon="6.7695391"><ele>1431.5</ele></trkpt>
      <trkpt lat="45.8649538" lon="6.7693836"><ele>1433.7</ele></trkpt>
      <trkpt lat="45.8647491" lon="6.7693499"><ele>1435.9</ele></trkpt>
      <trkpt lat="45.8647154" lon="6.7693580"><ele>1438.0</ele></trkpt>
      <trkpt lat="45.8644385" lon="6.7694158"><ele>1439.9</ele></trkpt>
      <trkpt lat="45.8641806" lon="6.7694827"><ele>1441.4</ele></trkpt>
      <trkpt lat="45.8639123" lon="6.7695346"><ele>1443.1</ele></trkpt>
      <trkpt lat="45.8636498" lon="6.7694964"><ele>1444.5</ele></trkpt>
      <trkpt lat="45.8636205" lon="6.7696602"><ele>1445.7</ele></trkpt>
      <trkpt lat="45.8636252" lon="6.7696899"><ele>1447.2</ele></trkpt>
      <trkpt lat="45.8636998" lon="6.7700571"><ele>1448.3</ele></trkpt>
      <trkpt lat="45.8637698" lon="6.7704297"><ele>1449.7</ele></trkpt>
      <trkpt lat="45.8637863" lon="6.7704935"><ele>1450.9</ele></trkpt>
      <trkpt lat="45.8638603" lon="6.7708528"><ele>1451.9</ele></trkpt>
      <trkpt lat="45.8639543" lon="6.7710786"><ele>1452.5</ele></trkpt>
      <trkpt lat="45.8640186" lon="6.7713023"><ele>1452.8</ele></trkpt>
      <trkpt lat="45.8641162" lon="6.7716632"><ele>1453.2</ele></trkpt>
      <trkpt lat="45.8641648" lon="6.7717835"><ele>1454.4</ele></trkpt>
      <trkpt lat="45.8643188" lon="6.7721197"><ele>1455.2</ele></trkpt>
      <trkpt lat="45.8643276" lon="6.7721475"><ele>1456.4</ele></trkpt>
      <trkpt lat="45.8644383" lon="6.7725110"><ele>1457.3</ele></trkpt>
      <trkpt lat="45.8645310" lon="6.7728834"><ele>1458.2</ele></trkpt>
      <trkpt lat="45.8646308" lon="6.7732370"><ele>1459.7</ele></trkpt>
      <trkpt lat="45.8645614" lon="6.7733687"><ele>1462.1</ele></trkpt>
      <trkpt lat="45.8644031" lon="6.7736721"><ele>1465.1</ele></trkpt>
      <trkpt lat="45.8643947" lon="6.7736886"><ele>1468.6</ele></trkpt>
      <trkpt lat="45.8642192" lon="6.7739916"><ele>1471.5</ele></trkpt>
      <trkpt lat="45.8640672" lon="6.7742935"><ele>1474.6</ele></trkpt>
      <trkpt lat="45.8640308" lon="6.7744438"><ele>1478.8</ele></trkpt>
      <trkpt lat="45.8639481" lon="6.7748123"><ele>1483.1</ele></trkpt>
      <trkpt lat="45.8639290" lon="6.7748692"><ele>1488.3</ele></trkpt>
      <trkpt lat="45.8638200" lon="6.7752250"><ele>1494.1</ele></trkpt>
      <trkpt lat="45.8637211" lon="6.7755711"><ele>1500.0</ele></trkpt>
      <trkpt lat="45.8637039" lon="6.7757203"><ele>1505.8</ele></trkpt>
      <trkpt lat="45.8636928" lon="6.7761374"><ele>1510.9</ele></trkpt>
      <trkpt lat="45.8636871" lon="6.7764909"><ele>1517.1</ele></trkpt>
      <trkpt lat="45.8635608" lon="6.7768268"><ele>1523.7</ele></trkpt>
      <trkpt lat="45.8635297" lon="6.7770154"><ele>1530.2</ele></trkpt>
      <trkpt lat="45.8635368" lon="6.7770872"><ele>1536.7</ele></trkpt>
      <trkpt lat="45.8635777" lon="6.7774562"><ele>1543.0</ele></trkpt>
      <trkpt lat="45.8635866" lon="6.7777070"><ele>1548.9</ele></trkpt>
      <trkpt lat="45.8635853" lon="6.7780970"><ele>1554.2</ele></trkpt>
      <trkpt lat="45.8635617" lon="6.7781179"><ele>1559.2</ele></trkpt>
      <trkpt lat="45.8633658" lon="6.7783425"><ele>1564.3</ele></trkpt>
      <trkpt lat="45.8633134" lon="6.7784460"><ele>1569.3</ele></trkpt>
      <trkpt lat="45.8633163" lon="6.7784768"><ele>1574.1</ele></trkpt>
      <trkpt lat="45.8633226" lon="6.7785433"><ele>1577.8</ele></trkpt>
      <trkpt lat="45.8633246" lon="6.7785619"><ele>1582.9</ele></trkpt>
      <trkpt lat="45.8633478" lon="6.7789334"><ele>1587.3</ele></trkpt>
      <trkpt lat="45.8632585" lon="6.7790996"><ele>1592.5</ele></trkpt>
      <trkpt lat="45.8632573" lon="6.7791346"><ele>1598.5</ele></trkpt>
      <trkpt lat="45.8632437" lon="6.7795238"><ele>1605.1</ele></trkpt>
      <trkpt lat="45.8632276" lon="6.7795738"><ele>1612.2</ele></trkpt>
      <trkpt lat="45.8631144" lon="6.7799436"><ele>1619.1</ele></trkpt>
      <trkpt lat="45.8629843" lon="6.7799950"><ele>1625.8</ele></trkpt>
      <trkpt lat="45.8627953" lon="6.7801327"><ele>1633.9</ele></trkpt>
      <trkpt lat="45.8626936" lon="6.7801949"><ele>1641.4</ele></trkpt>
      <trkpt lat="45.8626839" lon="6.7803605"><ele>1649.2</ele></trkpt>
      <trkpt lat="45.8626276" lon="6.7803896"><ele>1655.7</ele></trkpt>
      <trkpt lat="45.8626151" lon="6.7806763"><ele>1662.3</ele></trkpt>
      <trkpt lat="45.8625328" lon="6.7808782"><ele>1669.0</ele></trkpt>
      <trkpt lat="45.8625272" lon="6.7810177"><ele>1675.4</ele></trkpt>
      <trkpt lat="45.8625273" lon="6.7811098"><ele>1681.7</ele></trkpt>
      <trkpt lat="45.8625334" lon="6.7814788"><ele>1688.1</ele></trkpt>
      <trkpt lat="45.8625444" lon="6.7818659"><ele>1694.8</ele></trkpt>
      <trkpt lat="45.8625348" lon="6.7819085"><ele>1700.8</ele></trkpt>
      <trkpt lat="45.8624618" lon="6.7823106"><ele>1707.2</ele></trkpt>
      <trkpt lat="45.8624362" lon="6.7823674"><ele>1714.2</ele></trkpt>
      <trkpt lat="45.8622845" lon="6.7826966"><ele>1720.6</ele></trkpt>
      <trkpt lat="45.8622249" lon="6.7828051"><ele>1726.1</ele></trkpt>
      <trkpt lat="45.8621110" lon="6.7829558"><ele>1731.7</ele></trkpt>
      <trkpt lat="45.8619830" lon="6.7829987"><ele>1736.4</ele></trkpt>
      <trkpt lat="45.8619245" lon="6.7830384"><ele>1742.9</ele></trkpt>
      <trkpt lat="45.8618980" lon="6.7830321"><ele>1748.6</ele></trkpt>
      <trkpt lat="45.8618880" lon="6.7830182"><ele>1754.3</ele></trkpt>
      <trkpt lat="45.8618638" lon="6.7829999"><ele>1759.1</ele></trkpt>
      <trkpt lat="45.8616390" lon="6.7827965"><ele>1763.5</ele></trkpt>
      <trkpt lat="45.8615347" lon="6.7825924"><ele>1768.1</ele></trkpt>
      <trkpt lat="45.8614825" lon="6.7824453"><ele>1773.4</ele></trkpt>
      <trkpt lat="45.8614258" lon="6.7821758"><ele>1779.4</ele></trkpt>
      <trkpt lat="45.8613997" lon="6.7821075"><ele>1786.2</ele></trkpt>
      <trkpt lat="45.8612699" lon="6.7817635"><ele>1791.2</ele></trkpt>
      <trkpt lat="45.8611021" lon="6.7816589"><ele>1795.6</ele></trkpt>
      <trkpt lat="45.8608691" lon="6.7815258"><ele>1800.5</ele></trkpt>
      <trkpt lat="45.8606392" lon="6.7813811"><ele>1806.2</ele></trkpt>
      <trkpt lat="45.8606122" lon="6.7813239"><ele>1812.0</ele></trkpt>
      <trkpt lat="45.8605433" lon="6.7809750"><ele>1817.7</ele></trkpt>
      <trkpt lat="45.8603888" lon="6.7809011"><ele>1823.1</ele></trkpt>
      <trkpt lat="45.8601276" lon="6.7807722"><ele>1828.0</ele></trkpt>
      <trkpt lat="45.8600247" lon="6.7806476"><ele>1832.5</ele></trkpt>
      <trkpt lat="45.8598121" lon="6.7804121"><ele>1836.9</ele></trkpt>
      <trkpt lat="45.8595892" lon="6.7801746"><ele>1841.5</ele></trkpt>
      <trkpt lat="45.8594944" lon="6.7801234"><ele>1845.1</ele></trkpt>
      <trkpt lat="45.8592310" lon="6.7799774"><ele>1848.7</ele></trkpt>
      <trkpt lat="45.8591545" lon="6.7798391"><ele>1852.5</ele></trkpt>
      <trkpt lat="45.8589539" lon="6.7796560"><ele>1856.5</ele></trkpt>
      <trkpt lat="45.8589332" lon="6.7796171"><ele>1861.0</ele></trkpt>
      <trkpt lat="45.8587914" lon="6.7792924"><ele>1865.3</ele></trkpt>
      <trkpt lat="45.8585879" lon="6.7790990"><ele>1870.1</ele></trkpt>
      <trkpt lat="45.8584816" lon="6.7789266"><ele>1875.3</ele></trkpt>
      <trkpt lat="45.8583087" lon="6.7786313"><ele>1880.4</ele></trkpt>
      <trkpt lat="45.8582523" lon="6.7785844"><ele>1886.5</ele></trkpt>
      <trkpt lat="45.8579958" lon="6.7784170"><ele>1892.2</ele></trkpt>
      <trkpt lat="45.8578805" lon="6.7783200"><ele>1897.2</ele></trkpt>
      <trkpt lat="45.8578255" lon="6.7782063"><ele>1902.4</ele></trkpt>
      <trkpt lat="45.8576974" lon="6.7778730"><ele>1907.1</ele></trkpt>
      <trkpt lat="45.8576604" lon="6.7777735"><ele>1912.4</ele></trkpt>
      <trkpt lat="45.8576590" lon="6.7777716"><ele>1917.0</ele></trkpt>
      <trkpt lat="45.8574831" lon="6.7774990"><ele>1921.4</ele></trkpt>
      <trkpt lat="45.8573415" lon="6.7773294"><ele>1925.9</ele></trkpt>
      <trkpt lat="45.8571317" lon="6.7770618"><ele>1929.6</ele></trkpt>
      <trkpt lat="45.8570136" lon="6.7768281"><ele>1933.6</ele></trkpt>
      <trkpt lat="45.8569640" lon="6.7767411"><ele>1937.6</ele></trkpt>
      <trkpt lat="45.8567636" lon="6.7764752"><ele>1941.5</ele></trkpt>
      <trkpt lat="45.8567198" lon="6.7764246"><ele>1945.1</ele></trkpt>
      <trkpt lat="45.8565180" lon="6.7761663"><ele>1948.9</ele></trkpt>
      <trkpt lat="45.8565009" lon="6.7761356"><ele>1952.7</ele></trkpt>
      <trkpt lat="45.8563382" lon="6.7758067"><ele>1956.4</ele></trkpt>
      <trkpt lat="45.8562915" lon="6.7757221"><ele>1960.1</ele></trkpt>
      <trkpt lat="45.8561184" lon="6.7754316"><ele>1964.1</ele></trkpt>
      <trkpt lat="45.8560253" lon="6.7753132"><ele>1968.4</ele></trkpt>
      <trkpt lat="45.8559814" lon="6.7752387"><ele>1972.8</ele></trkpt>
      <trkpt lat="45.8558032" lon="6.7749424"><ele>1977.1</ele></trkpt>
      <trkpt lat="45.8556993" lon="6.7748310"><ele>1981.7</ele></trkpt>
      <trkpt lat="45.8554726" lon="6.7745985"><ele>1985.8</ele></trkpt>
      <trkpt lat="45.8553961" lon="6.7745246"><ele>1989.6</ele></trkpt>
      <trkpt lat="45.8551719" lon="6.7743106"><ele>1993.6</ele></trkpt>
      <trkpt lat="45.8549883" lon="6.7740731"><ele>1997.6</ele></trkpt>
      <trkpt lat="45.8548620" lon="6.7739851"><ele>2001.7</ele></trkpt>
      <trkpt lat="45.8548498" lon="6.7739736"><ele>2005.9</ele></trkpt>
      <trkpt lat="45.8546270" lon="6.7737847"><ele>2010.2</ele></trkpt>
      <trkpt lat="45.8543939" lon="6.7735902"><ele>2014.6</ele></trkpt>
      <trkpt lat="45.8541546" lon="6.7734042"><ele>2018.8</ele></trkpt>
      <trkpt lat="45.8539109" lon="6.7732668"><ele>2022.9</ele></trkpt>
      <trkpt lat="45.8536390" lon="6.7731277"><ele>2027.8</ele></trkpt>
      <trkpt lat="45.8533828" lon="6.7730028"><ele>2032.9</ele></trkpt>
      <trkpt lat="45.8533130" lon="6.7729490"><ele>2038.1</ele></trkpt>
      <trkpt lat="45.8530869" lon="6.7727546"><ele>2043.6</ele></trkpt>
      <trkpt lat="45.8528589" lon="6.7725668"><ele>2048.6</ele></trkpt>
      <trkpt lat="45.8527124" lon="6.7723570"><ele>2054.1</ele></trkpt>
      <trkpt lat="45.8524856" lon="6.7722184"><ele>2059.7</ele></trkpt>
      <trkpt lat="45.8522488" lon="6.7720711"><ele>2066.2</ele></trkpt>
      <trkpt lat="45.8520833" lon="6.7718739"><ele>2072.5</ele></trkpt>
      <trkpt lat="45.8518627" lon="6.7716882"><ele>2078.6</ele></trkpt>
      <trkpt lat="45.8516372" lon="6.7714814"><ele>2084.7</ele></trkpt>
      <trkpt lat="45.8514082" lon="6.7712758"><ele>2090.5</ele></trkpt>
      <trkpt lat="45.8512777" lon="6.7711105"><ele>2096.4</ele></trkpt>
      <trkpt lat="45.8510878" lon="6.7708669"><ele>2102.6</ele></trkpt>
      <trkpt lat="45.8509785" lon="6.7706234"><ele>2108.2</ele></trkpt>
      <trkpt lat="45.8509144" lon="6.7705483"><ele>2113.1</ele></trkpt>
      <trkpt lat="45.8506985" lon="6.7702946"><ele>2117.3</ele></trkpt>
      <trkpt lat="45.8504948" lon="6.7700675"><ele>2123.2</ele></trkpt>
      <trkpt lat="45.8503034" lon="6.7702576"><ele>2130.1</ele></trkpt>
      <trkpt lat="45.8502618" lon="6.7703644"><ele>2137.6</ele></trkpt>
      <trkpt lat="45.8501483" lon="6.7706890"><ele>2147.6</ele></trkpt>
      <trkpt lat="45.8501034" lon="6.7708568"><ele>2157.4</ele></trkpt>
      <trkpt lat="45.8499901" lon="6.7712341"><ele>2167.1</ele></trkpt>
      <trkpt lat="45.8499655" lon="6.7713635"><ele>2178.6</ele></trkpt>
      <trkpt lat="45.8498788" lon="6.7717669"><ele>2192.4</ele></trkpt>
      <trkpt lat="45.8498216" lon="6.7718169"><ele>2206.6</ele></trkpt>
      <trkpt lat="45.8497918" lon="6.7718824"><ele>2221.2</ele></trkpt>
      <trkpt lat="45.8496327" lon="6.7722044"><ele>2235.6</ele></trkpt>
      <trkpt lat="45.8495343" lon="6.7725101"><ele>2250.8</ele></trkpt>
      <trkpt lat="45.8495303" lon="6.7726692"><ele>2264.7</ele></trkpt>
      <trkpt lat="45.8495240" lon="6.7730557"><ele>2279.3</ele></trkpt>
      <trkpt lat="45.8495312" lon="6.7734613"><ele>2292.7</ele></trkpt>
      <trkpt lat="45.8494379" lon="6.7736618"><ele>2306.2</ele></trkpt>
      <trkpt lat="45.8492871" lon="6.7739824"><ele>2318.8</ele></trkpt>
      <trkpt lat="45.8491404" lon="6.7743284"><ele>2330.9</ele></trkpt>
      <trkpt lat="45.8491186" lon="6.7744098"><ele>2342.2</ele></trkpt>
      <trkpt lat="45.8490226" lon="6.7747673"><ele>2353.1</ele></trkpt>
      <trkpt lat="45.8488757" lon="6.7748781"><ele>2363.9</ele></trkpt>
      <trkpt lat="45.8488656" lon="6.7749007"><ele>2374.2</ele></trkpt>
      <trkpt lat="45.8486742" lon="6.7751782"><ele>2383.5</ele></trkpt>
      <trkpt lat="45.8486358" lon="6.7753261"><ele>2393.8</ele></trkpt>
      <trkpt lat="45.8487088" lon="6.7755282"><ele>2401.9</ele></trkpt>
      <trkpt lat="45.8487304" lon="6.7757130"><ele>2409.8</ele></trkpt>
      <trkpt lat="45.8487224" lon="6.7758626"><ele>2418.7</ele></trkpt>
      <trkpt lat="45.8487253" lon="6.7759435"><ele>2427.7</ele></trkpt>
      <trkpt lat="45.8487212" lon="6.7759577"><ele>2437.9</ele></trkpt>
      <trkpt lat="45.8486329" lon="6.7763155"><ele>2447.6</ele></trkpt>
      <trkpt lat="45.8486113" lon="6.7764465"><ele>2457.7</ele></trkpt>
      <trkpt lat="45.8485532" lon="6.7768286"><ele>2469.6</ele></trkpt>
      <trkpt lat="45.8484964" lon="6.7772174"><ele>2481.8</ele></trkpt>
      <trkpt lat="45.8484351" lon="6.7774624"><ele>2496.4</ele></trkpt>
      <trkpt lat="45.8483451" lon="6.7778468"><ele>2512.3</ele></trkpt>
      <trkpt lat="45.8483451" lon="6.7780133"><ele>2529.6</ele></trkpt>
      <trkpt lat="45.8483280" lon="6.7781108"><ele>2548.0</ele></trkpt>
      <trkpt lat="45.8482727" lon="6.7784873"><ele>2567.1</ele></trkpt>
      <trkpt lat="45.8482077" lon="6.7788616"><ele>2585.2</ele></trkpt>
      <trkpt lat="45.8481327" lon="6.7792506"><ele>2603.7</ele></trkpt>
      <trkpt lat="45.8480643" lon="6.7796190"><ele>2622.0</ele></trkpt>
      <trkpt lat="45.8479980" lon="6.7800043"><ele>2640.4</ele></trkpt>
      <trkpt lat="45.8479633" lon="6.7800713"><ele>2657.1</ele></trkpt>
      <trkpt lat="45.8478085" lon="6.7803695"><ele>2671.6</ele></trkpt>
      <trkpt lat="45.8477351" lon="6.7805599"><ele>2684.9</ele></trkpt>
      <trkpt lat="45.8475850" lon="6.7806700"><ele>2697.3</ele></trkpt>
      <trkpt lat="45.8475384" lon="6.7807364"><ele>2708.5</ele></trkpt>
      <trkpt lat="45.8475163" lon="6.7808591"><ele>2720.7</ele></trkpt>
      <trkpt lat="45.8474855" lon="6.7809784"><ele>2731.0</ele></trkpt>
      <trkpt lat="45.8473872" lon="6.7813242"><ele>2741.7</ele></trkpt>
      <trkpt lat="45.8472673" lon="6.7816723"><ele>2752.2</ele></trkpt>
      <trkpt lat="45.8471521" lon="6.7818443"><ele>2761.6</ele></trkpt>
      <trkpt lat="45.8469386" lon="6.7821005"><ele>2770.4</ele></trkpt>
      <trkpt lat="45.8466951" lon="6.7821632"><ele>2778.5</ele></trkpt>
      <trkpt lat="45.8466280" lon="6.7822204"><ele>2784.9</ele></trkpt>
      <trkpt lat="45.8464868" lon="6.7823044"><ele>2788.9</ele></trkpt>
      <trkpt lat="45.8462348" lon="6.7824595"><ele>2791.1</ele></trkpt>
      <trkpt lat="45.8459987" lon="6.7826200"><ele>2792.9</ele></trkpt>
      <trkpt lat="45.8458470" lon="6.7827005"><ele>2791.3</ele></trkpt>
      <trkpt lat="45.8457376" lon="6.7827880"><ele>2790.2</ele></trkpt>
      <trkpt lat="45.8456796" lon="6.7828958"><ele>2788.7</ele></trkpt>
      <trkpt lat="45.8456646" lon="6.7829166"><ele>2787.1</ele></trkpt>
      <trkpt lat="45.8454619" lon="6.7831939"><ele>2784.9</ele></trkpt>
      <trkpt lat="45.8453737" lon="6.7833087"><ele>2783.1</ele></trkpt>
      <trkpt lat="45.8453290" lon="6.7835321"><ele>2781.0</ele></trkpt>
      <trkpt lat="45.8453115" lon="6.7836058"><ele>2779.4</ele></trkpt>
      <trkpt lat="45.8452270" lon="6.7839857"><ele>2779.3</ele></trkpt>
      <trkpt lat="45.8452295" lon="6.7841368"><ele>2780.3</ele></trkpt>
      <trkpt lat="45.8452261" lon="6.7841878"><ele>2779.3</ele></trkpt>
      <trkpt lat="45.8451752" lon="6.7845759"><ele>2778.7</ele></trkpt>
      <trkpt lat="45.8451802" lon="6.7848699"><ele>2778.8</ele></trkpt>
      <trkpt lat="45.8451444" lon="6.7849922"><ele>2779.0</ele></trkpt>
      <trkpt lat="45.8450198" lon="6.7853382"><ele>2778.0</ele></trkpt>
      <trkpt lat="45.8449970" lon="6.7855674"><ele>2779.2</ele></trkpt>
      <trkpt lat="45.8449803" lon="6.7857306"><ele>2782.2</ele></trkpt>
      <trkpt lat="45.8449889" lon="6.7858442"><ele>2783.5</ele></trkpt>
      <trkpt lat="45.8450016" lon="6.7862241"><ele>2785.3</ele></trkpt>
      <trkpt lat="45.8450151" lon="6.7864975"><ele>2790.2</ele></trkpt>
      <trkpt lat="45.8449872" lon="6.7867218"><ele>2795.6</ele></trkpt>
      <trkpt lat="45.8449643" lon="6.7868069"><ele>2803.4</ele></trkpt>
      <trkpt lat="45.8448516" lon="6.7871572"><ele>2813.0</ele></trkpt>
      <trkpt lat="45.8448034" lon="6.7873549"><ele>2823.6</ele></trkpt>
      <trkpt lat="45.8446992" lon="6.7875696"><ele>2833.8</ele></trkpt>
      <trkpt lat="45.8445682" lon="6.7878815"><ele>2842.9</ele></trkpt>
      <trkpt lat="45.8444364" lon="6.7882119"><ele>2853.5</ele></trkpt>
      <trkpt lat="45.8444233" lon="6.7882747"><ele>2865.0</ele></trkpt>
      <trkpt lat="45.8443690" lon="6.7886397"><ele>2874.5</ele></trkpt>
      <trkpt lat="45.8443545" lon="6.7887007"><ele>2883.6</ele></trkpt>
      <trkpt lat="45.8442309" lon="6.7890291"><ele>2892.2</ele></trkpt>
      <trkpt lat="45.8440908" lon="6.7893717"><ele>2898.5</ele></trkpt>
      <trkpt lat="45.8440709" lon="6.7894046"><ele>2906.3</ele></trkpt>
      <trkpt lat="45.8440534" lon="6.7894296"><ele>2914.9</ele></trkpt>
      <trkpt lat="45.8438730" lon="6.7897143"><ele>2922.9</ele></trkpt>
      <trkpt lat="45.8438611" lon="6.7897403"><ele>2931.1</ele></trkpt>
      <trkpt lat="45.8437182" lon="6.7900544"><ele>2939.7</ele></trkpt>
      <trkpt lat="45.8435605" lon="6.7903971"><ele>2949.1</ele></trkpt>
      <trkpt lat="45.8435085" lon="6.7904683"><ele>2958.6</ele></trkpt>
      <trkpt lat="45.8433110" lon="6.7907203"><ele>2968.8</ele></trkpt>
      <trkpt lat="45.8431179" lon="6.7909742"><ele>2981.3</ele></trkpt>
      <trkpt lat="45.8429261" lon="6.7912291"><ele>2992.0</ele></trkpt>
      <trkpt lat="45.8428681" lon="6.7915227"><ele>3000.2</ele></trkpt>
      <trkpt lat="45.8427800" lon="6.7918878"><ele>3008.9</ele></trkpt>
      <trkpt lat="45.8426607" lon="6.7921600"><ele>3016.6</ele></trkpt>
      <trkpt lat="45.8426596" lon="6.7921856"><ele>3022.5</ele></trkpt>
      <trkpt lat="45.8426392" lon="6.7922638"><ele>3027.3</ele></trkpt>
      <trkpt lat="45.8425754" lon="6.7926488"><ele>3031.5</ele></trkpt>
      <trkpt lat="45.8424873" lon="6.7930267"><ele>3032.3</ele></trkpt>
      <trkpt lat="45.8424523" lon="6.7932875"><ele>3031.5</ele></trkpt>
      <trkpt lat="45.8424021" lon="6.7936630"><ele>3030.8</ele></trkpt>
      <trkpt lat="45.8423589" lon="6.7940518"><ele>3031.8</ele></trkpt>
      <trkpt lat="45.8423603" lon="6.7943566"><ele>3031.3</ele></trkpt>
      <trkpt lat="45.8423503" lon="6.7945025"><ele>3031.7</ele></trkpt>
      <trkpt lat="45.8423289" lon="6.7949028"><ele>3033.7</ele></trkpt>
      <trkpt lat="45.8422347" lon="6.7951554"><ele>3035.4</ele></trkpt>
      <trkpt lat="45.8422063" lon="6.7952705"><ele>3037.8</ele></trkpt>
      <trkpt lat="45.8421191" lon="6.7956372"><ele>3041.0</ele></trkpt>
      <trkpt lat="45.8420552" lon="6.7958872"><ele>3044.7</ele></trkpt>
      <trkpt lat="45.8420215" lon="6.7959646"><ele>3049.2</ele></trkpt>
      <trkpt lat="45.8420093" lon="6.7960114"><ele>3054.8</ele></trkpt>
      <trkpt lat="45.8419101" lon="6.7963951"><ele>3062.0</ele></trkpt>
      <trkpt lat="45.8418823" lon="6.7964676"><ele>3069.7</ele></trkpt>
      <trkpt lat="45.8417577" lon="6.7967845"><ele>3077.4</ele></trkpt>
      <trkpt lat="45.8416365" lon="6.7971150"><ele>3086.5</ele></trkpt>
      <trkpt lat="45.8415646" lon="6.7972299"><ele>3099.4</ele></trkpt>
      <trkpt lat="45.8413840" lon="6.7975138"><ele>3113.5</ele></trkpt>
      <trkpt lat="45.8412042" lon="6.7978052"><ele>3126.2</ele></trkpt>
      <trkpt lat="45.8410340" lon="6.7980847"><ele>3137.8</ele></trkpt>
      <trkpt lat="45.8409054" lon="6.7983579"><ele>3146.3</ele></trkpt>
      <trkpt lat="45.8407593" lon="6.7986850"><ele>3154.3</ele></trkpt>
      <trkpt lat="45.8407449" lon="6.7989441"><ele>3159.4</ele></trkpt>
      <trkpt lat="45.8407112" lon="6.7993192"><ele>3163.5</ele></trkpt>
      <trkpt lat="45.8406721" lon="6.7997207"><ele>3168.0</ele></trkpt>
      <trkpt lat="45.8406016" lon="6.8000205"><ele>3168.9</ele></trkpt>
      <trkpt lat="45.8405378" lon="6.8004010"><ele>3168.9</ele></trkpt>
      <trkpt lat="45.8404513" lon="6.8007873"><ele>3169.2</ele></trkpt>
      <trkpt lat="45.8403853" lon="6.8011510"><ele>3170.3</ele></trkpt>
      <trkpt lat="45.8403729" lon="6.8012854"><ele>3173.2</ele></trkpt>
      <trkpt lat="45.8403638" lon="6.8013227"><ele>3178.0</ele></trkpt>
      <trkpt lat="45.8402773" lon="6.8016832"><ele>3185.0</ele></trkpt>
      <trkpt lat="45.8401763" lon="6.8020411"><ele>3194.3</ele></trkpt>
      <trkpt lat="45.8401151" lon="6.8021516"><ele>3204.0</ele></trkpt>
      <trkpt lat="45.8399515" lon="6.8024468"><ele>3215.6</ele></trkpt>
      <trkpt lat="45.8397667" lon="6.8027588"><ele>3229.8</ele></trkpt>
      <trkpt lat="45.8396339" lon="6.8030887"><ele>3246.8</ele></trkpt>
      <trkpt lat="45.8395215" lon="6.8032895"><ele>3266.7</ele></trkpt>
      <trkpt lat="45.8393528" lon="6.8036044"><ele>3286.6</ele></trkpt>
      <trkpt lat="45.8391705" lon="6.8039198"><ele>3308.6</ele></trkpt>
      <trkpt lat="45.8389901" lon="6.8042148"><ele>3331.6</ele></trkpt>
      <trkpt lat="45.8388167" lon="6.8045135"><ele>3354.2</ele></trkpt>
      <trkpt lat="45.8386511" lon="6.8047941"><ele>3377.2</ele></trkpt>
      <trkpt lat="45.8385091" lon="6.8049488"><ele>3399.9</ele></trkpt>
      <trkpt lat="45.8382928" lon="6.8051808"><ele>3421.9</ele></trkpt>
      <trkpt lat="45.8380784" lon="6.8053878"><ele>3440.9</ele></trkpt>
      <trkpt lat="45.8378702" lon="6.8056398"><ele>3460.6</ele></trkpt>
      <trkpt lat="45.8377916" lon="6.8058473"><ele>3482.7</ele></trkpt>
      <trkpt lat="45.8376586" lon="6.8061529"><ele>3504.0</ele></trkpt>
      <trkpt lat="45.8376585" lon="6.8061531"><ele>3526.2</ele></trkpt>
      <trkpt lat="45.8375192" lon="6.8065231"><ele>3546.4</ele></trkpt>
      <trkpt lat="45.8373968" lon="6.8068509"><ele>3564.1</ele></trkpt>
      <trkpt lat="45.8372754" lon="6.8071950"><ele>3581.3</ele></trkpt>
      <trkpt lat="45.8371524" lon="6.8075490"><ele>3596.4</ele></trkpt>
      <trkpt lat="45.8371509" lon="6.8077654"><ele>3612.5</ele></trkpt>
      <trkpt lat="45.8371518" lon="6.8078406"><ele>3624.2</ele></trkpt>
      <trkpt lat="45.8371417" lon="6.8082190"><ele>3634.5</ele></trkpt>
      <trkpt lat="45.8371331" lon="6.8086108"><ele>3642.7</ele></trkpt>
      <trkpt lat="45.8371550" lon="6.8089108"><ele>3648.1</ele></trkpt>
      <trkpt lat="45.8371555" lon="6.8091100"><ele>3652.7</ele></trkpt>
      <trkpt lat="45.8371574" lon="6.8094947"><ele>3660.4</ele></trkpt>
      <trkpt lat="45.8371581" lon="6.8098932"><ele>3667.9</ele></trkpt>
      <trkpt lat="45.8371579" lon="6.8102771"><ele>3675.7</ele></trkpt>
      <trkpt lat="45.8371470" lon="6.8106746"><ele>3683.2</ele></trkpt>
      <trkpt lat="45.8371598" lon="6.8110680"><ele>3691.4</ele></trkpt>
      <trkpt lat="45.8371560" lon="6.8114670"><ele>3698.7</ele></trkpt>
      <trkpt lat="45.8371563" lon="6.8118199"><ele>3705.6</ele></trkpt>
      <trkpt lat="45.8371703" lon="6.8119082"><ele>3714.0</ele></trkpt>
      <trkpt lat="45.8372333" lon="6.8122829"><ele>3724.1</ele></trkpt>
      <trkpt lat="45.8372566" lon="6.8125625"><ele>3731.3</ele></trkpt>
      <trkpt lat="45.8373018" lon="6.8129383"><ele>3739.0</ele></trkpt>
      <trkpt lat="45.8373470" lon="6.8133199"><ele>3748.1</ele></trkpt>
      <trkpt lat="45.8373047" lon="6.8135658"><ele>3758.1</ele></trkpt>
      <trkpt lat="45.8373013" lon="6.8135933"><ele>3769.3</ele></trkpt>
      <trkpt lat="45.8372584" lon="6.8139765"><ele>3783.2</ele></trkpt>
      <trkpt lat="45.8372140" lon="6.8143660"><ele>3799.0</ele></trkpt>
      <trkpt lat="45.8371654" lon="6.8147504"><ele>3814.3</ele></trkpt>
      <trkpt lat="45.8371180" lon="6.8151354"><ele>3829.3</ele></trkpt>
      <trkpt lat="45.8370819" lon="6.8155225"><ele>3845.6</ele></trkpt>
      <trkpt lat="45.8370452" lon="6.8158971"><ele>3863.0</ele></trkpt>
      <trkpt lat="45.8369925" lon="6.8162950"><ele>3880.9</ele></trkpt>
      <trkpt lat="45.8369556" lon="6.8164707"><ele>3897.9</ele></trkpt>
      <trkpt lat="45.8369170" lon="6.8165520"><ele>3917.8</ele></trkpt>
      <trkpt lat="45.8367524" lon="6.8168662"><ele>3935.8</ele></trkpt>
      <trkpt lat="45.8365806" lon="6.8171747"><ele>3951.9</ele></trkpt>
      <trkpt lat="45.8364163" lon="6.8174621"><ele>3967.6</ele></trkpt>
      <trkpt lat="45.8362471" lon="6.8177629"><ele>3982.7</ele></trkpt>
      <trkpt lat="45.8360774" lon="6.8180793"><ele>3995.3</ele></trkpt>
      <trkpt lat="45.8360852" lon="6.8181998"><ele>4004.2</ele></trkpt>
      <trkpt lat="45.8361099" lon="6.8185832"><ele>4011.0</ele></trkpt>
      <trkpt lat="45.8361434" lon="6.8186777"><ele>4016.9</ele></trkpt>
      <trkpt lat="45.8362725" lon="6.8190228"><ele>4017.7</ele></trkpt>
      <trkpt lat="45.8364068" lon="6.8193571"><ele>4016.6</ele></trkpt>
      <trkpt lat="45.8364068" lon="6.8193573"><ele>4014.8</ele></trkpt>
      <trkpt lat="45.8365451" lon="6.8196866"><ele>4011.5</ele></trkpt>
      <trkpt lat="45.8366816" lon="6.8200347"><ele>4007.5</ele></trkpt>
      <trkpt lat="45.8368180" lon="6.8203712"><ele>4004.1</ele></trkpt>
      <trkpt lat="45.8369467" lon="6.8206902"><ele>4000.5</ele></trkpt>
      <trkpt lat="45.8370818" lon="6.8210261"><ele>3996.6</ele></trkpt>
      <trkpt lat="45.8372168" lon="6.8213791"><ele>3991.9</ele></trkpt>
      <trkpt lat="45.8373472" lon="6.8217149"><ele>3987.2</ele></trkpt>
      <trkpt lat="45.8374705" lon="6.8220628"><ele>3983.3</ele></trkpt>
      <trkpt lat="45.8375361" lon="6.8222879"><ele>3979.3</ele></trkpt>
      <trkpt lat="45.8376159" lon="6.8226452"><ele>3975.3</ele></trkpt>
      <trkpt lat="45.8376644" lon="6.8230408"><ele>3970.3</ele></trkpt>
      <trkpt lat="45.8376939" lon="6.8234051"><ele>3967.7</ele></trkpt>
      <trkpt lat="45.8377273" lon="6.8237886"><ele>3967.5</ele></trkpt>
      <trkpt lat="45.8377592" lon="6.8241500"><ele>3968.2</ele></trkpt>
      <trkpt lat="45.8373846" lon="6.8299988"><ele>3969.8</ele></trkpt>
      <trkpt lat="45.8373601" lon="6.8301453"><ele>3973.2</ele></trkpt>
      <trkpt lat="45.8372804" lon="6.8305236"><ele>3975.9</ele></trkpt>
      <trkpt lat="45.8372136" lon="6.8308910"><ele>3980.4</ele></trkpt>
      <trkpt lat="45.8372481" lon="6.8311519"><ele>3986.4</ele></trkpt>
      <trkpt lat="45.8372852" lon="6.8315368"><ele>3995.3</ele></trkpt>
      <trkpt lat="45.8373336" lon="6.8319189"><ele>4004.2</ele></trkpt>
      <trkpt lat="45.8374187" lon="6.8322368"><ele>4011.2</ele></trkpt>
      <trkpt lat="45.8374517" lon="6.8325222"><ele>4019.4</ele></trkpt>
      <trkpt lat="45.8375016" lon="6.8329104"><ele>4029.1</ele></trkpt>
      <trkpt lat="45.8375604" lon="6.8332992"><ele>4039.3</ele></trkpt>
      <trkpt lat="45.8375983" lon="6.8334131"><ele>4051.3</ele></trkpt>
      <trkpt lat="45.8377097" lon="6.8337618"><ele>4063.1</ele></trkpt>
      <trkpt lat="45.8378199" lon="6.8340992"><ele>4074.9</ele></trkpt>
      <trkpt lat="45.8379177" lon="6.8344545"><ele>4085.9</ele></trkpt>
      <trkpt lat="45.8380272" lon="6.8348190"><ele>4094.7</ele></trkpt>
      <trkpt lat="45.8381326" lon="6.8351681"><ele>4100.6</ele></trkpt>
      <trkpt lat="45.8382396" lon="6.8355261"><ele>4107.9</ele></trkpt>
      <trkpt lat="45.8383070" lon="6.8356857"><ele>4114.3</ele></trkpt>
      <trkpt lat="45.8384632" lon="6.8359886"><ele>4119.4</ele></trkpt>
      <trkpt lat="45.8385426" lon="6.8360975"><ele>4123.2</ele></trkpt>
      <trkpt lat="45.8387514" lon="6.8363369"><ele>4125.7</ele></trkpt>
      <trkpt lat="45.8389506" lon="6.8365984"><ele>4127.9</ele></trkpt>
      <trkpt lat="45.8391021" lon="6.8368032"><ele>4130.5</ele></trkpt>
      <trkpt lat="45.8391589" lon="6.8370448"><ele>4133.4</ele></trkpt>
      <trkpt lat="45.8391605" lon="6.8370496"><ele>4140.5</ele></trkpt>
      <trkpt lat="45.8392818" lon="6.8373959"><ele>4145.5</ele></trkpt>
      <trkpt lat="45.8394042" lon="6.8377588"><ele>4150.8</ele></trkpt>
      <trkpt lat="45.8395074" lon="6.8381026"><ele>4156.2</ele></trkpt>
      <trkpt lat="45.8396273" lon="6.8384841"><ele>4162.6</ele></trkpt>
      <trkpt lat="45.8397149" lon="6.8386970"><ele>4169.9</ele></trkpt>
      <trkpt lat="45.8398676" lon="6.8390427"><ele>4176.5</ele></trkpt>
      <trkpt lat="45.8399963" lon="6.8393574"><ele>4184.3</ele></trkpt>
      <trkpt lat="45.8401713" lon="6.8396086"><ele>4193.2</ele></trkpt>
      <trkpt lat="45.8403548" lon="6.8399072"><ele>4201.6</ele></trkpt>
      <trkpt lat="45.8405425" lon="6.8401845"><ele>4209.9</ele></trkpt>
      <trkpt lat="45.8406635" lon="6.8404147"><ele>4218.7</ele></trkpt>
      <trkpt lat="45.8408170" lon="6.8407188"><ele>4227.3</ele></trkpt>
      <trkpt lat="45.8408883" lon="6.8409270"><ele>4235.1</ele></trkpt>
      <trkpt lat="45.8408714" lon="6.8411806"><ele>4242.7</ele></trkpt>
      <trkpt lat="45.8408514" lon="6.8415786"><ele>4250.1</ele></trkpt>
      <trkpt lat="45.8408555" lon="6.8416665"><ele>4255.8</ele></trkpt>
      <trkpt lat="45.8408734" lon="6.8420524"><ele>4260.3</ele></trkpt>
      <trkpt lat="45.8408919" lon="6.8424379"><ele>4264.4</ele></trkpt>
      <trkpt lat="45.8408824" lon="6.8426966"><ele>4267.5</ele></trkpt>
      <trkpt lat="45.8408942" lon="6.8427511"><ele>4269.2</ele></trkpt>
      <trkpt lat="45.8409713" lon="6.8431262"><ele>4270.5</ele></trkpt>
      <trkpt lat="45.8410454" lon="6.8435067"><ele>4270.6</ele></trkpt>
      <trkpt lat="45.8411110" lon="6.8438802"><ele>4269.5</ele></trkpt>
      <trkpt lat="45.8411854" lon="6.8442479"><ele>4267.6</ele></trkpt>
      <trkpt lat="45.8412074" lon="6.8444651"><ele>4265.7</ele></trkpt>
      <trkpt lat="45.8412451" lon="6.8448499"><ele>4263.4</ele></trkpt>
      <trkpt lat="45.8412828" lon="6.8452345"><ele>4260.7</ele></trkpt>
      <trkpt lat="45.8413193" lon="6.8456198"><ele>4257.7</ele></trkpt>
      <trkpt lat="45.8413158" lon="6.8456704"><ele>4254.2</ele></trkpt>
      <trkpt lat="45.8412893" lon="6.8460554"><ele>4250.6</ele></trkpt>
      <trkpt lat="45.8412585" lon="6.8464514"><ele>4247.7</ele></trkpt>
      <trkpt lat="45.8412322" lon="6.8468387"><ele>4245.6</ele></trkpt>
      <trkpt lat="45.8412061" lon="6.8472240"><ele>4244.3</ele></trkpt>
      <trkpt lat="45.8411803" lon="6.8476065"><ele>4243.4</ele></trkpt>
      <trkpt lat="45.8410684" lon="6.8478603"><ele>4243.2</ele></trkpt>
      <trkpt lat="45.8409239" lon="6.8481898"><ele>4243.6</ele></trkpt>
      <trkpt lat="45.8407786" lon="6.8485134"><ele>4244.8</ele></trkpt>
      <trkpt lat="45.8406334" lon="6.8488396"><ele>4246.4</ele></trkpt>
      <trkpt lat="45.8404881" lon="6.8491658"><ele>4249.3</ele></trkpt>
      <trkpt lat="45.8404544" lon="6.8492645"><ele>4252.7</ele></trkpt>
      <trkpt lat="45.8403348" lon="6.8496133"><ele>4256.6</ele></trkpt>
      <trkpt lat="45.8403326" lon="6.8496521"><ele>4260.9</ele></trkpt>
      <trkpt lat="45.8403024" lon="6.8500387"><ele>4265.2</ele></trkpt>
      <trkpt lat="45.8402721" lon="6.8504284"><ele>4270.3</ele></trkpt>
      <trkpt lat="45.8402437" lon="6.8508117"><ele>4276.5</ele></trkpt>
      <trkpt lat="45.8402177" lon="6.8511912"><ele>4284.0</ele></trkpt>
      <trkpt lat="45.8401510" lon="6.8512267"><ele>4291.8</ele></trkpt>
      <trkpt lat="45.8398947" lon="6.8513718"><ele>4300.9</ele></trkpt>
      <trkpt lat="45.8397115" lon="6.8514499"><ele>4310.8</ele></trkpt>
      <trkpt lat="45.8394614" lon="6.8515841"><ele>4320.2</ele></trkpt>
      <trkpt lat="45.8394268" lon="6.8516374"><ele>4328.3</ele></trkpt>
      <trkpt lat="45.8392419" lon="6.8519081"><ele>4336.7</ele></trkpt>
      <trkpt lat="45.8390477" lon="6.8521754"><ele>4343.9</ele></trkpt>
      <trkpt lat="45.8392125" lon="6.8524306"><ele>4349.9</ele></trkpt>
      <trkpt lat="45.8391032" lon="6.8521284"><ele>4353.7</ele></trkpt>
      <trkpt lat="45.8389174" lon="6.8519159"><ele>4357.5</ele></trkpt>
      <trkpt lat="45.8387094" lon="6.8516704"><ele>4359.3</ele></trkpt>
      <trkpt lat="45.8389076" lon="6.8518792"><ele>4359.5</ele></trkpt>
      <trkpt lat="45.8391188" lon="6.8521044"><ele>4359.4</ele></trkpt>
      <trkpt lat="45.8393312" lon="6.8523205"><ele>4360.1</ele></trkpt>
      <trkpt lat="45.8393249" lon="6.8523060"><ele>4360.2</ele></trkpt>
      <trkpt lat="45.8393058" lon="6.8522822"><ele>4360.3</ele></trkpt>
      <trkpt lat="45.8391117" lon="6.8520391"><ele>4360.6</ele></trkpt>
      <trkpt lat="45.8390675" lon="6.8520243"><ele>4361.2</ele></trkpt>
      <trkpt lat="45.8390386" lon="6.8520015"><ele>4361.5</ele></trkpt>
      <trkpt lat="45.8390137" lon="6.8520494"><ele>4361.9</ele></trkpt>
      <trkpt lat="45.8389695" lon="6.8520073"><ele>4362.0</ele></trkpt>
      <trkpt lat="45.8390333" lon="6.8520846"><ele>4362.1</ele></trkpt>
      <trkpt lat="45.8392338" lon="6.8523125"><ele>4362.2</ele></trkpt>
      <trkpt lat="45.8391903" lon="6.8522998"><ele>4362.3</ele></trkpt>
      <trkpt lat="45.8391441" lon="6.8522137"><ele>4362.5</ele></trkpt>
      <trkpt lat="45.8390032" lon="6.8521166"><ele>4363.0</ele></trkpt>
      <trkpt lat="45.8389671" lon="6.8521050"><ele>4364.7</ele></trkpt>
      <trkpt lat="45.8387040" lon="6.8520269"><ele>4367.6</ele></trkpt>
      <trkpt lat="45.8385851" lon="6.8520609"><ele>4371.7</ele></trkpt>
      <trkpt lat="45.8383211" lon="6.8521378"><ele>4377.5</ele></trkpt>
      <trkpt lat="45.8381711" lon="6.8523242"><ele>4384.5</ele></trkpt>
      <trkpt lat="45.8379678" lon="6.8525774"><ele>4392.4</ele></trkpt>
      <trkpt lat="45.8377645" lon="6.8528313"><ele>4401.8</ele></trkpt>
      <trkpt lat="45.8375612" lon="6.8530855"><ele>4412.7</ele></trkpt>
      <trkpt lat="45.8373580" lon="6.8533398"><ele>4423.5</ele></trkpt>
      <trkpt lat="45.8372761" lon="6.8535051"><ele>4434.6</ele></trkpt>
      <trkpt lat="45.8371123" lon="6.8538271"><ele>4445.8</ele></trkpt>
      <trkpt lat="45.8369564" lon="6.8541431"><ele>4457.0</ele></trkpt>
      <trkpt lat="45.8369101" lon="6.8541885"><ele>4467.3</ele></trkpt>
      <trkpt lat="45.8366874" lon="6.8544070"><ele>4476.9</ele></trkpt>
      <trkpt lat="45.8364646" lon="6.8546255"><ele>4486.6</ele></trkpt>
      <trkpt lat="45.8362419" lon="6.8548440"><ele>4494.6</ele></trkpt>
      <trkpt lat="45.8360321" lon="6.8549237"><ele>4501.9</ele></trkpt>
      <trkpt lat="45.8358705" lon="6.8550446"><ele>4509.8</ele></trkpt>
      <trkpt lat="45.8356312" lon="6.8552236"><ele>4516.4</ele></trkpt>
      <trkpt lat="45.8356253" lon="6.8552319"><ele>4521.5</ele></trkpt>
      <trkpt lat="45.8354327" lon="6.8555031"><ele>4525.4</ele></trkpt>
      <trkpt lat="45.8352401" lon="6.8557743"><ele>4528.9</ele></trkpt>
      <trkpt lat="45.8352149" lon="6.8558054"><ele>4531.9</ele></trkpt>
      <trkpt lat="45.8350101" lon="6.8560575"><ele>4534.9</ele></trkpt>
      <trkpt lat="45.8349475" lon="6.8561821"><ele>4539.0</ele></trkpt>
      <trkpt lat="45.8347897" lon="6.8564962"><ele>4543.2</ele></trkpt>
      <trkpt lat="45.8347720" lon="6.8565360"><ele>4548.2</ele></trkpt>
      <trkpt lat="45.8346265" lon="6.8568621"><ele>4555.1</ele></trkpt>
      <trkpt lat="45.8344810" lon="6.8571882"><ele>4563.8</ele></trkpt>
      <trkpt lat="45.8343355" lon="6.8575143"><ele>4573.9</ele></trkpt>
      <trkpt lat="45.8342230" lon="6.8578491"><ele>4585.8</ele></trkpt>
      <trkpt lat="45.8341058" lon="6.8581978"><ele>4599.4</ele></trkpt>
      <trkpt lat="45.8339885" lon="6.8585466"><ele>4613.8</ele></trkpt>
      <trkpt lat="45.8338559" lon="6.8587771"><ele>4629.1</ele></trkpt>
      <trkpt lat="45.8336841" lon="6.8590757"><ele>4645.3</ele></trkpt>
      <trkpt lat="45.8335124" lon="6.8593743"><ele>4660.3</ele></trkpt>
      <trkpt lat="45.8333406" lon="6.8596729"><ele>4674.7</ele></trkpt>
      <trkpt lat="45.8331688" lon="6.8599715"><ele>4687.9</ele></trkpt>
      <trkpt lat="45.8329970" lon="6.8602701"><ele>4700.9</ele></trkpt>
      <trkpt lat="45.8329593" lon="6.8604844"><ele>4713.3</ele></trkpt>
      <trkpt lat="45.8328933" lon="6.8608598"><ele>4725.0</ele></trkpt>
      <trkpt lat="45.8328859" lon="6.8610687"><ele>4735.4</ele></trkpt>
      <trkpt lat="45.8328722" lon="6.8614554"><ele>4744.8</ele></trkpt>
      <trkpt lat="45.8328585" lon="6.8618422"><ele>4753.2</ele></trkpt>
      <trkpt lat="45.8328448" lon="6.8622289"><ele>4761.9</ele></trkpt>
      <trkpt lat="45.8328198" lon="6.8624425"><ele>4769.6</ele></trkpt>
      <trkpt lat="45.8327749" lon="6.8628243"><ele>4776.9</ele></trkpt>
      <trkpt lat="45.8327301" lon="6.8632061"><ele>4783.3</ele></trkpt>
      <trkpt lat="45.8326853" lon="6.8635880"><ele>4786.8</ele></trkpt>
      <trkpt lat="45.8326873" lon="6.8636969"><ele>4789.7</ele></trkpt>
      <trkpt lat="45.8326943" lon="6.8640839"><ele>4792.9</ele></trkpt>
      <trkpt lat="45.8327012" lon="6.8644710"><ele>4795.7</ele></trkpt>
    </trkseg>
  </trk>
</gpx>