<?xml version="1.0" encoding="UTF-8"?>
<gpx version="1.1" creator="AlpHD" xmlns="http://www.topografix.com/GPX/1/1">
  <trk>
    <name>Traversée des Drus #1</name>
    <trkseg>
      <trkpt lat="45.931512" lon="6.920286"><ele>1749.0</ele></trkpt>
      <trkpt lat="45.931038" lon="6.920383"><ele>1747.0</ele></trkpt>
      <trkpt lat="45.930791" lon="6.920543"><ele>1744.8</ele></trkpt>
      <trkpt lat="45.930184" lon="6.921199"><ele>1711.2</ele></trkpt>
      <trkpt lat="45.930271" lon="6.921658"><ele>1689.0</ele></trkpt>
      <trkpt lat="45.930008" lon="6.922194"><ele>1673.6</ele></trkpt>
      <trkpt lat="45.929698" lon="6.922153"><ele>1662.8</ele></trkpt>
      <trkpt lat="45.929415" lon="6.922259"><ele>1661.4</ele></trkpt>
      <trkpt lat="45.929029" lon="6.922190"><ele>1661.6</ele></trkpt>
      <trkpt lat="45.928869" lon="6.922463"><ele>1661.2</ele></trkpt>
      <trkpt lat="45.927991" lon="6.922572"><ele>1655.8</ele></trkpt>
      <trkpt lat="45.927796" lon="6.922746"><ele>1657.8</ele></trkpt>
      <trkpt lat="45.927593" lon="6.922729"><ele>1659.2</ele></trkpt>
      <trkpt lat="45.927485" lon="6.922497"><ele>1659.2</ele></trkpt>
      <trkpt lat="45.927553" lon="6.922765"><ele>1659.4</ele></trkpt>
      <trkpt lat="45.927867" lon="6.922787"><ele>1657.8</ele></trkpt>
      <trkpt lat="45.928121" lon="6.922614"><ele>1658.4</ele></trkpt>
      <trkpt lat="45.928402" lon="6.922666"><ele>1661.2</ele></trkpt>
      <trkpt lat="45.928573" lon="6.922569"><ele>1661.6</ele></trkpt>
      <trkpt lat="45.928804" lon="6.922581"><ele>1661.4</ele></trkpt>
      <trkpt lat="45.928516" lon="6.922733"><ele>1659.6</ele></trkpt>
      <trkpt lat="45.928564" lon="6.923012"><ele>1653.6</ele></trkpt>
      <trkpt lat="45.928193" lon="6.923179"><ele>1663.8</ele></trkpt>
      <trkpt lat="45.928031" lon="6.923313"><ele>1666.4</ele></trkpt>
      <trkpt lat="45.927839" lon="6.923249"><ele>1663.4</ele></trkpt>
      <trkpt lat="45.927670" lon="6.923356"><ele>1663.0</ele></trkpt>
      <trkpt lat="45.927488" lon="6.923528"><ele>1666.0</ele></trkpt>
      <trkpt lat="45.927158" lon="6.923574"><ele>1671.2</ele></trkpt>
      <trkpt lat="45.926814" lon="6.923562"><ele>1670.4</ele></trkpt>
      <trkpt lat="45.926494" lon="6.923845"><ele>1668.2</ele></trkpt>
      <trkpt lat="45.926236" lon="6.923863"><ele>1671.8</ele></trkpt>
      <trkpt lat="45.925886" lon="6.924148"><ele>1681.0</ele></trkpt>
      <trkpt lat="45.925446" lon="6.924147"><ele>1686.8</ele></trkpt>
      <trkpt lat="45.924752" lon="6.924352"><ele>1696.2</ele></trkpt>
      <trkpt lat="45.924252" lon="6.924364"><ele>1704.6</ele></trkpt>
      <trkpt lat="45.924072" lon="6.924292"><ele>1705.6</ele></trkpt>
      <trkpt lat="45.923886" lon="6.924337"><ele>1708.2</ele></trkpt>
      <trkpt lat="45.923380" lon="6.924676"><ele>1719.2</ele></trkpt>
      <trkpt lat="45.923118" lon="6.924801"><ele>1724.8</ele></trkpt>
      <trkpt lat="45.922832" lon="6.925073"><ele>1732.4</ele></trkpt>
      <trkpt lat="45.922571" lon="6.925169"><ele>1737.2</ele></trkpt>
      <trkpt lat="45.922485" lon="6.925478"><ele>1743.4</ele></trkpt>
      <trkpt lat="45.922057" lon="6.925953"><ele>1755.4</ele></trkpt>
      <trkpt lat="45.921746" lon="6.926224"><ele>1761.6</ele></trkpt>
      <trkpt lat="45.921533" lon="6.926393"><ele>1762.8</ele></trkpt>
      <trkpt lat="45.920996" lon="6.927264"><ele>1773.0</ele></trkpt>
      <trkpt lat="45.920683" lon="6.927896"><ele>1781.8</ele></trkpt>
      <trkpt lat="45.920345" lon="6.928583"><ele>1786.0</ele></trkpt>
      <trkpt lat="45.920220" lon="6.929078"><ele>1789.2</ele></trkpt>
      <trkpt lat="45.919964" lon="6.929747"><ele>1792.6</ele></trkpt>
      <trkpt lat="45.919787" lon="6.929876"><ele>1790.6</ele></trkpt>
      <trkpt lat="45.919209" lon="6.930310"><ele>1796.2</ele></trkpt>
      <trkpt lat="45.919067" lon="6.930762"><ele>1798.4</ele></trkpt>
      <trkpt lat="45.919131" lon="6.931036"><ele>1799.4</ele></trkpt>
      <trkpt lat="45.919067" lon="6.931348"><ele>1802.2</ele></trkpt>
      <trkpt lat="45.918627" lon="6.932184"><ele>1809.4</ele></trkpt>
      <trkpt lat="45.918510" lon="6.932578"><ele>1814.0</ele></trkpt>
      <trkpt lat="45.918328" lon="6.932938"><ele>1819.6</ele></trkpt>
      <trkpt lat="45.918232" lon="6.933371"><ele>1824.6</ele></trkpt>
      <trkpt lat="45.917701" lon="6.934705"><ele>1835.8</ele></trkpt>
      <trkpt lat="45.917478" lon="6.934971"><ele>1837.8</ele></trkpt>
      <trkpt lat="45.916908" lon="6.935952"><ele>1842.6</ele></trkpt>
      <trkpt lat="45.916404" lon="6.936469"><ele>1850.8</ele></trkpt>
      <trkpt lat="45.916051" lon="6.936944"><ele>1857.8</ele></trkpt>
      <trkpt lat="45.914164" lon="6.938664"><ele>1879.0</ele></trkpt>
      <trkpt lat="45.913648" lon="6.939022"><ele>1885.0</ele></trkpt>
      <trkpt lat="45.913320" lon="6.939124"><ele>1888.0</ele></trkpt>
      <trkpt lat="45.913072" lon="6.939334"><ele>1891.2</ele></trkpt>
      <trkpt lat="45.912329" lon="6.939985"><ele>1899.6</ele></trkpt>
      <trkpt lat="45.912087" lon="6.940552"><ele>1902.8</ele></trkpt>
      <trkpt lat="45.911605" lon="6.941036"><ele>1907.2</ele></trkpt>
      <trkpt lat="45.911210" lon="6.941233"><ele>1909.8</ele></trkpt>
      <trkpt lat="45.910869" lon="6.941507"><ele>1912.0</ele></trkpt>
      <trkpt lat="45.910809" lon="6.941944"><ele>1912.0</ele></trkpt>
      <trkpt lat="45.910512" lon="6.943270"><ele>1926.4</ele></trkpt>
      <trkpt lat="45.910229" lon="6.943537"><ele>1928.2</ele></trkpt>
      <trkpt lat="45.909992" lon="6.943989"><ele>1931.2</ele></trkpt>
      <trkpt lat="45.909846" lon="6.944553"><ele>1933.2</ele></trkpt>
      <trkpt lat="45.909891" lon="6.945208"><ele>1940.4</ele></trkpt>
      <trkpt lat="45.909709" lon="6.945440"><ele>1945.8</ele></trkpt>
      <trkpt lat="45.909633" lon="6.945695"><ele>1955.0</ele></trkpt>
      <trkpt lat="45.909489" lon="6.946416"><ele>1984.0</ele></trkpt>
      <trkpt lat="45.909341" lon="6.946618"><ele>1992.6</ele></trkpt>
      <trkpt lat="45.909374" lon="6.946911"><ele>2005.8</ele></trkpt>
      <trkpt lat="45.909570" lon="6.947123"><ele>2016.6</ele></trkpt>
      <trkpt lat="45.909728" lon="6.947310"><ele>2023.6</ele></trkpt>
      <trkpt lat="45.909772" lon="6.947619"><ele>2056.8</ele></trkpt>
      <trkpt lat="45.909945" lon="6.947856"><ele>2088.4</ele></trkpt>
      <trkpt lat="45.910071" lon="6.948206"><ele>2127.2</ele></trkpt>
      <trkpt lat="45.909930" lon="6.948504"><ele>2145.2</ele></trkpt>
      <trkpt lat="45.910205" lon="6.948725"><ele>2156.4</ele></trkpt>
      <trkpt lat="45.909935" lon="6.948828"><ele>2167.0</ele></trkpt>
      <trkpt lat="45.909829" lon="6.949038"><ele>2176.0</ele></trkpt>
      <trkpt lat="45.910287" lon="6.949106"><ele>2192.6</ele></trkpt>
      <trkpt lat="45.910639" lon="6.948942"><ele>2189.8</ele></trkpt>
      <trkpt lat="45.910982" lon="6.948845"><ele>2197.8</ele></trkpt>
      <trkpt lat="45.911268" lon="6.948926"><ele>2213.2</ele></trkpt>
      <trkpt lat="45.911204" lon="6.949230"><ele>2226.4</ele></trkpt>
      <trkpt lat="45.911575" lon="6.949382"><ele>2245.4</ele></trkpt>
      <trkpt lat="45.912143" lon="6.948983"><ele>2252.4</ele></trkpt>
      <trkpt lat="45.912896" lon="6.948680"><ele>2254.2</ele></trkpt>
      <trkpt lat="45.913433" lon="6.948598"><ele>2264.8</ele></trkpt>
      <trkpt lat="45.914028" lon="6.948252"><ele>2259.8</ele></trkpt>
      <trkpt lat="45.914241" lon="6.948229"><ele>2258.8</ele></trkpt>
      <trkpt lat="45.914468" lon="6.948380"><ele>2265.4</ele></trkpt>
      <trkpt lat="45.914867" lon="6.948471"><ele>2269.6</ele></trkpt>
      <trkpt lat="45.914749" lon="6.948749"><ele>2278.6</ele></trkpt>
      <trkpt lat="45.915204" lon="6.948996"><ele>2289.2</ele></trkpt>
      <trkpt lat="45.915559" lon="6.948961"><ele>2292.2</ele></trkpt>
      <trkpt lat="45.915820" lon="6.949069"><ele>2305.2</ele></trkpt>
      <trkpt lat="45.916115" lon="6.949016"><ele>2321.6</ele></trkpt>
      <trkpt lat="45.916224" lon="6.949509"><ele>2339.2</ele></trkpt>
      <trkpt lat="45.916663" lon="6.949600"><ele>2359.6</ele></trkpt>
      <trkpt lat="45.916702" lon="6.949901"><ele>2370.4</ele></trkpt>
      <trkpt lat="45.916922" lon="6.949915"><ele>2374.4</ele></trkpt>
      <trkpt lat="45.917192" lon="6.949929"><ele>2385.0</ele></trkpt>
      <trkpt lat="45.917633" lon="6.949606"><ele>2389.2</ele></trkpt>
      <trkpt lat="45.917735" lon="6.949341"><ele>2389.4</ele></trkpt>
      <trkpt lat="45.918064" lon="6.948570"><ele>2385.4</ele></trkpt>
      <trkpt lat="45.918212" lon="6.948362"><ele>2390.6</ele></trkpt>
      <trkpt lat="45.918338" lon="6.948652"><ele>2408.0</ele></trkpt>
      <trkpt lat="45.918521" lon="6.948915"><ele>2414.0</ele></trkpt>
      <trkpt lat="45.918448" lon="6.949485"><ele>2434.2</ele></trkpt>
      <trkpt lat="45.918736" lon="6.949831"><ele>2452.2</ele></trkpt>
      <trkpt lat="45.918855" lon="6.950049"><ele>2454.8</ele></trkpt>
      <trkpt lat="45.918802" lon="6.950419"><ele>2459.4</ele></trkpt>
      <trkpt lat="45.918965" lon="6.950802"><ele>2462.6</ele></trkpt>
      <trkpt lat="45.919577" lon="6.951378"><ele>2472.8</ele></trkpt>
      <trkpt lat="45.920123" lon="6.951568"><ele>2481.8</ele></trkpt>
      <trkpt lat="45.920649" lon="6.951336"><ele>2493.6</ele></trkpt>
      <trkpt lat="45.920950" lon="6.951407"><ele>2502.4</ele></trkpt>
      <trkpt lat="45.921217" lon="6.951228"><ele>2508.2</ele></trkpt>
      <trkpt lat="45.921645" lon="6.951203"><ele>2517.2</ele></trkpt>
      <trkpt lat="45.921771" lon="6.951588"><ele>2536.0</ele></trkpt>
      <trkpt lat="45.921895" lon="6.952013"><ele>2559.2</ele></trkpt>
      <trkpt lat="45.922103" lon="6.952465"><ele>2577.6</ele></trkpt>
      <trkpt lat="45.922444" lon="6.952727"><ele>2591.6</ele></trkpt>
      <trkpt lat="45.922589" lon="6.952939"><ele>2608.0</ele></trkpt>
      <trkpt lat="45.922710" lon="6.953147"><ele>2621.2</ele></trkpt>
      <trkpt lat="45.922948" lon="6.953625"><ele>2629.2</ele></trkpt>
      <trkpt lat="45.923117" lon="6.953868"><ele>2645.4</ele></trkpt>
      <trkpt lat="45.923274" lon="6.954031"><ele>2658.6</ele></trkpt>
      <trkpt lat="45.923662" lon="6.953761"><ele>2693.8</ele></trkpt>
      <trkpt lat="45.924047" lon="6.954432"><ele>2729.8</ele></trkpt>
      <trkpt lat="45.924148" lon="6.954688"><ele>2761.6</ele></trkpt>
      <trkpt lat="45.924253" lon="6.955001"><ele>2772.8</ele></trkpt>
      <trkpt lat="45.924183" lon="6.955343"><ele>2809.0</ele></trkpt>
      <trkpt lat="45.924443" lon="6.955537"><ele>2823.8</ele></trkpt>
      <trkpt lat="45.924551" lon="6.955963"><ele>2838.0</ele></trkpt>
      <trkpt lat="45.925001" lon="6.956309"><ele>2859.2</ele></trkpt>
      <trkpt lat="45.925307" lon="6.956665"><ele>2876.8</ele></trkpt>
      <trkpt lat="45.925609" lon="6.956774"><ele>2882.8</ele></trkpt>
      <trkpt lat="45.925760" lon="6.957154"><ele>2891.2</ele></trkpt>
      <trkpt lat="45.925847" lon="6.957607"><ele>2897.8</ele></trkpt>
      <trkpt lat="45.925990" lon="6.958044"><ele>2916.0</ele></trkpt>
      <trkpt lat="45.926232" lon="6.958339"><ele>2957.0</ele></trkpt>
      <trkpt lat="45.927433" lon="6.959348"><ele>2982.2</ele></trkpt>
      <trkpt lat="45.927632" lon="6.958989"><ele>2976.6</ele></trkpt>
      <trkpt lat="45.927839" lon="6.959119"><ele>2984.4</ele></trkpt>
      <trkpt lat="45.928326" lon="6.958981"><ele>2999.2</ele></trkpt>
      <trkpt lat="45.928373" lon="6.958642"><ele>2998.6</ele></trkpt>
      <trkpt lat="45.928704" lon="6.958465"><ele>3011.6</ele></trkpt>
      <trkpt lat="45.928952" lon="6.958057"><ele>3015.8</ele></trkpt>
      <trkpt lat="45.929072" lon="6.957833"><ele>3021.4</ele></trkpt>
      <trkpt lat="45.929227" lon="6.957462"><ele>3025.8</ele></trkpt>
      <trkpt lat="45.929029" lon="6.957317"><ele>3024.8</ele></trkpt>
      <trkpt lat="45.929236" lon="6.957331"><ele>3020.8</ele></trkpt>
      <trkpt lat="45.929033" lon="6.957319"><ele>3021.0</ele></trkpt>
      <trkpt lat="45.928926" lon="6.956838"><ele>3029.8</ele></trkpt>
      <trkpt lat="45.928791" lon="6.956556"><ele>3036.2</ele></trkpt>
      <trkpt lat="45.928751" lon="6.956158"><ele>3039.4</ele></trkpt>
      <trkpt lat="45.928942" lon="6.955855"><ele>3052.0</ele></trkpt>
      <trkpt lat="45.929223" lon="6.955376"><ele>3056.4</ele></trkpt>
      <trkpt lat="45.929248" lon="6.955112"><ele>3052.4</ele></trkpt>
      <trkpt lat="45.929475" lon="6.955063"><ele>3061.0</ele></trkpt>
      <trkpt lat="45.929458" lon="6.954799"><ele>3059.6</ele></trkpt>
      <trkpt lat="45.929587" lon="6.954424"><ele>3073.4</ele></trkpt>
      <trkpt lat="45.929607" lon="6.954055"><ele>3086.2</ele></trkpt>
      <trkpt lat="45.929767" lon="6.953758"><ele>3114.2</ele></trkpt>
      <trkpt lat="45.929741" lon="6.953500"><ele>3118.8</ele></trkpt>
      <trkpt lat="45.929935" lon="6.953356"><ele>3134.4</ele></trkpt>
      <trkpt lat="45.930055" lon="6.953115"><ele>3146.0</ele></trkpt>
      <trkpt lat="45.930268" lon="6.952938"><ele>3180.0</ele></trkpt>
      <trkpt lat="45.930265" lon="6.952631"><ele>3198.8</ele></trkpt>
      <trkpt lat="45.930446" lon="6.952562"><ele>3209.4</ele></trkpt>
      <trkpt lat="45.930366" lon="6.952255"><ele>3227.0</ele></trkpt>
      <trkpt lat="45.930783" lon="6.952707"><ele>3253.8</ele></trkpt>
      <trkpt lat="45.930593" lon="6.952830"><ele>3256.2</ele></trkpt>
      <trkpt lat="45.930754" lon="6.952988"><ele>3264.6</ele></trkpt>
      <trkpt lat="45.930679" lon="6.953528"><ele>3273.4</ele></trkpt>
      <trkpt lat="45.930611" lon="6.954048"><ele>3273.8</ele></trkpt>
      <trkpt lat="45.930592" lon="6.953678"><ele>3274.2</ele></trkpt>
      <trkpt lat="45.930594" lon="6.954151"><ele>3274.4</ele></trkpt>
      <trkpt lat="45.930792" lon="6.953946"><ele>3275.2</ele></trkpt>
      <trkpt lat="45.930694" lon="6.953378"><ele>3275.4</ele></trkpt>
      <trkpt lat="45.930811" lon="6.953143"><ele>3292.6</ele></trkpt>
      <trkpt lat="45.931225" lon="6.953533"><ele>3313.6</ele></trkpt>
      <trkpt lat="45.931553" lon="6.953986"><ele>3351.0</ele></trkpt>
      <trkpt lat="45.931354" lon="6.953832"><ele>3354.6</ele></trkpt>
      <trkpt lat="45.931200" lon="6.954172"><ele>3354.6</ele></trkpt>
      <trkpt lat="45.931419" lon="6.954207"><ele>3355.8</ele></trkpt>
      <trkpt lat="45.931116" lon="6.954173"><ele>3359.2</ele></trkpt>
      <trkpt lat="45.931441" lon="6.954271"><ele>3360.2</ele></trkpt>
      <trkpt lat="45.931614" lon="6.954439"><ele>3385.2</ele></trkpt>
      <trkpt lat="45.931645" lon="6.954142"><ele>3404.4</ele></trkpt>
      <trkpt lat="45.931827" lon="6.954205"><ele>3418.8</ele></trkpt>
      <trkpt lat="45.932125" lon="6.954255"><ele>3428.0</ele></trkpt>
      <trkpt lat="45.932337" lon="6.954318"><ele>3428.0</ele></trkpt>
      <trkpt lat="45.931938" lon="6.954025"><ele>3428.6</ele></trkpt>
      <trkpt lat="45.932208" lon="6.953993"><ele>3427.6</ele></trkpt>
      <trkpt lat="45.932399" lon="6.954139"><ele>3427.6</ele></trkpt>
      <trkpt lat="45.931779" lon="6.953855"><ele>3428.8</ele></trkpt>
      <trkpt lat="45.931986" lon="6.954112"><ele>3429.6</ele></trkpt>
      <trkpt lat="45.931832" lon="6.953931"><ele>3433.8</ele></trkpt>
      <trkpt lat="45.932126" lon="6.954209"><ele>3434.8</ele></trkpt>
      <trkpt lat="45.932209" lon="6.954800"><ele>3435.4</ele></trkpt>
      <trkpt lat="45.931916" lon="6.954419"><ele>3436.0</ele></trkpt>
      <trkpt lat="45.931815" lon="6.954065"><ele>3436.2</ele></trkpt>
      <trkpt lat="45.931987" lon="6.954219"><ele>3452.6</ele></trkpt>
      <trkpt lat="45.931940" lon="6.953894"><ele>3452.4</ele></trkpt>
      <trkpt lat="45.932069" lon="6.954183"><ele>3452.6</ele></trkpt>
      <trkpt lat="45.932234" lon="6.954433"><ele>3458.6</ele></trkpt>
      <trkpt lat="45.932038" lon="6.954099"><ele>3462.0</ele></trkpt>
      <trkpt lat="45.932195" lon="6.954312"><ele>3476.8</ele></trkpt>
      <trkpt lat="45.932028" lon="6.954137"><ele>3475.0</ele></trkpt>
      <trkpt lat="45.932226" lon="6.954321"><ele>3474.8</ele></trkpt>
      <trkpt lat="45.931964" lon="6.953978"><ele>3474.4</ele></trkpt>
      <trkpt lat="45.932245" lon="6.954393"><ele>3478.8</ele></trkpt>
      <trkpt lat="45.932098" lon="6.954225"><ele>3480.8</ele></trkpt>
      <trkpt lat="45.932127" lon="6.954481"><ele>3490.4</ele></trkpt>
      <trkpt lat="45.931967" lon="6.953978"><ele>3491.0</ele></trkpt>
      <trkpt lat="45.932061" lon="6.954342"><ele>3491.4</ele></trkpt>
      <trkpt lat="45.932077" lon="6.954602"><ele>3498.6</ele></trkpt>
      <trkpt lat="45.932257" lon="6.954792"><ele>3535.6</ele></trkpt>
      <trkpt lat="45.932389" lon="6.954460"><ele>3549.8</ele></trkpt>
      <trkpt lat="45.932517" lon="6.954787"><ele>3584.4</ele></trkpt>
      <trkpt lat="45.932701" lon="6.954762"><ele>3608.6</ele></trkpt>
      <trkpt lat="45.932493" lon="6.954861"><ele>3626.0</ele></trkpt>
      <trkpt lat="45.932650" lon="6.954999"><ele>3631.6</ele></trkpt>
      <trkpt lat="45.932717" lon="6.954742"><ele>3661.6</ele></trkpt>
      <trkpt lat="45.932866" lon="6.955080"><ele>3666.4</ele></trkpt>
      <trkpt lat="45.932849" lon="6.955355"><ele>3653.2</ele></trkpt>
      <trkpt lat="45.932919" lon="6.955717"><ele>3648.0</ele></trkpt>
      <trkpt lat="45.932743" lon="6.955905"><ele>3643.0</ele></trkpt>
      <trkpt lat="45.932903" lon="6.956087"><ele>3653.8</ele></trkpt>
      <trkpt lat="45.933189" lon="6.955546"><ele>3660.6</ele></trkpt>
      <trkpt lat="45.932876" lon="6.956005"><ele>3660.8</ele></trkpt>
      <trkpt lat="45.932737" lon="6.956173"><ele>3665.8</ele></trkpt>
      <trkpt lat="45.932878" lon="6.955968"><ele>3667.4</ele></trkpt>
      <trkpt lat="45.932853" lon="6.956230"><ele>3667.8</ele></trkpt>
      <trkpt lat="45.932627" lon="6.956094"><ele>3668.8</ele></trkpt>
      <trkpt lat="45.932816" lon="6.956176"><ele>3670.8</ele></trkpt>
      <trkpt lat="45.932615" lon="6.956361"><ele>3675.2</ele></trkpt>
      <trkpt lat="45.932633" lon="6.956738"><ele>3640.4</ele></trkpt>
      <trkpt lat="45.932349" lon="6.956966"><ele>3625.4</ele></trkpt>
      <trkpt lat="45.932166" lon="6.956881"><ele>3547.8</ele></trkpt>
      <trkpt lat="45.931969" lon="6.957174"><ele>3456.6</ele></trkpt>
      <trkpt lat="45.931621" lon="6.957652"><ele>3423.6</ele></trkpt>
      <trkpt lat="45.931857" lon="6.957210"><ele>3417.6</ele></trkpt>
      <trkpt lat="45.931675" lon="6.957401"><ele>3417.2</ele></trkpt>
      <trkpt lat="45.931860" lon="6.957195"><ele>3417.2</ele></trkpt>
      <trkpt lat="45.931667" lon="6.957361"><ele>3385.2</ele></trkpt>
      <trkpt lat="45.931703" lon="6.957705"><ele>3364.8</ele></trkpt>
      <trkpt lat="45.931893" lon="6.957623"><ele>3367.2</ele></trkpt>
      <trkpt lat="45.931886" lon="6.957912"><ele>3345.2</ele></trkpt>
      <trkpt lat="45.931883" lon="6.958272"><ele>3333.4</ele></trkpt>
      <trkpt lat="45.931693" lon="6.958511"><ele>3302.4</ele></trkpt>
      <trkpt lat="45.931545" lon="6.958725"><ele>3262.6</ele></trkpt>
      <trkpt lat="45.931712" lon="6.958887"><ele>3261.4</ele></trkpt>
      <trkpt lat="45.931586" lon="6.958651"><ele>3250.2</ele></trkpt>
      <trkpt lat="45.931250" lon="6.958963"><ele>3219.8</ele></trkpt>
      <trkpt lat="45.931347" lon="6.958738"><ele>3213.0</ele></trkpt>
      <trkpt lat="45.931381" lon="6.959040"><ele>3210.6</ele></trkpt>
      <trkpt lat="45.931248" lon="6.958763"><ele>3199.0</ele></trkpt>
      <trkpt lat="45.931032" lon="6.958928"><ele>3171.2</ele></trkpt>
      <trkpt lat="45.930700" lon="6.958935"><ele>3154.4</ele></trkpt>
      <trkpt lat="45.929963" lon="6.958675"><ele>3119.4</ele></trkpt>
      <trkpt lat="45.929723" lon="6.958258"><ele>3079.4</ele></trkpt>
      <trkpt lat="45.929375" lon="6.958125"><ele>3056.4</ele></trkpt>
      <trkpt lat="45.929444" lon="6.958545"><ele>3035.6</ele></trkpt>
      <trkpt lat="45.929195" lon="6.958732"><ele>3030.6</ele></trkpt>
      <trkpt lat="45.928796" lon="6.958566"><ele>2994.8</ele></trkpt>
      <trkpt lat="45.928539" lon="6.958235"><ele>2963.2</ele></trkpt>
      <trkpt lat="45.928370" lon="6.958528"><ele>2961.8</ele></trkpt>
      <trkpt lat="45.928202" lon="6.959010"><ele>2951.0</ele></trkpt>
      <trkpt lat="45.927810" lon="6.959053"><ele>2950.8</ele></trkpt>
      <trkpt lat="45.927642" lon="6.958936"><ele>2948.2</ele></trkpt>
      <trkpt lat="45.927414" lon="6.959054"><ele>2945.8</ele></trkpt>
      <trkpt lat="45.926740" lon="6.958916"><ele>2945.2</ele></trkpt>
      <trkpt lat="45.926568" lon="6.958466"><ele>2919.4</ele></trkpt>
      <trkpt lat="45.926385" lon="6.958600"><ele>2915.4</ele></trkpt>
      <trkpt lat="45.926205" lon="6.958434"><ele>2907.4</ele></trkpt>
      <trkpt lat="45.925981" lon="6.958173"><ele>2893.0</ele></trkpt>
      <trkpt lat="45.925787" lon="6.957764"><ele>2874.0</ele></trkpt>
      <trkpt lat="45.925628" lon="6.956861"><ele>2855.2</ele></trkpt>
      <trkpt lat="45.925360" lon="6.956555"><ele>2850.4</ele></trkpt>
      <trkpt lat="45.924917" lon="6.956201"><ele>2827.8</ele></trkpt>
      <trkpt lat="45.924478" lon="6.955946"><ele>2831.0</ele></trkpt>
      <trkpt lat="45.924261" lon="6.955565"><ele>2819.8</ele></trkpt>
      <trkpt lat="45.924107" lon="6.955204"><ele>2801.4</ele></trkpt>
    </trkseg>
  </trk>
</gpx>