<?xml version="1.0" encoding="UTF-8"?>
<gpx version="1.1" creator="AlpHD" xmlns="http://www.topografix.com/GPX/1/1">
  <trk>
    <name>Traversée des Drus #4</name>
    <trkseg>
      <trkpt lat="45.924797" lon="6.955589"><ele>2840.0</ele></trkpt>
      <trkpt lat="45.924625" lon="6.955795"><ele>2840.0</ele></trkpt>
      <trkpt lat="45.924530" lon="6.956166"><ele>2840.0</ele></trkpt>
      <trkpt lat="45.924749" lon="6.956285"><ele>2850.0</ele></trkpt>
      <trkpt lat="45.924953" lon="6.956352"><ele>2860.0</ele></trkpt>
      <trkpt lat="45.925496" lon="6.956908"><ele>2880.0</ele></trkpt>
      <trkpt lat="45.925805" lon="6.957922"><ele>2930.0</ele></trkpt>
      <trkpt lat="45.926260" lon="6.958305"><ele>2960.0</ele></trkpt>
      <trkpt lat="45.926880" lon="6.958955"><ele>3000.0</ele></trkpt>
      <trkpt lat="45.927168" lon="6.959456"><ele>3030.0</ele></trkpt>
      <trkpt lat="45.927449" lon="6.959175"><ele>3020.0</ele></trkpt>
      <trkpt lat="45.927788" lon="6.959046"><ele>3020.0</ele></trkpt>
      <trkpt lat="45.928316" lon="6.959003"><ele>3040.0</ele></trkpt>
      <trkpt lat="45.928890" lon="6.959098"><ele>3070.0</ele></trkpt>
      <trkpt lat="45.929353" lon="6.958682"><ele>3090.0</ele></trkpt>
      <trkpt lat="45.929476" lon="6.958312"><ele>3090.0</ele></trkpt>
      <trkpt lat="45.929011" lon="6.956837"><ele>3060.0</ele></trkpt>
      <trkpt lat="45.928723" lon="6.956266"><ele>3050.0</ele></trkpt>
      <trkpt lat="45.928770" lon="6.955310"><ele>3030.0</ele></trkpt>
      <trkpt lat="45.929084" lon="6.955157"><ele>3060.0</ele></trkpt>
      <trkpt lat="45.929288" lon="6.954740"><ele>3080.0</ele></trkpt>
      <trkpt lat="45.929198" lon="6.954313"><ele>3060.0</ele></trkpt>
      <trkpt lat="45.929014" lon="6.953996"><ele>3030.0</ele></trkpt>
      <trkpt lat="45.929287" lon="6.953759"><ele>3080.0</ele></trkpt>
      <trkpt lat="45.929441" lon="6.953265"><ele>3110.0</ele></trkpt>
      <trkpt lat="45.929795" lon="6.953222"><ele>3160.0</ele></trkpt>
      <trkpt lat="45.929935" lon="6.952880"><ele>3190.0</ele></trkpt>
      <trkpt lat="45.930230" lon="6.952877"><ele>3230.0</ele></trkpt>
      <trkpt lat="45.930478" lon="6.952665"><ele>3260.0</ele></trkpt>
      <trkpt lat="45.930688" lon="6.952919"><ele>3280.0</ele></trkpt>
      <trkpt lat="45.930619" lon="6.953677"><ele>3260.0</ele></trkpt>
      <trkpt lat="45.930360" lon="6.953784"><ele>3230.0</ele></trkpt>
      <trkpt lat="45.930497" lon="6.953244"><ele>3260.0</ele></trkpt>
      <trkpt lat="45.930825" lon="6.953732"><ele>3290.0</ele></trkpt>
      <trkpt lat="45.931140" lon="6.954019"><ele>3340.0</ele></trkpt>
      <trkpt lat="45.930888" lon="6.953647"><ele>3300.0</ele></trkpt>
      <trkpt lat="45.931052" lon="6.953258"><ele>3300.0</ele></trkpt>
      <trkpt lat="45.931488" lon="6.953971"><ele>3380.0</ele></trkpt>
      <trkpt lat="45.931503" lon="6.954569"><ele>3410.0</ele></trkpt>
      <trkpt lat="45.931382" lon="6.954216"><ele>3380.0</ele></trkpt>
      <trkpt lat="45.931678" lon="6.953908"><ele>3410.0</ele></trkpt>
      <trkpt lat="45.931954" lon="6.954390"><ele>3500.0</ele></trkpt>
      <trkpt lat="45.931838" lon="6.953977"><ele>3440.0</ele></trkpt>
      <trkpt lat="45.932026" lon="6.954275"><ele>3510.0</ele></trkpt>
      <trkpt lat="45.932099" lon="6.954649"><ele>3550.0</ele></trkpt>
      <trkpt lat="45.932484" lon="6.954955"><ele>3640.0</ele></trkpt>
      <trkpt lat="45.932359" lon="6.954595"><ele>3610.0</ele></trkpt>
      <trkpt lat="45.932606" lon="6.954887"><ele>3660.0</ele></trkpt>
      <trkpt lat="45.932435" lon="6.955221"><ele>3640.0</ele></trkpt>
      <trkpt lat="45.932723" lon="6.954782"><ele>3650.0</ele></trkpt>
      <trkpt lat="45.933048" lon="6.955469"><ele>3630.0</ele></trkpt>
      <trkpt lat="45.933014" lon="6.955900"><ele>3640.0</ele></trkpt>
      <trkpt lat="45.932758" lon="6.955711"><ele>3670.0</ele></trkpt>
      <trkpt lat="45.933047" lon="6.955705"><ele>3630.0</ele></trkpt>
      <trkpt lat="45.932590" lon="6.956254"><ele>3690.0</ele></trkpt>
      <trkpt lat="45.932623" lon="6.956714"><ele>3680.0</ele></trkpt>
      <trkpt lat="45.932564" lon="6.957095"><ele>3640.0</ele></trkpt>
      <trkpt lat="45.932699" lon="6.957465"><ele>3600.0</ele></trkpt>
      <trkpt lat="45.932661" lon="6.957021"><ele>3650.0</ele></trkpt>
      <trkpt lat="45.932592" lon="6.957403"><ele>3600.0</ele></trkpt>
      <trkpt lat="45.932827" lon="6.957817"><ele>3550.0</ele></trkpt>
      <trkpt lat="45.933100" lon="6.957753"><ele>3510.0</ele></trkpt>
      <trkpt lat="45.932876" lon="6.958133"><ele>3520.0</ele></trkpt>
      <trkpt lat="45.932609" lon="6.958286"><ele>3480.0</ele></trkpt>
      <trkpt lat="45.932230" lon="6.958658"><ele>3400.0</ele></trkpt>
      <trkpt lat="45.932108" lon="6.959039"><ele>3370.0</ele></trkpt>
      <trkpt lat="45.931867" lon="6.958682"><ele>3350.0</ele></trkpt>
      <trkpt lat="45.931698" lon="6.958991"><ele>3310.0</ele></trkpt>
      <trkpt lat="45.931931" lon="6.959212"><ele>3340.0</ele></trkpt>
      <trkpt lat="45.932238" lon="6.958834"><ele>3400.0</ele></trkpt>
      <trkpt lat="45.931905" lon="6.959196"><ele>3330.0</ele></trkpt>
      <trkpt lat="45.931587" lon="6.959042"><ele>3300.0</ele></trkpt>
      <trkpt lat="45.931402" lon="6.959508"><ele>3270.0</ele></trkpt>
      <trkpt lat="45.931090" lon="6.959708"><ele>3240.0</ele></trkpt>
      <trkpt lat="45.930637" lon="6.959722"><ele>3210.0</ele></trkpt>
      <trkpt lat="45.930437" lon="6.960073"><ele>3200.0</ele></trkpt>
      <trkpt lat="45.930092" lon="6.960334"><ele>3170.0</ele></trkpt>
      <trkpt lat="45.929776" lon="6.960267"><ele>3150.0</ele></trkpt>
      <trkpt lat="45.929462" lon="6.960452"><ele>3140.0</ele></trkpt>
      <trkpt lat="45.928784" lon="6.960700"><ele>3120.0</ele></trkpt>
      <trkpt lat="45.928398" lon="6.960997"><ele>3120.0</ele></trkpt>
      <trkpt lat="45.927039" lon="6.961043"><ele>3100.0</ele></trkpt>
      <trkpt lat="45.927181" lon="6.960441"><ele>3080.0</ele></trkpt>
      <trkpt lat="45.927084" lon="6.959799"><ele>3050.0</ele></trkpt>
      <trkpt lat="45.926797" lon="6.959557"><ele>3040.0</ele></trkpt>
      <trkpt lat="45.926657" lon="6.959094"><ele>3010.0</ele></trkpt>
      <trkpt lat="45.926400" lon="6.958767"><ele>2990.0</ele></trkpt>
      <trkpt lat="45.926263" lon="6.958361"><ele>2970.0</ele></trkpt>
      <trkpt lat="45.926329" lon="6.957882"><ele>2940.0</ele></trkpt>
      <trkpt lat="45.926015" lon="6.957466"><ele>2910.0</ele></trkpt>
      <trkpt lat="45.925524" lon="6.957334"><ele>2900.0</ele></trkpt>
      <trkpt lat="45.925196" lon="6.956709"><ele>2870.0</ele></trkpt>
      <trkpt lat="45.925273" lon="6.956160"><ele>2860.0</ele></trkpt>
      <trkpt lat="45.924888" lon="6.955688"><ele>2840.0</ele></trkpt>
      <trkpt lat="45.924905" lon="6.955346"><ele>2830.0</ele></trkpt>
    </trkseg>
  </trk>
</gpx>