<?xml version="1.0" encoding="UTF-8"?>
<gpx version="1.1" creator="AlpHD" xmlns="http://www.topografix.com/GPX/1/1">
  <trk>
    <name>Traversée des Drus #2</name>
    <trkseg>
      <trkpt lat="45.939059" lon="6.898609"><ele>0</ele></trkpt>
      <trkpt lat="45.939628" lon="6.900511"><ele>0</ele></trkpt>
      <trkpt lat="45.940583" lon="6.901932"><ele>0</ele></trkpt>
      <trkpt lat="45.939628" lon="6.901451"><ele>0</ele></trkpt>
      <trkpt lat="45.938289" lon="6.899717"><ele>0</ele></trkpt>
      <trkpt lat="45.936949" lon="6.898609"><ele>0</ele></trkpt>
      <trkpt lat="45.935308" lon="6.897935"><ele>0</ele></trkpt>
      <trkpt lat="45.936145" lon="6.898994"><ele>0</ele></trkpt>
      <trkpt lat="45.936966" lon="6.901258"><ele>0</ele></trkpt>
      <trkpt lat="45.937250" lon="6.903666"><ele>0</ele></trkpt>
      <trkpt lat="45.937435" lon="6.904437"><ele>0</ele></trkpt>
      <trkpt lat="45.938121" lon="6.908964"><ele>0</ele></trkpt>
      <trkpt lat="45.936882" lon="6.907327"><ele>0</ele></trkpt>
      <trkpt lat="45.937435" lon="6.909036"><ele>0</ele></trkpt>
      <trkpt lat="45.937903" lon="6.910843"><ele>0</ele></trkpt>
      <trkpt lat="45.937836" lon="6.912023"><ele>0</ele></trkpt>
      <trkpt lat="45.938356" lon="6.913636"><ele>0</ele></trkpt>
      <trkpt lat="45.939026" lon="6.913829"><ele>0</ele></trkpt>
      <trkpt lat="45.939612" lon="6.914696"><ele>0</ele></trkpt>
      <trkpt lat="45.939009" lon="6.914696"><ele>0</ele></trkpt>
      <trkpt lat="45.938339" lon="6.914816"><ele>0</ele></trkpt>
      <trkpt lat="45.939511" lon="6.915972"><ele>0</ele></trkpt>
      <trkpt lat="45.939980" lon="6.917393"><ele>0</ele></trkpt>
      <trkpt lat="45.937083" lon="6.917128"><ele>0</ele></trkpt>
      <trkpt lat="45.935977" lon="6.917971"><ele>0</ele></trkpt>
      <trkpt lat="45.932762" lon="6.918741"><ele>0</ele></trkpt>
      <trkpt lat="45.929529" lon="6.918693"><ele>0</ele></trkpt>
      <trkpt lat="45.928206" lon="6.919368"><ele>0</ele></trkpt>
      <trkpt lat="45.927402" lon="6.919247"><ele>0</ele></trkpt>
      <trkpt lat="45.926112" lon="6.919849"><ele>0</ele></trkpt>
      <trkpt lat="45.925995" lon="6.921800"><ele>0</ele></trkpt>
      <trkpt lat="45.924052" lon="6.922595"><ele>0</ele></trkpt>
      <trkpt lat="45.921455" lon="6.923991"><ele>0</ele></trkpt>
      <trkpt lat="45.919277" lon="6.928326"><ele>0</ele></trkpt>
      <trkpt lat="45.916262" lon="6.935374"><ele>0</ele></trkpt>
      <trkpt lat="45.913430" lon="6.938457"><ele>0</ele></trkpt>
      <trkpt lat="45.911520" lon="6.939709"><ele>0</ele></trkpt>
      <trkpt lat="45.909007" lon="6.942551"><ele>0</ele></trkpt>
      <trkpt lat="45.909576" lon="6.944212"><ele>0</ele></trkpt>
      <trkpt lat="45.908990" lon="6.945368"><ele>0</ele></trkpt>
      <trkpt lat="45.909861" lon="6.948066"><ele>0</ele></trkpt>
      <trkpt lat="45.909844" lon="6.949005"><ele>0</ele></trkpt>
      <trkpt lat="45.912106" lon="6.949077"><ele>0</ele></trkpt>
      <trkpt lat="45.911688" lon="6.950594"><ele>0</ele></trkpt>
      <trkpt lat="45.914251" lon="6.949197"><ele>0</ele></trkpt>
      <trkpt lat="45.915256" lon="6.950618"><ele>0</ele></trkpt>
      <trkpt lat="45.917769" lon="6.949896"><ele>0</ele></trkpt>
      <trkpt lat="45.918272" lon="6.948355"><ele>0</ele></trkpt>
      <trkpt lat="45.918992" lon="6.950642"><ele>0</ele></trkpt>
      <trkpt lat="45.919947" lon="6.951726"><ele>0</ele></trkpt>
      <trkpt lat="45.921673" lon="6.951341"><ele>0</ele></trkpt>
      <trkpt lat="45.923063" lon="6.954014"><ele>0</ele></trkpt>
      <trkpt lat="45.923733" lon="6.954014"><ele>0</ele></trkpt>
      <trkpt lat="45.924035" lon="6.955338"><ele>0</ele></trkpt>
      <trkpt lat="45.925408" lon="6.956157"><ele>0</ele></trkpt>
      <trkpt lat="45.926246" lon="6.958517"><ele>0</ele></trkpt>
      <trkpt lat="45.927151" lon="6.959649"><ele>0</ele></trkpt>
      <trkpt lat="45.928226" lon="6.960071"><ele>0</ele></trkpt>
      <trkpt lat="45.928961" lon="6.958887"><ele>0</ele></trkpt>
      <trkpt lat="45.929157" lon="6.957844"><ele>0</ele></trkpt>
      <trkpt lat="45.929049" lon="6.956985"><ele>0</ele></trkpt>
      <trkpt lat="45.929363" lon="6.955421"><ele>0</ele></trkpt>
      <trkpt lat="45.929912" lon="6.954308"><ele>0</ele></trkpt>
      <trkpt lat="45.930941" lon="6.953547"><ele>0</ele></trkpt>
      <trkpt lat="45.931588" lon="6.954209"><ele>0</ele></trkpt>
      <trkpt lat="45.932038" lon="6.954547"><ele>0</ele></trkpt>
      <trkpt lat="45.932587" lon="6.954674"><ele>0</ele></trkpt>
      <trkpt lat="45.932852" lon="6.955421"><ele>0</ele></trkpt>
      <trkpt lat="45.932803" lon="6.956097"><ele>0</ele></trkpt>
      <trkpt lat="45.932097" lon="6.956590"><ele>0</ele></trkpt>
    </trkseg>
  </trk>
</gpx>