<?xml version="1.0" encoding="UTF-8"?>
<gpx version="1.1" creator="AlpHD-batch" xmlns="http://www.topografix.com/GPX/1/1">
  <trk>
    <name>Traversata dei 3 Monts</name>
    <trkseg>
      <trkpt lat="45.8080980" lon="6.7266720"><ele>1191.9</ele></trkpt>
      <trkpt lat="45.8083336" lon="6.7268607"><ele>1191.6</ele></trkpt>
      <trkpt lat="45.8084329" lon="6.7269695"><ele>1191.3</ele></trkpt>
      <trkpt lat="45.8086473" lon="6.7272044"><ele>1191.1</ele></trkpt>
      <trkpt lat="45.8088618" lon="6.7274393"><ele>1191.0</ele></trkpt>
      <trkpt lat="45.8090762" lon="6.7276741"><ele>1190.8</ele></trkpt>
      <trkpt lat="45.8092907" lon="6.7279090"><ele>1190.6</ele></trkpt>
      <trkpt lat="45.8093925" lon="6.7279883"><ele>1190.6</ele></trkpt>
      <trkpt lat="45.8093978" lon="6.7279981"><ele>1190.5</ele></trkpt>
      <trkpt lat="45.8095634" lon="6.7283037"><ele>1190.6</ele></trkpt>
      <trkpt lat="45.8097290" lon="6.7286093"><ele>1190.9</ele></trkpt>
      <trkpt lat="45.8098031" lon="6.7287230"><ele>1191.3</ele></trkpt>
      <trkpt lat="45.8098037" lon="6.7287234"><ele>1191.7</ele></trkpt>
      <trkpt lat="45.8100476" lon="6.7288890"><ele>1192.2</ele></trkpt>
      <trkpt lat="45.8102914" lon="6.7290546"><ele>1192.7</ele></trkpt>
      <trkpt lat="45.8105353" lon="6.7292202"><ele>1193.3</ele></trkpt>
      <trkpt lat="45.8107791" lon="6.7293858"><ele>1193.9</ele></trkpt>
      <trkpt lat="45.8110230" lon="6.7295514"><ele>1194.6</ele></trkpt>
      <trkpt lat="45.8112668" lon="6.7297170"><ele>1195.3</ele></trkpt>
      <trkpt lat="45.8114020" lon="6.7298371"><ele>1196.0</ele></trkpt>
      <trkpt lat="45.8116313" lon="6.7300410"><ele>1196.7</ele></trkpt>
      <trkpt lat="45.8118607" lon="6.7302448"><ele>1198.1</ele></trkpt>
      <trkpt lat="45.8119715" lon="6.7303112"><ele>1199.6</ele></trkpt>
      <trkpt lat="45.8122204" lon="6.7304604"><ele>1201.2</ele></trkpt>
      <trkpt lat="45.8123278" lon="6.7305772"><ele>1203.3</ele></trkpt>
      <trkpt lat="45.8120687" lon="6.7306195"><ele>1205.7</ele></trkpt>
      <trkpt lat="45.8119437" lon="6.7306277"><ele>1208.1</ele></trkpt>
      <trkpt lat="45.8118934" lon="6.7306167"><ele>1211.1</ele></trkpt>
      <trkpt lat="45.8116266" lon="6.7305585"><ele>1214.3</ele></trkpt>
      <trkpt lat="45.8115123" lon="6.7305660"><ele>1218.1</ele></trkpt>
      <trkpt lat="45.8114974" lon="6.7305933"><ele>1221.9</ele></trkpt>
      <trkpt lat="45.8115443" lon="6.7307961"><ele>1225.5</ele></trkpt>
      <trkpt lat="45.8116074" lon="6.7308742"><ele>1229.7</ele></trkpt>
      <trkpt lat="45.8118118" lon="6.7311268"><ele>1233.8</ele></trkpt>
      <trkpt lat="45.8120162" lon="6.7313795"><ele>1238.2</ele></trkpt>
      <trkpt lat="45.8120298" lon="6.7314016"><ele>1242.6</ele></trkpt>
      <trkpt lat="45.8122090" lon="6.7316910"><ele>1247.3</ele></trkpt>
      <trkpt lat="45.8123881" lon="6.7319804"><ele>1252.4</ele></trkpt>
      <trkpt lat="45.8125673" lon="6.7322698"><ele>1257.2</ele></trkpt>
      <trkpt lat="45.8126449" lon="6.7323420"><ele>1261.6</ele></trkpt>
      <trkpt lat="45.8128714" lon="6.7325525"><ele>1266.2</ele></trkpt>
      <trkpt lat="45.8130978" lon="6.7327630"><ele>1270.6</ele></trkpt>
      <trkpt lat="45.8132224" lon="6.7329860"><ele>1274.6</ele></trkpt>
      <trkpt lat="45.8132605" lon="6.7331202"><ele>1278.0</ele></trkpt>
      <trkpt lat="45.8133259" lon="6.7332738"><ele>1281.8</ele></trkpt>
      <trkpt lat="45.8134664" lon="6.7336042"><ele>1285.3</ele></trkpt>
      <trkpt lat="45.8135158" lon="6.7336847"><ele>1288.7</ele></trkpt>
      <trkpt lat="45.8135238" lon="6.7336917"><ele>1292.1</ele></trkpt>
      <trkpt lat="45.8137532" lon="6.7338954"><ele>1295.4</ele></trkpt>
      <trkpt lat="45.8137297" lon="6.7340360"><ele>1299.2</ele></trkpt>
      <trkpt lat="45.8136119" lon="6.7341520"><ele>1302.9</ele></trkpt>
      <trkpt lat="45.8134936" lon="6.7341474"><ele>1307.0</ele></trkpt>
      <trkpt lat="45.8134227" lon="6.7341007"><ele>1311.5</ele></trkpt>
      <trkpt lat="45.8131774" lon="6.7339395"><ele>1315.7</ele></trkpt>
      <trkpt lat="45.8130435" lon="6.7337793"><ele>1320.3</ele></trkpt>
      <trkpt lat="45.8128472" lon="6.7337469"><ele>1324.6</ele></trkpt>
      <trkpt lat="45.8127410" lon="6.7337589"><ele>1329.5</ele></trkpt>
      <trkpt lat="45.8127316" lon="6.7338072"><ele>1334.3</ele></trkpt>
      <trkpt lat="45.8126187" lon="6.7339105"><ele>1339.2</ele></trkpt>
      <trkpt lat="45.8126367" lon="6.7339635"><ele>1343.8</ele></trkpt>
      <trkpt lat="45.8127545" lon="6.7343117"><ele>1348.0</ele></trkpt>
      <trkpt lat="45.8127647" lon="6.7343799"><ele>1352.4</ele></trkpt>
      <trkpt lat="45.8128211" lon="6.7347584"><ele>1357.1</ele></trkpt>
      <trkpt lat="45.8128454" lon="6.7348588"><ele>1361.2</ele></trkpt>
      <trkpt lat="45.8128460" lon="6.7349290"><ele>1365.6</ele></trkpt>
      <trkpt lat="45.8128492" lon="6.7353161"><ele>1369.4</ele></trkpt>
      <trkpt lat="45.8128880" lon="6.7355957"><ele>1373.5</ele></trkpt>
      <trkpt lat="45.8128786" lon="6.7358434"><ele>1376.9</ele></trkpt>
      <trkpt lat="45.8129174" lon="6.7360492"><ele>1380.5</ele></trkpt>
      <trkpt lat="45.8129136" lon="6.7363288"><ele>1385.7</ele></trkpt>
      <trkpt lat="45.8128284" lon="6.7363092"><ele>1390.8</ele></trkpt>
      <trkpt lat="45.8128274" lon="6.7363208"><ele>1396.0</ele></trkpt>
      <trkpt lat="45.8128107" lon="6.7364051"><ele>1400.9</ele></trkpt>
      <trkpt lat="45.8127368" lon="6.7367774"><ele>1406.0</ele></trkpt>
      <trkpt lat="45.8128350" lon="6.7370530"><ele>1411.4</ele></trkpt>
      <trkpt lat="45.8129578" lon="6.7373976"><ele>1416.5</ele></trkpt>
      <trkpt lat="45.8129413" lon="6.7373823"><ele>1422.1</ele></trkpt>
      <trkpt lat="45.8127147" lon="6.7371721"><ele>1428.0</ele></trkpt>
      <trkpt lat="45.8124882" lon="6.7369619"><ele>1432.3</ele></trkpt>
      <trkpt lat="45.8124689" lon="6.7369270"><ele>1436.4</ele></trkpt>
      <trkpt lat="45.8123013" lon="6.7366237"><ele>1440.2</ele></trkpt>
      <trkpt lat="45.8121337" lon="6.7363203"><ele>1444.7</ele></trkpt>
      <trkpt lat="45.8120937" lon="6.7361770"><ele>1449.0</ele></trkpt>
      <trkpt lat="45.8120236" lon="6.7359960"><ele>1452.8</ele></trkpt>
      <trkpt lat="45.8118318" lon="6.7358378"><ele>1457.3</ele></trkpt>
      <trkpt lat="45.8115979" lon="6.7356449"><ele>1461.6</ele></trkpt>
      <trkpt lat="45.8114027" lon="6.7356054"><ele>1465.7</ele></trkpt>
      <trkpt lat="45.8113197" lon="6.7356159"><ele>1469.7</ele></trkpt>
      <trkpt lat="45.8110509" lon="6.7356501"><ele>1474.2</ele></trkpt>
      <trkpt lat="45.8109233" lon="6.7357190"><ele>1478.4</ele></trkpt>
      <trkpt lat="45.8107289" lon="6.7357054"><ele>1482.4</ele></trkpt>
      <trkpt lat="45.8106805" lon="6.7357135"><ele>1486.3</ele></trkpt>
      <trkpt lat="45.8104125" lon="6.7357583"><ele>1490.1</ele></trkpt>
      <trkpt lat="45.8103215" lon="6.7357541"><ele>1493.9</ele></trkpt>
      <trkpt lat="45.8100519" lon="6.7357415"><ele>1497.4</ele></trkpt>
      <trkpt lat="45.8098565" lon="6.7357611"><ele>1500.7</ele></trkpt>
      <trkpt lat="45.8097779" lon="6.7357880"><ele>1504.5</ele></trkpt>
      <trkpt lat="45.8095155" lon="6.7358780"><ele>1507.9</ele></trkpt>
      <trkpt lat="45.8093421" lon="6.7358649"><ele>1511.3</ele></trkpt>
      <trkpt lat="45.8092296" lon="6.7358701"><ele>1514.5</ele></trkpt>
      <trkpt lat="45.8089599" lon="6.7358827"><ele>1517.6</ele></trkpt>
      <trkpt lat="45.8087870" lon="6.7358231"><ele>1520.6</ele></trkpt>
      <trkpt lat="45.8085247" lon="6.7357328"><ele>1523.5</ele></trkpt>
      <trkpt lat="45.8082726" lon="6.7357570"><ele>1526.2</ele></trkpt>
      <trkpt lat="45.8080034" lon="6.7357830"><ele>1529.1</ele></trkpt>
      <trkpt lat="45.8079628" lon="6.7357768"><ele>1531.5</ele></trkpt>
      <trkpt lat="45.8076946" lon="6.7357356"><ele>1534.5</ele></trkpt>
      <trkpt lat="45.8076587" lon="6.7357327"><ele>1537.8</ele></trkpt>
      <trkpt lat="45.8073894" lon="6.7357103"><ele>1541.7</ele></trkpt>
      <trkpt lat="45.8073645" lon="6.7357139"><ele>1545.9</ele></trkpt>
      <trkpt lat="45.8070960" lon="6.7357525"><ele>1550.3</ele></trkpt>
      <trkpt lat="45.8068276" lon="6.7357911"><ele>1554.8</ele></trkpt>
      <trkpt lat="45.8065591" lon="6.7358297"><ele>1559.6</ele></trkpt>
      <trkpt lat="45.8063960" lon="6.7358245"><ele>1564.4</ele></trkpt>
      <trkpt lat="45.8063332" lon="6.7358397"><ele>1569.8</ele></trkpt>
      <trkpt lat="45.8061940" lon="6.7358793"><ele>1574.5</ele></trkpt>
      <trkpt lat="45.8060475" lon="6.7360055"><ele>1579.1</ele></trkpt>
      <trkpt lat="45.8059526" lon="6.7362335"><ele>1582.9</ele></trkpt>
      <trkpt lat="45.8058142" lon="6.7365658"><ele>1586.8</ele></trkpt>
      <trkpt lat="45.8058094" lon="6.7365752"><ele>1591.1</ele></trkpt>
      <trkpt lat="45.8056498" lon="6.7368873"><ele>1595.3</ele></trkpt>
      <trkpt lat="45.8056439" lon="6.7368953"><ele>1599.2</ele></trkpt>
      <trkpt lat="45.8054484" lon="6.7371620"><ele>1602.6</ele></trkpt>
      <trkpt lat="45.8052529" lon="6.7374286"><ele>1605.8</ele></trkpt>
      <trkpt lat="45.8050478" lon="6.7375204"><ele>1609.6</ele></trkpt>
      <trkpt lat="45.8049808" lon="6.7374794"><ele>1613.5</ele></trkpt>
      <trkpt lat="45.8049686" lon="6.7374712"><ele>1617.5</ele></trkpt>
      <trkpt lat="45.8047241" lon="6.7373076"><ele>1621.2</ele></trkpt>
      <trkpt lat="45.8045470" lon="6.7373982"><ele>1624.7</ele></trkpt>
      <trkpt lat="45.8044381" lon="6.7374376"><ele>1628.7</ele></trkpt>
      <trkpt lat="45.8043992" lon="6.7374637"><ele>1632.7</ele></trkpt>
      <trkpt lat="45.8043540" lon="6.7376050"><ele>1637.3</ele></trkpt>
      <trkpt lat="45.8042747" lon="6.7375623"><ele>1642.2</ele></trkpt>
      <trkpt lat="45.8040221" lon="6.7374263"><ele>1647.3</ele></trkpt>
      <trkpt lat="45.8040135" lon="6.7374313"><ele>1651.9</ele></trkpt>
      <trkpt lat="45.8038577" lon="6.7374166"><ele>1656.6</ele></trkpt>
      <trkpt lat="45.8035885" lon="6.7373913"><ele>1661.1</ele></trkpt>
      <trkpt lat="45.8033700" lon="6.7374635"><ele>1665.5</ele></trkpt>
      <trkpt lat="45.8034029" lon="6.7375567"><ele>1668.9</ele></trkpt>
      <trkpt lat="45.8034226" lon="6.7376406"><ele>1673.2</ele></trkpt>
      <trkpt lat="45.8034143" lon="6.7377235"><ele>1677.1</ele></trkpt>
      <trkpt lat="45.8033436" lon="6.7377654"><ele>1680.5</ele></trkpt>
      <trkpt lat="45.8033344" lon="6.7377628"><ele>1683.8</ele></trkpt>
      <trkpt lat="45.8030696" lon="6.7376884"><ele>1686.8</ele></trkpt>
      <trkpt lat="45.8030372" lon="6.7376813"><ele>1690.2</ele></trkpt>
      <trkpt lat="45.8027706" lon="6.7376226"><ele>1693.6</ele></trkpt>
      <trkpt lat="45.8026199" lon="6.7375225"><ele>1697.0</ele></trkpt>
      <trkpt lat="45.8025959" lon="6.7375114"><ele>1700.6</ele></trkpt>
      <trkpt lat="45.8023391" lon="6.7373926"><ele>1703.4</ele></trkpt>
      <trkpt lat="45.8021598" lon="6.7372577"><ele>1706.2</ele></trkpt>
      <trkpt lat="45.8019209" lon="6.7370779"><ele>1708.4</ele></trkpt>
      <trkpt lat="45.8016820" lon="6.7368980"><ele>1710.1</ele></trkpt>
      <trkpt lat="45.8016100" lon="6.7367557"><ele>1711.8</ele></trkpt>
      <trkpt lat="45.8015148" lon="6.7366589"><ele>1712.8</ele></trkpt>
      <trkpt lat="45.8014813" lon="6.7366144"><ele>1713.6</ele></trkpt>
      <trkpt lat="45.8012834" lon="6.7363513"><ele>1714.1</ele></trkpt>
      <trkpt lat="45.8010855" lon="6.7360883"><ele>1714.3</ele></trkpt>
      <trkpt lat="45.8010318" lon="6.7360350"><ele>1714.3</ele></trkpt>
      <trkpt lat="45.8008099" lon="6.7358149"><ele>1714.2</ele></trkpt>
      <trkpt lat="45.8005878" lon="6.7356172"><ele>1714.0</ele></trkpt>
      <trkpt lat="45.8005515" lon="6.7355953"><ele>1714.4</ele></trkpt>
      <trkpt lat="45.8003029" lon="6.7354449"><ele>1714.9</ele></trkpt>
      <trkpt lat="45.8000543" lon="6.7352945"><ele>1715.5</ele></trkpt>
      <trkpt lat="45.7998214" lon="6.7353359"><ele>1716.3</ele></trkpt>
      <trkpt lat="45.7995843" lon="6.7352401"><ele>1717.4</ele></trkpt>
      <trkpt lat="45.7994049" lon="6.7351488"><ele>1718.6</ele></trkpt>
      <trkpt lat="45.7992468" lon="6.7351974"><ele>1720.2</ele></trkpt>
      <trkpt lat="45.7989830" lon="6.7352786"><ele>1722.1</ele></trkpt>
      <trkpt lat="45.7988012" lon="6.7352792"><ele>1724.5</ele></trkpt>
      <trkpt lat="45.7987311" lon="6.7353007"><ele>1726.7</ele></trkpt>
      <trkpt lat="45.7984673" lon="6.7353817"><ele>1729.4</ele></trkpt>
      <trkpt lat="45.7982072" lon="6.7354570"><ele>1732.3</ele></trkpt>
      <trkpt lat="45.7979427" lon="6.7355336"><ele>1735.2</ele></trkpt>
      <trkpt lat="45.7978508" lon="6.7355714"><ele>1738.1</ele></trkpt>
      <trkpt lat="45.7975914" lon="6.7356781"><ele>1741.6</ele></trkpt>
      <trkpt lat="45.7974673" lon="6.7357812"><ele>1744.7</ele></trkpt>
      <trkpt lat="45.7972676" lon="6.7359090"><ele>1748.1</ele></trkpt>
      <trkpt lat="45.7971446" lon="6.7359592"><ele>1751.4</ele></trkpt>
      <trkpt lat="45.7968851" lon="6.7360649"><ele>1754.5</ele></trkpt>
      <trkpt lat="45.7968666" lon="6.7360607"><ele>1757.6</ele></trkpt>
      <trkpt lat="45.7966001" lon="6.7360007"><ele>1760.8</ele></trkpt>
      <trkpt lat="45.7964600" lon="6.7359759"><ele>1764.3</ele></trkpt>
      <trkpt lat="45.7964524" lon="6.7359727"><ele>1767.9</ele></trkpt>
      <trkpt lat="45.7961934" lon="6.7358642"><ele>1771.0</ele></trkpt>
      <trkpt lat="45.7960917" lon="6.7358843"><ele>1774.4</ele></trkpt>
      <trkpt lat="45.7962848" lon="6.7360654"><ele>1777.7</ele></trkpt>
      <trkpt lat="45.7964154" lon="6.7363840"><ele>1781.3</ele></trkpt>
      <trkpt lat="45.7964666" lon="6.7364590"><ele>1785.6</ele></trkpt>
      <trkpt lat="45.7966554" lon="6.7367354"><ele>1789.7</ele></trkpt>
      <trkpt lat="45.7964889" lon="6.7366776"><ele>1793.8</ele></trkpt>
      <trkpt lat="45.7962267" lon="6.7365864"><ele>1797.7</ele></trkpt>
      <trkpt lat="45.7959644" lon="6.7364953"><ele>1802.0</ele></trkpt>
      <trkpt lat="45.7958283" lon="6.7363768"><ele>1806.4</ele></trkpt>
      <trkpt lat="45.7956914" lon="6.7363021"><ele>1811.2</ele></trkpt>
      <trkpt lat="45.7956169" lon="6.7362487"><ele>1815.5</ele></trkpt>
      <trkpt lat="45.7953755" lon="6.7360757"><ele>1819.3</ele></trkpt>
      <trkpt lat="45.7953102" lon="6.7359983"><ele>1822.4</ele></trkpt>
      <trkpt lat="45.7951021" lon="6.7357521"><ele>1825.9</ele></trkpt>
      <trkpt lat="45.7949517" lon="6.7356604"><ele>1829.2</ele></trkpt>
      <trkpt lat="45.7947034" lon="6.7355091"><ele>1832.7</ele></trkpt>
      <trkpt lat="45.7946468" lon="6.7354944"><ele>1835.8</ele></trkpt>
      <trkpt lat="45.7943813" lon="6.7354254"><ele>1839.6</ele></trkpt>
      <trkpt lat="45.7942370" lon="6.7353305"><ele>1843.3</ele></trkpt>
      <trkpt lat="45.7939917" lon="6.7351693"><ele>1847.6</ele></trkpt>
      <trkpt lat="45.7939039" lon="6.7351571"><ele>1851.9</ele></trkpt>
      <trkpt lat="45.7936354" lon="6.7351197"><ele>1856.6</ele></trkpt>
      <trkpt lat="45.7935658" lon="6.7351653"><ele>1861.1</ele></trkpt>
      <trkpt lat="45.7934052" lon="6.7351468"><ele>1865.5</ele></trkpt>
      <trkpt lat="45.7933722" lon="6.7351266"><ele>1869.9</ele></trkpt>
      <trkpt lat="45.7931243" lon="6.7349741"><ele>1874.1</ele></trkpt>
      <trkpt lat="45.7928763" lon="6.7348216"><ele>1877.7</ele></trkpt>
      <trkpt lat="45.7927949" lon="6.7347325"><ele>1881.8</ele></trkpt>
      <trkpt lat="45.7925804" lon="6.7344977"><ele>1886.2</ele></trkpt>
      <trkpt lat="45.7925457" lon="6.7344719"><ele>1891.3</ele></trkpt>
      <trkpt lat="45.7924945" lon="6.7344630"><ele>1896.8</ele></trkpt>
      <trkpt lat="45.7924085" lon="6.7347408"><ele>1902.1</ele></trkpt>
      <trkpt lat="45.7924649" lon="6.7350447"><ele>1907.7</ele></trkpt>
      <trkpt lat="45.7924924" lon="6.7352816"><ele>1913.4</ele></trkpt>
      <trkpt lat="45.7924453" lon="6.7355680"><ele>1919.3</ele></trkpt>
      <trkpt lat="45.7923882" lon="6.7356334"><ele>1924.8</ele></trkpt>
      <trkpt lat="45.7922126" lon="6.7355434"><ele>1929.6</ele></trkpt>
      <trkpt lat="45.7919585" lon="6.7354132"><ele>1933.9</ele></trkpt>
      <trkpt lat="45.7918649" lon="6.7351821"><ele>1937.6</ele></trkpt>
      <trkpt lat="45.7918147" lon="6.7351439"><ele>1941.2</ele></trkpt>
      <trkpt lat="45.7915762" lon="6.7349629"><ele>1944.5</ele></trkpt>
      <trkpt lat="45.7915570" lon="6.7352806"><ele>1947.8</ele></trkpt>
      <trkpt lat="45.7915348" lon="6.7354166"><ele>1950.8</ele></trkpt>
      <trkpt lat="45.7914735" lon="6.7357934"><ele>1953.7</ele></trkpt>
      <trkpt lat="45.7914738" lon="6.7359814"><ele>1956.6</ele></trkpt>
      <trkpt lat="45.7914743" lon="6.7363684"><ele>1959.3</ele></trkpt>
      <trkpt lat="45.7914748" lon="6.7367553"><ele>1961.4</ele></trkpt>
      <trkpt lat="45.7914326" lon="6.7369410"><ele>1963.3</ele></trkpt>
      <trkpt lat="45.7912977" lon="6.7370495"><ele>1964.6</ele></trkpt>
      <trkpt lat="45.7912929" lon="6.7370732"><ele>1965.9</ele></trkpt>
      <trkpt lat="45.7912171" lon="6.7374445"><ele>1967.0</ele></trkpt>
      <trkpt lat="45.7911412" lon="6.7378158"><ele>1968.2</ele></trkpt>
      <trkpt lat="45.7911251" lon="6.7378469"><ele>1969.7</ele></trkpt>
      <trkpt lat="45.7909641" lon="6.7381573"><ele>1972.0</ele></trkpt>
      <trkpt lat="45.7909332" lon="6.7383194"><ele>1974.7</ele></trkpt>
      <trkpt lat="45.7908620" lon="6.7384535"><ele>1978.1</ele></trkpt>
      <trkpt lat="45.7908779" lon="6.7385441"><ele>1982.6</ele></trkpt>
      <trkpt lat="45.7908966" lon="6.7387291"><ele>1987.1</ele></trkpt>
      <trkpt lat="45.7909313" lon="6.7388437"><ele>1992.8</ele></trkpt>
      <trkpt lat="45.7909420" lon="6.7389936"><ele>1998.1</ele></trkpt>
      <trkpt lat="45.7910867" lon="6.7391685"><ele>2003.0</ele></trkpt>
      <trkpt lat="45.7910938" lon="6.7391798"><ele>2007.7</ele></trkpt>
      <trkpt lat="45.7912732" lon="6.7394687"><ele>2012.3</ele></trkpt>
      <trkpt lat="45.7912772" lon="6.7394725"><ele>2016.8</ele></trkpt>
      <trkpt lat="45.7912876" lon="6.7394852"><ele>2021.1</ele></trkpt>
      <trkpt lat="45.7913239" lon="6.7395176"><ele>2024.4</ele></trkpt>
      <trkpt lat="45.7915531" lon="6.7397217"><ele>2028.6</ele></trkpt>
      <trkpt lat="45.7916243" lon="6.7398580"><ele>2031.8</ele></trkpt>
      <trkpt lat="45.7916542" lon="6.7400593"><ele>2035.6</ele></trkpt>
      <trkpt lat="45.7916691" lon="6.7401054"><ele>2039.7</ele></trkpt>
      <trkpt lat="45.7917829" lon="6.7404562"><ele>2044.2</ele></trkpt>
      <trkpt lat="45.7917392" lon="6.7407021"><ele>2048.4</ele></trkpt>
      <trkpt lat="45.7916725" lon="6.7410771"><ele>2052.9</ele></trkpt>
      <trkpt lat="45.7916767" lon="6.7413216"><ele>2057.1</ele></trkpt>
      <trkpt lat="45.7916331" lon="6.7416868"><ele>2062.0</ele></trkpt>
      <trkpt lat="45.7915875" lon="6.7420681"><ele>2066.3</ele></trkpt>
      <trkpt lat="45.7915419" lon="6.7424495"><ele>2071.1</ele></trkpt>
      <trkpt lat="45.7915151" lon="6.7425311"><ele>2076.0</ele></trkpt>
      <trkpt lat="45.7913998" lon="6.7428809"><ele>2080.6</ele></trkpt>
      <trkpt lat="45.7913797" lon="6.7429965"><ele>2085.4</ele></trkpt>
      <trkpt lat="45.7913143" lon="6.7433719"><ele>2090.1</ele></trkpt>
      <trkpt lat="45.7913840" lon="6.7433218"><ele>2095.5</ele></trkpt>
      <trkpt lat="45.7913930" lon="6.7433235"><ele>2101.7</ele></trkpt>
      <trkpt lat="45.7914849" lon="6.7434629"><ele>2108.3</ele></trkpt>
      <trkpt lat="45.7915003" lon="6.7435931"><ele>2115.1</ele></trkpt>
      <trkpt lat="45.7915454" lon="6.7439746"><ele>2121.7</ele></trkpt>
      <trkpt lat="45.7916204" lon="6.7442133"><ele>2128.2</ele></trkpt>
      <trkpt lat="45.7917311" lon="6.7445661"><ele>2135.6</ele></trkpt>
      <trkpt lat="45.7917739" lon="6.7446809"><ele>2142.6</ele></trkpt>
      <trkpt lat="45.7918387" lon="6.7448167"><ele>2149.1</ele></trkpt>
      <trkpt lat="45.7918661" lon="6.7449769"><ele>2155.4</ele></trkpt>
      <trkpt lat="45.7919485" lon="6.7451887"><ele>2161.4</ele></trkpt>
      <trkpt lat="45.7919673" lon="6.7452636"><ele>2167.8</ele></trkpt>
      <trkpt lat="45.7919822" lon="6.7452938"><ele>2173.7</ele></trkpt>
      <trkpt lat="45.7921375" lon="6.7456101"><ele>2179.1</ele></trkpt>
      <trkpt lat="45.7921667" lon="6.7456254"><ele>2185.9</ele></trkpt>
      <trkpt lat="45.7922959" lon="6.7456094"><ele>2193.0</ele></trkpt>
      <trkpt lat="45.7923091" lon="6.7455840"><ele>2200.9</ele></trkpt>
      <trkpt lat="45.7923136" lon="6.7455649"><ele>2209.8</ele></trkpt>
      <trkpt lat="45.7924004" lon="6.7451985"><ele>2218.3</ele></trkpt>
      <trkpt lat="45.7925691" lon="6.7451547"><ele>2227.2</ele></trkpt>
      <trkpt lat="45.7926952" lon="6.7454535"><ele>2235.1</ele></trkpt>
      <trkpt lat="45.7928349" lon="6.7457845"><ele>2243.7</ele></trkpt>
      <trkpt lat="45.7929917" lon="6.7460200"><ele>2253.2</ele></trkpt>
      <trkpt lat="45.7931781" lon="6.7462997"><ele>2261.5</ele></trkpt>
      <trkpt lat="45.7932312" lon="6.7465749"><ele>2269.3</ele></trkpt>
      <trkpt lat="45.7932539" lon="6.7468291"><ele>2276.7</ele></trkpt>
      <trkpt lat="45.7933075" lon="6.7469822"><ele>2283.4</ele></trkpt>
      <trkpt lat="45.7933872" lon="6.7471724"><ele>2290.5</ele></trkpt>
      <trkpt lat="45.7933977" lon="6.7474064"><ele>2297.0</ele></trkpt>
      <trkpt lat="45.7934412" lon="6.7476672"><ele>2303.6</ele></trkpt>
      <trkpt lat="45.7934785" lon="6.7478179"><ele>2309.8</ele></trkpt>
      <trkpt lat="45.7936328" lon="6.7476435"><ele>2315.2</ele></trkpt>
      <trkpt lat="45.7936636" lon="6.7477172"><ele>2320.4</ele></trkpt>
      <trkpt lat="45.7937237" lon="6.7478586"><ele>2324.9</ele></trkpt>
      <trkpt lat="45.7937409" lon="6.7480279"><ele>2329.9</ele></trkpt>
      <trkpt lat="45.7937360" lon="6.7481063"><ele>2334.5</ele></trkpt>
      <trkpt lat="45.7937179" lon="6.7482338"><ele>2337.9</ele></trkpt>
      <trkpt lat="45.7937195" lon="6.7482552"><ele>2341.0</ele></trkpt>
      <trkpt lat="45.7937484" lon="6.7486399"><ele>2343.7</ele></trkpt>
      <trkpt lat="45.7937602" lon="6.7487264"><ele>2345.9</ele></trkpt>
      <trkpt lat="45.7937792" lon="6.7490545"><ele>2348.0</ele></trkpt>
      <trkpt lat="45.7938015" lon="6.7494402"><ele>2349.9</ele></trkpt>
      <trkpt lat="45.7939170" lon="6.7497220"><ele>2352.0</ele></trkpt>
      <trkpt lat="45.7939213" lon="6.7499929"><ele>2353.1</ele></trkpt>
      <trkpt lat="45.7939711" lon="6.7502603"><ele>2354.7</ele></trkpt>
      <trkpt lat="45.7939364" lon="6.7504937"><ele>2356.4</ele></trkpt>
      <trkpt lat="45.7939718" lon="6.7506709"><ele>2358.0</ele></trkpt>
      <trkpt lat="45.7940045" lon="6.7508152"><ele>2359.3</ele></trkpt>
      <trkpt lat="45.7940877" lon="6.7511832"><ele>2360.9</ele></trkpt>
      <trkpt lat="45.7940771" lon="6.7513869"><ele>2362.4</ele></trkpt>
      <trkpt lat="45.7940785" lon="6.7514047"><ele>2364.6</ele></trkpt>
      <trkpt lat="45.7941080" lon="6.7517893"><ele>2367.4</ele></trkpt>
      <trkpt lat="45.7941055" lon="6.7521233"><ele>2370.1</ele></trkpt>
      <trkpt lat="45.7940844" lon="6.7521498"><ele>2372.8</ele></trkpt>
      <trkpt lat="45.7938814" lon="6.7524048"><ele>2375.8</ele></trkpt>
      <trkpt lat="45.7938485" lon="6.7526471"><ele>2379.3</ele></trkpt>
      <trkpt lat="45.7938661" lon="6.7527413"><ele>2382.7</ele></trkpt>
      <trkpt lat="45.7939359" lon="6.7531150"><ele>2386.0</ele></trkpt>
      <trkpt lat="45.7939300" lon="6.7532740"><ele>2389.2</ele></trkpt>
      <trkpt lat="45.7939155" lon="6.7536604"><ele>2391.1</ele></trkpt>
      <trkpt lat="45.7938483" lon="6.7536829"><ele>2392.1</ele></trkpt>
      <trkpt lat="45.7938174" lon="6.7537011"><ele>2393.0</ele></trkpt>
      <trkpt lat="45.7935679" lon="6.7538485"><ele>2393.3</ele></trkpt>
      <trkpt lat="45.7933365" lon="6.7539371"><ele>2393.2</ele></trkpt>
      <trkpt lat="45.7932994" lon="6.7539451"><ele>2392.4</ele></trkpt>
      <trkpt lat="45.7930326" lon="6.7540026"><ele>2391.4</ele></trkpt>
      <trkpt lat="45.7929852" lon="6.7539960"><ele>2390.2</ele></trkpt>
      <trkpt lat="45.7927166" lon="6.7539586"><ele>2389.4</ele></trkpt>
      <trkpt lat="45.7924481" lon="6.7539212"><ele>2388.7</ele></trkpt>
      <trkpt lat="45.7921796" lon="6.7538838"><ele>2387.7</ele></trkpt>
      <trkpt lat="45.7919110" lon="6.7538464"><ele>2386.1</ele></trkpt>
      <trkpt lat="45.7917216" lon="6.7536762"><ele>2384.6</ele></trkpt>
      <trkpt lat="45.7917132" lon="6.7537338"><ele>2383.9</ele></trkpt>
      <trkpt lat="45.7917050" lon="6.7538512"><ele>2383.5</ele></trkpt>
      <trkpt lat="45.7916780" lon="6.7542362"><ele>2383.9</ele></trkpt>
      <trkpt lat="45.7916775" lon="6.7542439"><ele>2384.7</ele></trkpt>
      <trkpt lat="45.7916533" lon="6.7546293"><ele>2386.0</ele></trkpt>
      <trkpt lat="45.7916252" lon="6.7547478"><ele>2387.8</ele></trkpt>
      <trkpt lat="45.7915383" lon="6.7551141"><ele>2390.1</ele></trkpt>
      <trkpt lat="45.7915330" lon="6.7551966"><ele>2393.0</ele></trkpt>
      <trkpt lat="45.7915081" lon="6.7555819"><ele>2396.4</ele></trkpt>
      <trkpt lat="45.7914768" lon="6.7557099"><ele>2399.7</ele></trkpt>
      <trkpt lat="45.7914593" lon="6.7558270"><ele>2402.8</ele></trkpt>
      <trkpt lat="45.7914592" lon="6.7558273"><ele>2405.2</ele></trkpt>
      <trkpt lat="45.7913426" lon="6.7561763"><ele>2407.5</ele></trkpt>
      <trkpt lat="45.7912261" lon="6.7565252"><ele>2408.8</ele></trkpt>
      <trkpt lat="45.7912284" lon="6.7566928"><ele>2409.6</ele></trkpt>
      <trkpt lat="45.7912339" lon="6.7570797"><ele>2410.0</ele></trkpt>
      <trkpt lat="45.7912393" lon="6.7574665"><ele>2409.6</ele></trkpt>
      <trkpt lat="45.7911988" lon="6.7576562"><ele>2408.7</ele></trkpt>
      <trkpt lat="45.7910242" lon="6.7577282"><ele>2406.7</ele></trkpt>
      <trkpt lat="45.7909549" lon="6.7576831"><ele>2404.2</ele></trkpt>
      <trkpt lat="45.7907092" lon="6.7575232"><ele>2401.1</ele></trkpt>
      <trkpt lat="45.7906958" lon="6.7575144"><ele>2397.4</ele></trkpt>
      <trkpt lat="45.7904504" lon="6.7573534"><ele>2393.2</ele></trkpt>
      <trkpt lat="45.7902051" lon="6.7571925"><ele>2388.5</ele></trkpt>
      <trkpt lat="45.7899597" lon="6.7570316"><ele>2383.1</ele></trkpt>
      <trkpt lat="45.7900236" lon="6.7568982"><ele>2377.4</ele></trkpt>
      <trkpt lat="45.7900575" lon="6.7567638"><ele>2370.8</ele></trkpt>
      <trkpt lat="45.7898860" lon="6.7566496"><ele>2364.0</ele></trkpt>
      <trkpt lat="45.7896414" lon="6.7564866"><ele>2358.0</ele></trkpt>
      <trkpt lat="45.7893967" lon="6.7563236"><ele>2353.5</ele></trkpt>
      <trkpt lat="45.7891520" lon="6.7561606"><ele>2350.6</ele></trkpt>
      <trkpt lat="45.7846702" lon="6.7573832"><ele>2348.8</ele></trkpt>
      <trkpt lat="45.7846048" lon="6.7575041"><ele>2348.4</ele></trkpt>
      <trkpt lat="45.7845754" lon="6.7576820"><ele>2349.8</ele></trkpt>
      <trkpt lat="45.7845613" lon="6.7580035"><ele>2352.9</ele></trkpt>
      <trkpt lat="45.7844488" lon="6.7581854"><ele>2358.1</ele></trkpt>
      <trkpt lat="45.7842697" lon="6.7584747"><ele>2364.8</ele></trkpt>
      <trkpt lat="45.7840906" lon="6.7587641"><ele>2371.7</ele></trkpt>
      <trkpt lat="45.7840250" lon="6.7588956"><ele>2378.2</ele></trkpt>
      <trkpt lat="45.7840059" lon="6.7591007"><ele>2384.2</ele></trkpt>
      <trkpt lat="45.7840516" lon="6.7593240"><ele>2391.3</ele></trkpt>
      <trkpt lat="45.7841079" lon="6.7594199"><ele>2398.4</ele></trkpt>
      <trkpt lat="45.7841825" lon="6.7594371"><ele>2406.4</ele></trkpt>
      <trkpt lat="45.7842394" lon="6.7594630"><ele>2413.7</ele></trkpt>
      <trkpt lat="45.7844966" lon="6.7595798"><ele>2420.2</ele></trkpt>
      <trkpt lat="45.7846432" lon="6.7596299"><ele>2426.0</ele></trkpt>
      <trkpt lat="45.7848482" lon="6.7595693"><ele>2432.2</ele></trkpt>
      <trkpt lat="45.7848883" lon="6.7595748"><ele>2439.4</ele></trkpt>
      <trkpt lat="45.7849567" lon="6.7595972"><ele>2447.8</ele></trkpt>
      <trkpt lat="45.7849667" lon="6.7595992"><ele>2456.0</ele></trkpt>
      <trkpt lat="45.7850333" lon="6.7598132"><ele>2464.9</ele></trkpt>
      <trkpt lat="45.7851434" lon="6.7601664"><ele>2473.6</ele></trkpt>
      <trkpt lat="45.7852535" lon="6.7605196"><ele>2483.7</ele></trkpt>
      <trkpt lat="45.7853635" lon="6.7608729"><ele>2495.1</ele></trkpt>
      <trkpt lat="45.7854736" lon="6.7612261"><ele>2507.8</ele></trkpt>
      <trkpt lat="45.7855836" lon="6.7615794"><ele>2521.2</ele></trkpt>
      <trkpt lat="45.7856937" lon="6.7619326"><ele>2534.5</ele></trkpt>
      <trkpt lat="45.7858038" lon="6.7622858"><ele>2547.9</ele></trkpt>
      <trkpt lat="45.7859138" lon="6.7626391"><ele>2561.2</ele></trkpt>
      <trkpt lat="45.7860239" lon="6.7629923"><ele>2574.6</ele></trkpt>
      <trkpt lat="45.7861340" lon="6.7633455"><ele>2587.9</ele></trkpt>
      <trkpt lat="45.7862440" lon="6.7636988"><ele>2601.3</ele></trkpt>
      <trkpt lat="45.7863541" lon="6.7640520"><ele>2614.6</ele></trkpt>
      <trkpt lat="45.7864641" lon="6.7644052"><ele>2626.8</ele></trkpt>
      <trkpt lat="45.7865742" lon="6.7647585"><ele>2637.7</ele></trkpt>
      <trkpt lat="45.7866843" lon="6.7651117"><ele>2647.8</ele></trkpt>
      <trkpt lat="45.7867943" lon="6.7654649"><ele>2656.6</ele></trkpt>
      <trkpt lat="45.7869250" lon="6.7656573"><ele>2664.1</ele></trkpt>
      <trkpt lat="45.7869821" lon="6.7657011"><ele>2671.0</ele></trkpt>
      <trkpt lat="45.7870851" lon="6.7657247"><ele>2676.7</ele></trkpt>
      <trkpt lat="45.7871478" lon="6.7656802"><ele>2681.0</ele></trkpt>
      <trkpt lat="45.7872052" lon="6.7656756"><ele>2685.0</ele></trkpt>
      <trkpt lat="45.7874746" lon="6.7656540"><ele>2688.9</ele></trkpt>
      <trkpt lat="45.7875239" lon="6.7656483"><ele>2693.5</ele></trkpt>
      <trkpt lat="45.7875482" lon="6.7656557"><ele>2698.0</ele></trkpt>
      <trkpt lat="45.7878122" lon="6.7657355"><ele>2702.3</ele></trkpt>
      <trkpt lat="45.7878045" lon="6.7657728"><ele>2706.8</ele></trkpt>
      <trkpt lat="45.7878842" lon="6.7660378"><ele>2710.8</ele></trkpt>
      <trkpt lat="45.7879811" lon="6.7660847"><ele>2714.8</ele></trkpt>
      <trkpt lat="45.7879901" lon="6.7660964"><ele>2719.9</ele></trkpt>
      <trkpt lat="45.7880519" lon="6.7661757"><ele>2724.3</ele></trkpt>
      <trkpt lat="45.7881255" lon="6.7661848"><ele>2729.3</ele></trkpt>
      <trkpt lat="45.7881637" lon="6.7661989"><ele>2733.8</ele></trkpt>
      <trkpt lat="45.7884250" lon="6.7662953"><ele>2738.3</ele></trkpt>
      <trkpt lat="45.7884971" lon="6.7662918"><ele>2742.5</ele></trkpt>
      <trkpt lat="45.7886237" lon="6.7662387"><ele>2746.3</ele></trkpt>
      <trkpt lat="45.7886994" lon="6.7661706"><ele>2749.5</ele></trkpt>
      <trkpt lat="45.7888745" lon="6.7662091"><ele>2752.5</ele></trkpt>
      <trkpt lat="45.7890026" lon="6.7663169"><ele>2753.9</ele></trkpt>
      <trkpt lat="45.7890293" lon="6.7663239"><ele>2755.1</ele></trkpt>
      <trkpt lat="45.7892946" lon="6.7663939"><ele>2757.5</ele></trkpt>
      <trkpt lat="45.7894367" lon="6.7664916"><ele>2760.6</ele></trkpt>
      <trkpt lat="45.7895059" lon="6.7666011"><ele>2763.3</ele></trkpt>
      <trkpt lat="45.7895402" lon="6.7666249"><ele>2766.2</ele></trkpt>
      <trkpt lat="45.7897831" lon="6.7667933"><ele>2769.1</ele></trkpt>
      <trkpt lat="45.7900340" lon="6.7667825"><ele>2772.3</ele></trkpt>
      <trkpt lat="45.7901604" lon="6.7667406"><ele>2775.7</ele></trkpt>
      <trkpt lat="45.7904233" lon="6.7666535"><ele>2779.8</ele></trkpt>
      <trkpt lat="45.7904773" lon="6.7667649"><ele>2783.8</ele></trkpt>
      <trkpt lat="45.7905354" lon="6.7668888"><ele>2786.4</ele></trkpt>
      <trkpt lat="45.7906860" lon="6.7672099"><ele>2788.6</ele></trkpt>
      <trkpt lat="45.7907810" lon="6.7672265"><ele>2791.1</ele></trkpt>
      <trkpt lat="45.7908473" lon="6.7672806"><ele>2793.7</ele></trkpt>
      <trkpt lat="45.7910817" lon="6.7674721"><ele>2796.6</ele></trkpt>
      <trkpt lat="45.7913162" lon="6.7676636"><ele>2800.3</ele></trkpt>
      <trkpt lat="45.7914162" lon="6.7677293"><ele>2804.2</ele></trkpt>
      <trkpt lat="45.7914522" lon="6.7677697"><ele>2808.6</ele></trkpt>
      <trkpt lat="45.7914988" lon="6.7678162"><ele>2813.0</ele></trkpt>
      <trkpt lat="45.7917202" lon="6.7680373"><ele>2817.7</ele></trkpt>
      <trkpt lat="45.7918251" lon="6.7681798"><ele>2822.7</ele></trkpt>
      <trkpt lat="45.7920210" lon="6.7684459"><ele>2827.8</ele></trkpt>
      <trkpt lat="45.7920635" lon="6.7684856"><ele>2833.6</ele></trkpt>
      <trkpt lat="45.7922898" lon="6.7686963"><ele>2839.8</ele></trkpt>
      <trkpt lat="45.7925161" lon="6.7689070"><ele>2845.8</ele></trkpt>
      <trkpt lat="45.7926560" lon="6.7690813"><ele>2851.4</ele></trkpt>
      <trkpt lat="45.7928596" lon="6.7693351"><ele>2857.2</ele></trkpt>
      <trkpt lat="45.7930633" lon="6.7695889"><ele>2863.5</ele></trkpt>
      <trkpt lat="45.7932057" lon="6.7697096"><ele>2869.9</ele></trkpt>
      <trkpt lat="45.7932236" lon="6.7697244"><ele>2875.6</ele></trkpt>
      <trkpt lat="45.7934576" lon="6.7699171"><ele>2881.8</ele></trkpt>
      <trkpt lat="45.7935997" lon="6.7700629"><ele>2887.7</ele></trkpt>
      <trkpt lat="45.7938192" lon="6.7702881"><ele>2894.0</ele></trkpt>
      <trkpt lat="45.7938715" lon="6.7703714"><ele>2900.0</ele></trkpt>
      <trkpt lat="45.7940520" lon="6.7706590"><ele>2905.9</ele></trkpt>
      <trkpt lat="45.7941447" lon="6.7707819"><ele>2911.0</ele></trkpt>
      <trkpt lat="45.7943428" lon="6.7710445"><ele>2916.9</ele></trkpt>
      <trkpt lat="45.7944025" lon="6.7711025"><ele>2922.5</ele></trkpt>
      <trkpt lat="45.7944173" lon="6.7711097"><ele>2928.6</ele></trkpt>
      <trkpt lat="45.7944211" lon="6.7711142"><ele>2934.2</ele></trkpt>
      <trkpt lat="45.7946299" lon="6.7713594"><ele>2939.9</ele></trkpt>
      <trkpt lat="45.7947552" lon="6.7715244"><ele>2944.5</ele></trkpt>
      <trkpt lat="45.7948942" lon="6.7716072"><ele>2950.3</ele></trkpt>
      <trkpt lat="45.7949974" lon="6.7717027"><ele>2956.1</ele></trkpt>
      <trkpt lat="45.7950980" lon="6.7717380"><ele>2962.0</ele></trkpt>
      <trkpt lat="45.7951163" lon="6.7717514"><ele>2966.4</ele></trkpt>
      <trkpt lat="45.7953568" lon="6.7719268"><ele>2971.2</ele></trkpt>
      <trkpt lat="45.7953863" lon="6.7719636"><ele>2976.2</ele></trkpt>
      <trkpt lat="45.7953950" lon="6.7719714"><ele>2981.0</ele></trkpt>
      <trkpt lat="45.7953954" lon="6.7719718"><ele>2985.8</ele></trkpt>
      <trkpt lat="45.7956258" lon="6.7721733"><ele>2991.1</ele></trkpt>
      <trkpt lat="45.7957594" lon="6.7721731"><ele>2995.7</ele></trkpt>
      <trkpt lat="45.7958197" lon="6.7721664"><ele>3000.4</ele></trkpt>
      <trkpt lat="45.7959101" lon="6.7722339"><ele>3005.2</ele></trkpt>
      <trkpt lat="45.7960062" lon="6.7722662"><ele>3011.6</ele></trkpt>
      <trkpt lat="45.7960919" lon="6.7724011"><ele>3017.4</ele></trkpt>
      <trkpt lat="45.7961270" lon="6.7724217"><ele>3023.0</ele></trkpt>
      <trkpt lat="45.7961586" lon="6.7724480"><ele>3029.0</ele></trkpt>
      <trkpt lat="45.7963918" lon="6.7726426"><ele>3034.9</ele></trkpt>
      <trkpt lat="45.7964899" lon="6.7726860"><ele>3040.7</ele></trkpt>
      <trkpt lat="45.7966151" lon="6.7726931"><ele>3047.3</ele></trkpt>
      <trkpt lat="45.7967417" lon="6.7727510"><ele>3053.9</ele></trkpt>
      <trkpt lat="45.7968136" lon="6.7728644"><ele>3061.3</ele></trkpt>
      <trkpt lat="45.7968666" lon="6.7729481"><ele>3068.0</ele></trkpt>
      <trkpt lat="45.7970482" lon="6.7732343"><ele>3074.2</ele></trkpt>
      <trkpt lat="45.7971043" lon="6.7732929"><ele>3080.0</ele></trkpt>
      <trkpt lat="45.7973224" lon="6.7735206"><ele>3085.3</ele></trkpt>
      <trkpt lat="45.7975406" lon="6.7737483"><ele>3091.7</ele></trkpt>
      <trkpt lat="45.7975572" lon="6.7737550"><ele>3098.1</ele></trkpt>
      <trkpt lat="45.7976034" lon="6.7737451"><ele>3103.7</ele></trkpt>
      <trkpt lat="45.7976467" lon="6.7737375"><ele>3109.3</ele></trkpt>
      <trkpt lat="45.7979145" lon="6.7736908"><ele>3114.4</ele></trkpt>
      <trkpt lat="45.7980160" lon="6.7737165"><ele>3119.4</ele></trkpt>
      <trkpt lat="45.7981629" lon="6.7737064"><ele>3124.8</ele></trkpt>
      <trkpt lat="45.7982314" lon="6.7737573"><ele>3130.0</ele></trkpt>
      <trkpt lat="45.7983085" lon="6.7738359"><ele>3136.0</ele></trkpt>
      <trkpt lat="45.7985284" lon="6.7740602"><ele>3141.1</ele></trkpt>
      <trkpt lat="45.7986279" lon="6.7740886"><ele>3146.2</ele></trkpt>
      <trkpt lat="45.7986672" lon="6.7741145"><ele>3150.8</ele></trkpt>
      <trkpt lat="45.7989123" lon="6.7742762"><ele>3155.5</ele></trkpt>
      <trkpt lat="45.7990201" lon="6.7744459"><ele>3160.5</ele></trkpt>
      <trkpt lat="45.7990918" lon="6.7744969"><ele>3164.7</ele></trkpt>
      <trkpt lat="45.7991629" lon="6.7745705"><ele>3169.5</ele></trkpt>
      <trkpt lat="45.7991936" lon="6.7747356"><ele>3174.9</ele></trkpt>
      <trkpt lat="45.7992633" lon="6.7751094"><ele>3179.4</ele></trkpt>
      <trkpt lat="45.7992445" lon="6.7752054"><ele>3183.5</ele></trkpt>
      <trkpt lat="45.7991715" lon="6.7755779"><ele>3187.6</ele></trkpt>
      <trkpt lat="45.7990984" lon="6.7759505"><ele>3191.6</ele></trkpt>
      <trkpt lat="45.7992325" lon="6.7758743"><ele>3196.0</ele></trkpt>
      <trkpt lat="45.7993516" lon="6.7758564"><ele>3200.6</ele></trkpt>
      <trkpt lat="45.7996199" lon="6.7758162"><ele>3205.4</ele></trkpt>
      <trkpt lat="45.7997134" lon="6.7759095"><ele>3210.2</ele></trkpt>
      <trkpt lat="45.7999349" lon="6.7761304"><ele>3214.3</ele></trkpt>
      <trkpt lat="45.8001564" lon="6.7763514"><ele>3219.2</ele></trkpt>
      <trkpt lat="45.8002026" lon="6.7764576"><ele>3224.4</ele></trkpt>
      <trkpt lat="45.8003455" lon="6.7767858"><ele>3230.2</ele></trkpt>
      <trkpt lat="45.8003512" lon="6.7768052"><ele>3236.0</ele></trkpt>
      <trkpt lat="45.8004557" lon="6.7771619"><ele>3241.4</ele></trkpt>
      <trkpt lat="45.8004465" lon="6.7772331"><ele>3246.5</ele></trkpt>
      <trkpt lat="45.8004514" lon="6.7774267"><ele>3251.7</ele></trkpt>
      <trkpt lat="45.8004884" lon="6.7775439"><ele>3256.6</ele></trkpt>
      <trkpt lat="45.8005270" lon="6.7776183"><ele>3262.9</ele></trkpt>
      <trkpt lat="45.8005928" lon="6.7776709"><ele>3268.5</ele></trkpt>
      <trkpt lat="45.8006747" lon="6.7777892"><ele>3274.7</ele></trkpt>
      <trkpt lat="45.8008648" lon="6.7780638"><ele>3281.3</ele></trkpt>
      <trkpt lat="45.8010909" lon="6.7781957"><ele>3287.7</ele></trkpt>
      <trkpt lat="45.8011349" lon="6.7782372"><ele>3295.5</ele></trkpt>
      <trkpt lat="45.8013604" lon="6.7784497"><ele>3304.7</ele></trkpt>
      <trkpt lat="45.8015858" lon="6.7786622"><ele>3314.4</ele></trkpt>
      <trkpt lat="45.8015961" lon="6.7786005"><ele>3324.8</ele></trkpt>
      <trkpt lat="45.8016588" lon="6.7782241"><ele>3334.2</ele></trkpt>
      <trkpt lat="45.8017216" lon="6.7778477"><ele>3344.0</ele></trkpt>
      <trkpt lat="45.8018838" lon="6.7779150"><ele>3352.6</ele></trkpt>
      <trkpt lat="45.8021430" lon="6.7780224"><ele>3362.2</ele></trkpt>
      <trkpt lat="45.8022607" lon="6.7781385"><ele>3373.0</ele></trkpt>
      <trkpt lat="45.8023212" lon="6.7782606"><ele>3382.3</ele></trkpt>
      <trkpt lat="45.8023337" lon="6.7782755"><ele>3390.1</ele></trkpt>
      <trkpt lat="45.8025415" lon="6.7785224"><ele>3397.0</ele></trkpt>
      <trkpt lat="45.8027056" lon="6.7785202"><ele>3402.4</ele></trkpt>
      <trkpt lat="45.8027072" lon="6.7787106"><ele>3407.7</ele></trkpt>
      <trkpt lat="45.8029007" lon="6.7787932"><ele>3412.4</ele></trkpt>
      <trkpt lat="45.8031293" lon="6.7788779"><ele>3417.0</ele></trkpt>
      <trkpt lat="45.8031829" lon="6.7789181"><ele>3419.4</ele></trkpt>
      <trkpt lat="45.8034220" lon="6.7790973"><ele>3419.2</ele></trkpt>
      <trkpt lat="45.8034412" lon="6.7791071"><ele>3418.6</ele></trkpt>
      <trkpt lat="45.8036956" lon="6.7792363"><ele>3416.9</ele></trkpt>
      <trkpt lat="45.8037141" lon="6.7792628"><ele>3414.5</ele></trkpt>
      <trkpt lat="45.8039052" lon="6.7795360"><ele>3410.8</ele></trkpt>
      <trkpt lat="45.8039702" lon="6.7796307"><ele>3406.2</ele></trkpt>
      <trkpt lat="45.8041596" lon="6.7799064"><ele>3400.3</ele></trkpt>
      <trkpt lat="45.8043489" lon="6.7801821"><ele>3394.1</ele></trkpt>
      <trkpt lat="45.8045416" lon="6.7804410"><ele>3387.9</ele></trkpt>
      <trkpt lat="45.8046064" lon="6.7806438"><ele>3382.4</ele></trkpt>
      <trkpt lat="45.8047187" lon="6.7809957"><ele>3377.2</ele></trkpt>
      <trkpt lat="45.8048314" lon="6.7812765"><ele>3372.4</ele></trkpt>
      <trkpt lat="45.8048527" lon="6.7813183"><ele>3368.4</ele></trkpt>
      <trkpt lat="45.8050119" lon="6.7816307"><ele>3365.7</ele></trkpt>
      <trkpt lat="45.8050478" lon="6.7816757"><ele>3364.2</ele></trkpt>
      <trkpt lat="45.8052510" lon="6.7819303"><ele>3364.8</ele></trkpt>
      <trkpt lat="45.8052618" lon="6.7819525"><ele>3366.9</ele></trkpt>
      <trkpt lat="45.8054161" lon="6.7822700"><ele>3369.5</ele></trkpt>
      <trkpt lat="45.8054938" lon="6.7823405"><ele>3372.6</ele></trkpt>
      <trkpt lat="45.8057218" lon="6.7825474"><ele>3376.2</ele></trkpt>
      <trkpt lat="45.8059498" lon="6.7827543"><ele>3380.4</ele></trkpt>
      <trkpt lat="45.8061425" lon="6.7828839"><ele>3385.0</ele></trkpt>
      <trkpt lat="45.8061957" lon="6.7829396"><ele>3390.1</ele></trkpt>
      <trkpt lat="45.8064137" lon="6.7831677"><ele>3395.6</ele></trkpt>
      <trkpt lat="45.8066317" lon="6.7833958"><ele>3400.3</ele></trkpt>
      <trkpt lat="45.8065501" lon="6.7835578"><ele>3405.9</ele></trkpt>
      <trkpt lat="45.8067162" lon="6.7837880"><ele>3411.6</ele></trkpt>
      <trkpt lat="45.8069102" lon="6.7840570"><ele>3418.6</ele></trkpt>
      <trkpt lat="45.8069010" lon="6.7840888"><ele>3426.4</ele></trkpt>
      <trkpt lat="45.8067977" lon="6.7844463"><ele>3435.0</ele></trkpt>
      <trkpt lat="45.8068890" lon="6.7845525"><ele>3444.0</ele></trkpt>
      <trkpt lat="45.8070985" lon="6.7847964"><ele>3453.7</ele></trkpt>
      <trkpt lat="45.8073080" lon="6.7850402"><ele>3464.0</ele></trkpt>
      <trkpt lat="45.8075175" lon="6.7852841"><ele>3475.4</ele></trkpt>
      <trkpt lat="45.8076483" lon="6.7854620"><ele>3485.8</ele></trkpt>
      <trkpt lat="45.8078442" lon="6.7857282"><ele>3496.0</ele></trkpt>
      <trkpt lat="45.8080400" lon="6.7859944"><ele>3505.9</ele></trkpt>
      <trkpt lat="45.8082359" lon="6.7862606"><ele>3515.0</ele></trkpt>
      <trkpt lat="45.8083917" lon="6.7864017"><ele>3523.6</ele></trkpt>
      <trkpt lat="45.8084815" lon="6.7864763"><ele>3531.7</ele></trkpt>
      <trkpt lat="45.8087150" lon="6.7866703"><ele>3539.9</ele></trkpt>
      <trkpt lat="45.8088064" lon="6.7867756"><ele>3547.2</ele></trkpt>
      <trkpt lat="45.8090168" lon="6.7870179"><ele>3553.3</ele></trkpt>
      <trkpt lat="45.8090555" lon="6.7870799"><ele>3559.3</ele></trkpt>
      <trkpt lat="45.8092355" lon="6.7873683"><ele>3565.4</ele></trkpt>
      <trkpt lat="45.8092608" lon="6.7875440"><ele>3571.5</ele></trkpt>
      <trkpt lat="45.8092714" lon="6.7875797"><ele>3578.1</ele></trkpt>
      <trkpt lat="45.8093770" lon="6.7879359"><ele>3584.8</ele></trkpt>
      <trkpt lat="45.8094665" lon="6.7880643"><ele>3591.2</ele></trkpt>
      <trkpt lat="45.8096573" lon="6.7883380"><ele>3597.3</ele></trkpt>
      <trkpt lat="45.8098481" lon="6.7886116"><ele>3604.2</ele></trkpt>
      <trkpt lat="45.8100389" lon="6.7888853"><ele>3612.1</ele></trkpt>
      <trkpt lat="45.8100409" lon="6.7888900"><ele>3618.7</ele></trkpt>
      <trkpt lat="45.8101811" lon="6.7892207"><ele>3624.4</ele></trkpt>
      <trkpt lat="45.8103213" lon="6.7895514"><ele>3628.6</ele></trkpt>
      <trkpt lat="45.8104614" lon="6.7898821"><ele>3632.0</ele></trkpt>
      <trkpt lat="45.8106363" lon="6.7900928"><ele>3634.5</ele></trkpt>
      <trkpt lat="45.8108429" lon="6.7903417"><ele>3637.3</ele></trkpt>
      <trkpt lat="45.8110495" lon="6.7905907"><ele>3638.5</ele></trkpt>
      <trkpt lat="45.8111026" lon="6.7906881"><ele>3637.7</ele></trkpt>
      <trkpt lat="45.8112687" lon="6.7909931"><ele>3635.0</ele></trkpt>
      <trkpt lat="45.8114349" lon="6.7912981"><ele>3632.2</ele></trkpt>
      <trkpt lat="45.8115405" lon="6.7914026"><ele>3628.9</ele></trkpt>
      <trkpt lat="45.8117626" lon="6.7916223"><ele>3625.8</ele></trkpt>
      <trkpt lat="45.8119847" lon="6.7918420"><ele>3622.1</ele></trkpt>
      <trkpt lat="45.8120642" lon="6.7919734"><ele>3617.7</ele></trkpt>
      <trkpt lat="45.8122411" lon="6.7922657"><ele>3612.6</ele></trkpt>
      <trkpt lat="45.8122982" lon="6.7923540"><ele>3608.2</ele></trkpt>
      <trkpt lat="45.8124815" lon="6.7926380"><ele>3605.2</ele></trkpt>
      <trkpt lat="45.8126648" lon="6.7929220"><ele>3603.6</ele></trkpt>
      <trkpt lat="45.8128481" lon="6.7932060"><ele>3602.4</ele></trkpt>
      <trkpt lat="45.8129798" lon="6.7933355"><ele>3602.2</ele></trkpt>
      <trkpt lat="45.8132024" lon="6.7935542"><ele>3601.6</ele></trkpt>
      <trkpt lat="45.8134250" lon="6.7937730"><ele>3601.5</ele></trkpt>
      <trkpt lat="45.8134749" lon="6.7938023"><ele>3601.7</ele></trkpt>
      <trkpt lat="45.8134888" lon="6.7938135"><ele>3601.1</ele></trkpt>
      <trkpt lat="45.8137239" lon="6.7940034"><ele>3598.8</ele></trkpt>
      <trkpt lat="45.8137412" lon="6.7940223"><ele>3595.9</ele></trkpt>
      <trkpt lat="45.8137459" lon="6.7940540"><ele>3593.6</ele></trkpt>
      <trkpt lat="45.8137381" lon="6.7942741"><ele>3592.6</ele></trkpt>
      <trkpt lat="45.8137692" lon="6.7944855"><ele>3592.9</ele></trkpt>
      <trkpt lat="45.8154531" lon="6.7977901"><ele>3594.1</ele></trkpt>
      <trkpt lat="45.8154483" lon="6.7981771"><ele>3596.6</ele></trkpt>
      <trkpt lat="45.8154436" lon="6.7985641"><ele>3599.5</ele></trkpt>
      <trkpt lat="45.8154388" lon="6.7989512"><ele>3605.0</ele></trkpt>
      <trkpt lat="45.8154295" lon="6.7990262"><ele>3613.4</ele></trkpt>
      <trkpt lat="45.8153823" lon="6.7994073"><ele>3622.1</ele></trkpt>
      <trkpt lat="45.8153772" lon="6.7994642"><ele>3629.5</ele></trkpt>
      <trkpt lat="45.8153428" lon="6.7998481"><ele>3634.7</ele></trkpt>
      <trkpt lat="45.8153084" lon="6.8002320"><ele>3638.5</ele></trkpt>
      <trkpt lat="45.8153381" lon="6.8002818"><ele>3641.2</ele></trkpt>
      <trkpt lat="45.8155271" lon="6.8003791"><ele>3642.7</ele></trkpt>
      <trkpt lat="45.8155821" lon="6.8007036"><ele>3643.7</ele></trkpt>
      <trkpt lat="45.8155916" lon="6.8008333"><ele>3643.1</ele></trkpt>
      <trkpt lat="45.8156198" lon="6.8012182"><ele>3640.8</ele></trkpt>
      <trkpt lat="45.8156296" lon="6.8012730"><ele>3639.1</ele></trkpt>
      <trkpt lat="45.8156968" lon="6.8016479"><ele>3637.3</ele></trkpt>
      <trkpt lat="45.8157641" lon="6.8020228"><ele>3638.5</ele></trkpt>
      <trkpt lat="45.8158313" lon="6.8023976"><ele>3640.3</ele></trkpt>
      <trkpt lat="45.8159263" lon="6.8026415"><ele>3644.2</ele></trkpt>
      <trkpt lat="45.8159293" lon="6.8026551"><ele>3649.6</ele></trkpt>
      <trkpt lat="45.8160118" lon="6.8030237"><ele>3655.4</ele></trkpt>
      <trkpt lat="45.8160059" lon="6.8030550"><ele>3661.6</ele></trkpt>
      <trkpt lat="45.8159586" lon="6.8031575"><ele>3667.7</ele></trkpt>
      <trkpt lat="45.8159641" lon="6.8033976"><ele>3672.5</ele></trkpt>
      <trkpt lat="45.8159204" lon="6.8035171"><ele>3675.7</ele></trkpt>
      <trkpt lat="45.8159254" lon="6.8037393"><ele>3676.3</ele></trkpt>
      <trkpt lat="45.8160267" lon="6.8038560"><ele>3675.4</ele></trkpt>
      <trkpt lat="45.8162370" lon="6.8040984"><ele>3672.8</ele></trkpt>
      <trkpt lat="45.8163736" lon="6.8044106"><ele>3667.0</ele></trkpt>
      <trkpt lat="45.8164325" lon="6.8045616"><ele>3660.8</ele></trkpt>
      <trkpt lat="45.8165642" lon="6.8048994"><ele>3653.3</ele></trkpt>
      <trkpt lat="45.8165823" lon="6.8049959"><ele>3644.8</ele></trkpt>
      <trkpt lat="45.8166521" lon="6.8053698"><ele>3636.7</ele></trkpt>
      <trkpt lat="45.8166550" lon="6.8053861"><ele>3630.4</ele></trkpt>
      <trkpt lat="45.8167226" lon="6.8057608"><ele>3624.6</ele></trkpt>
      <trkpt lat="45.8167903" lon="6.8061356"><ele>3619.9</ele></trkpt>
      <trkpt lat="45.8168681" lon="6.8062873"><ele>3615.7</ele></trkpt>
      <trkpt lat="45.8168891" lon="6.8063194"><ele>3614.8</ele></trkpt>
      <trkpt lat="45.8169615" lon="6.8064280"><ele>3616.5</ele></trkpt>
      <trkpt lat="45.8267711" lon="6.8143934"><ele>3620.1</ele></trkpt>
      <trkpt lat="45.8267799" lon="6.8144001"><ele>3626.8</ele></trkpt>
      <trkpt lat="45.8270269" lon="6.8145511"><ele>3633.6</ele></trkpt>
      <trkpt lat="45.8271432" lon="6.8148035"><ele>3641.4</ele></trkpt>
      <trkpt lat="45.8272025" lon="6.8148493"><ele>3649.6</ele></trkpt>
      <trkpt lat="45.8274369" lon="6.8150529"><ele>3659.0</ele></trkpt>
      <trkpt lat="45.8274978" lon="6.8150486"><ele>3669.0</ele></trkpt>
      <trkpt lat="45.8277661" lon="6.8150512"><ele>3678.4</ele></trkpt>
      <trkpt lat="45.8279610" lon="6.8151150"><ele>3684.9</ele></trkpt>
      <trkpt lat="45.8280426" lon="6.8151676"><ele>3690.5</ele></trkpt>
      <trkpt lat="45.8281141" lon="6.8151772"><ele>3695.8</ele></trkpt>
      <trkpt lat="45.8283827" lon="6.8152144"><ele>3701.7</ele></trkpt>
      <trkpt lat="45.8285550" lon="6.8152337"><ele>3706.9</ele></trkpt>
      <trkpt lat="45.8287227" lon="6.8152989"><ele>3712.1</ele></trkpt>
      <trkpt lat="45.8289676" lon="6.8154102"><ele>3717.0</ele></trkpt>
      <trkpt lat="45.8292249" lon="6.8155267"><ele>3720.4</ele></trkpt>
      <trkpt lat="45.8292574" lon="6.8155475"><ele>3724.7</ele></trkpt>
      <trkpt lat="45.8292646" lon="6.8155505"><ele>3730.8</ele></trkpt>
      <trkpt lat="45.8295234" lon="6.8156607"><ele>3738.7</ele></trkpt>
      <trkpt lat="45.8296748" lon="6.8158080"><ele>3746.1</ele></trkpt>
      <trkpt lat="45.8297794" lon="6.8159267"><ele>3752.1</ele></trkpt>
      <trkpt lat="45.8298794" lon="6.8160273"><ele>3759.4</ele></trkpt>
      <trkpt lat="45.8301020" lon="6.8162461"><ele>3766.3</ele></trkpt>
      <trkpt lat="45.8302527" lon="6.8164886"><ele>3773.8</ele></trkpt>
      <trkpt lat="45.8304728" lon="6.8165583"><ele>3783.9</ele></trkpt>
      <trkpt lat="45.8305562" lon="6.8166338"><ele>3793.5</ele></trkpt>
      <trkpt lat="45.8305827" lon="6.8168645"><ele>3802.5</ele></trkpt>
      <trkpt lat="45.8306185" lon="6.8169340"><ele>3811.4</ele></trkpt>
      <trkpt lat="45.8306942" lon="6.8171316"><ele>3819.2</ele></trkpt>
      <trkpt lat="45.8309012" lon="6.8172523"><ele>3827.3</ele></trkpt>
      <trkpt lat="45.8309781" lon="6.8173223"><ele>3834.6</ele></trkpt>
      <trkpt lat="45.8312030" lon="6.8175321"><ele>3843.3</ele></trkpt>
      <trkpt lat="45.8312982" lon="6.8175921"><ele>3851.6</ele></trkpt>
      <trkpt lat="45.8313128" lon="6.8175994"><ele>3854.9</ele></trkpt>
      <trkpt lat="45.8315672" lon="6.8177287"><ele>3862.3</ele></trkpt>
      <trkpt lat="45.8318215" lon="6.8178579"><ele>3868.0</ele></trkpt>
      <trkpt lat="45.8320758" lon="6.8179872"><ele>3872.7</ele></trkpt>
      <trkpt lat="45.8321160" lon="6.8179971"><ele>3877.8</ele></trkpt>
      <trkpt lat="45.8323920" lon="6.8180397"><ele>3884.1</ele></trkpt>
      <trkpt lat="45.8324837" lon="6.8180191"><ele>3889.3</ele></trkpt>
      <trkpt lat="45.8327512" lon="6.8179708"><ele>3893.6</ele></trkpt>
      <trkpt lat="45.8330188" lon="6.8179225"><ele>3898.8</ele></trkpt>
      <trkpt lat="45.8332632" lon="6.8179186"><ele>3907.8</ele></trkpt>
      <trkpt lat="45.8333737" lon="6.8178248"><ele>3912.4</ele></trkpt>
      <trkpt lat="45.8335484" lon="6.8177723"><ele>3917.7</ele></trkpt>
      <trkpt lat="45.8336463" lon="6.8178079"><ele>3923.0</ele></trkpt>
      <trkpt lat="45.8337267" lon="6.8178253"><ele>3928.2</ele></trkpt>
      <trkpt lat="45.8336433" lon="6.8178035"><ele>3933.1</ele></trkpt>
      <trkpt lat="45.8336439" lon="6.8178059"><ele>3938.9</ele></trkpt>
      <trkpt lat="45.8335669" lon="6.8177763"><ele>3945.3</ele></trkpt>
      <trkpt lat="45.8333076" lon="6.8176721"><ele>3950.3</ele></trkpt>
      <trkpt lat="45.8333543" lon="6.8176863"><ele>3954.8</ele></trkpt>
      <trkpt lat="45.8336180" lon="6.8177660"><ele>3958.7</ele></trkpt>
      <trkpt lat="45.8336751" lon="6.8178348"><ele>3962.7</ele></trkpt>
      <trkpt lat="45.8338335" lon="6.8178564"><ele>3967.7</ele></trkpt>
      <trkpt lat="45.8338838" lon="6.8178968"><ele>3973.5</ele></trkpt>
      <trkpt lat="45.8339228" lon="6.8179492"><ele>3979.1</ele></trkpt>
      <trkpt lat="45.8339504" lon="6.8179849"><ele>3986.1</ele></trkpt>
      <trkpt lat="45.8340498" lon="6.8180818"><ele>3993.5</ele></trkpt>
      <trkpt lat="45.8341340" lon="6.8181165"><ele>4001.9</ele></trkpt>
      <trkpt lat="45.8341641" lon="6.8181331"><ele>4010.9</ele></trkpt>
      <trkpt lat="45.8344174" lon="6.8182649"><ele>4019.8</ele></trkpt>
      <trkpt lat="45.8344827" lon="6.8182076"><ele>4031.2</ele></trkpt>
      <trkpt lat="45.8346477" lon="6.8181956"><ele>4042.9</ele></trkpt>
      <trkpt lat="45.8347245" lon="6.8182355"><ele>4054.2</ele></trkpt>
      <trkpt lat="45.8347487" lon="6.8182351"><ele>4065.3</ele></trkpt>
      <trkpt lat="45.8350102" lon="6.8182249"><ele>4075.3</ele></trkpt>
      <trkpt lat="45.8351468" lon="6.8183821"><ele>4085.5</ele></trkpt>
      <trkpt lat="45.8352162" lon="6.8184307"><ele>4094.7</ele></trkpt>
      <trkpt lat="45.8352168" lon="6.8184312"><ele>4104.9</ele></trkpt>
      <trkpt lat="45.8354536" lon="6.8186168"><ele>4115.2</ele></trkpt>
      <trkpt lat="45.8356903" lon="6.8188025"><ele>4122.8</ele></trkpt>
      <trkpt lat="45.8357583" lon="6.8186772"><ele>4129.3</ele></trkpt>
      <trkpt lat="45.8359241" lon="6.8183717"><ele>4134.3</ele></trkpt>
      <trkpt lat="45.8359947" lon="6.8185201"><ele>4138.4</ele></trkpt>
      <trkpt lat="45.8360490" lon="6.8186569"><ele>4140.8</ele></trkpt>
      <trkpt lat="45.8361826" lon="6.8189933"><ele>4141.5</ele></trkpt>
      <trkpt lat="45.8363117" lon="6.8192280"><ele>4141.1</ele></trkpt>
      <trkpt lat="45.8364789" lon="6.8195319"><ele>4138.6</ele></trkpt>
      <trkpt lat="45.8365556" lon="6.8197386"><ele>4135.6</ele></trkpt>
      <trkpt lat="45.8366823" lon="6.8200804"><ele>4132.5</ele></trkpt>
      <trkpt lat="45.8368091" lon="6.8204222"><ele>4129.0</ele></trkpt>
      <trkpt lat="45.8369359" lon="6.8207641"><ele>4126.1</ele></trkpt>
      <trkpt lat="45.8370178" lon="6.8209523"><ele>4124.4</ele></trkpt>
      <trkpt lat="45.8371607" lon="6.8212808"><ele>4123.2</ele></trkpt>
      <trkpt lat="45.8373035" lon="6.8216093"><ele>4122.9</ele></trkpt>
      <trkpt lat="45.8374464" lon="6.8219378"><ele>4122.5</ele></trkpt>
      <trkpt lat="45.8374679" lon="6.8220198"><ele>4122.1</ele></trkpt>
      <trkpt lat="45.8375628" lon="6.8223823"><ele>4121.3</ele></trkpt>
      <trkpt lat="45.8376577" lon="6.8227448"><ele>4120.1</ele></trkpt>
      <trkpt lat="45.8376821" lon="6.8231087"><ele>4118.5</ele></trkpt>
      <trkpt lat="45.8377080" lon="6.8234942"><ele>4116.5</ele></trkpt>
      <trkpt lat="45.8377339" lon="6.8238796"><ele>4114.2</ele></trkpt>
      <trkpt lat="45.8377598" lon="6.8242651"><ele>4109.7</ele></trkpt>
      <trkpt lat="45.8378296" lon="6.8245264"><ele>4103.9</ele></trkpt>
      <trkpt lat="45.8379261" lon="6.8248880"><ele>4098.8</ele></trkpt>
      <trkpt lat="45.8379331" lon="6.8249457"><ele>4095.2</ele></trkpt>
      <trkpt lat="45.8379780" lon="6.8253146"><ele>4093.2</ele></trkpt>
      <trkpt lat="45.8380126" lon="6.8255130"><ele>4092.4</ele></trkpt>
      <trkpt lat="45.8375670" lon="6.8295431"><ele>4092.8</ele></trkpt>
      <trkpt lat="45.8374145" lon="6.8298610"><ele>4094.9</ele></trkpt>
      <trkpt lat="45.8372617" lon="6.8301783"><ele>4098.4</ele></trkpt>
      <trkpt lat="45.8372270" lon="6.8305282"><ele>4104.9</ele></trkpt>
      <trkpt lat="45.8371887" lon="6.8309110"><ele>4113.4</ele></trkpt>
      <trkpt lat="45.8372410" lon="6.8312355"><ele>4122.9</ele></trkpt>
      <trkpt lat="45.8373019" lon="6.8316128"><ele>4132.4</ele></trkpt>
      <trkpt lat="45.8373628" lon="6.8319900"><ele>4141.1</ele></trkpt>
      <trkpt lat="45.8374238" lon="6.8323672"><ele>4150.2</ele></trkpt>
      <trkpt lat="45.8374866" lon="6.8327438"><ele>4159.7</ele></trkpt>
      <trkpt lat="45.8375491" lon="6.8331203"><ele>4168.8</ele></trkpt>
      <trkpt lat="45.8375671" lon="6.8331683"><ele>4177.8</ele></trkpt>
      <trkpt lat="45.8376954" lon="6.8335089"><ele>4186.8</ele></trkpt>
      <trkpt lat="45.8378238" lon="6.8338495"><ele>4195.6</ele></trkpt>
      <trkpt lat="45.8378795" lon="6.8340531"><ele>4204.3</ele></trkpt>
      <trkpt lat="45.8379780" lon="6.8344134"><ele>4213.0</ele></trkpt>
      <trkpt lat="45.8380764" lon="6.8347736"><ele>4221.4</ele></trkpt>
      <trkpt lat="45.8381748" lon="6.8351338"><ele>4228.7</ele></trkpt>
      <trkpt lat="45.8382732" lon="6.8354940"><ele>4234.7</ele></trkpt>
      <trkpt lat="45.8383715" lon="6.8358543"><ele>4240.1</ele></trkpt>
      <trkpt lat="45.8384840" lon="6.8360754"><ele>4244.2</ele></trkpt>
      <trkpt lat="45.8385327" lon="6.8361366"><ele>4247.4</ele></trkpt>
      <trkpt lat="45.8387355" lon="6.8363911"><ele>4249.9</ele></trkpt>
      <trkpt lat="45.8387497" lon="6.8364113"><ele>4251.5</ele></trkpt>
      <trkpt lat="45.8389402" lon="6.8366772"><ele>4253.6</ele></trkpt>
      <trkpt lat="45.8390001" lon="6.8368648"><ele>4257.1</ele></trkpt>
      <trkpt lat="45.8391160" lon="6.8372155"><ele>4262.5</ele></trkpt>
      <trkpt lat="45.8391448" lon="6.8372889"><ele>4269.5</ele></trkpt>
      <trkpt lat="45.8392768" lon="6.8376267"><ele>4277.3</ele></trkpt>
      <trkpt lat="45.8394088" lon="6.8379645"><ele>4286.4</ele></trkpt>
      <trkpt lat="45.8395368" lon="6.8383133"><ele>4296.5</ele></trkpt>
      <trkpt lat="45.8396703" lon="6.8386494"><ele>4307.6</ele></trkpt>
      <trkpt lat="45.8397626" lon="6.8388195"><ele>4319.6</ele></trkpt>
      <trkpt lat="45.8399280" lon="6.8391252"><ele>4331.3</ele></trkpt>
      <trkpt lat="45.8400933" lon="6.8394309"><ele>4341.7</ele></trkpt>
      <trkpt lat="45.8402585" lon="6.8397365"><ele>4350.9</ele></trkpt>
      <trkpt lat="45.8404236" lon="6.8400422"><ele>4359.5</ele></trkpt>
      <trkpt lat="45.8405886" lon="6.8403479"><ele>4368.0</ele></trkpt>
      <trkpt lat="45.8406025" lon="6.8403851"><ele>4375.5</ele></trkpt>
      <trkpt lat="45.8407286" lon="6.8407256"><ele>4383.4</ele></trkpt>
      <trkpt lat="45.8408533" lon="6.8410729"><ele>4391.7</ele></trkpt>
      <trkpt lat="45.8408278" lon="6.8413806"><ele>4398.8</ele></trkpt>
      <trkpt lat="45.8408307" lon="6.8415396"><ele>4404.9</ele></trkpt>
      <trkpt lat="45.8408294" lon="6.8419134"><ele>4411.1</ele></trkpt>
      <trkpt lat="45.8408333" lon="6.8423024"><ele>4416.5</ele></trkpt>
      <trkpt lat="45.8408772" lon="6.8424966"><ele>4420.8</ele></trkpt>
      <trkpt lat="45.8409569" lon="6.8428620"><ele>4424.2</ele></trkpt>
      <trkpt lat="45.8410391" lon="6.8432314"><ele>4427.4</ele></trkpt>
      <trkpt lat="45.8410457" lon="6.8432687"><ele>4428.3</ele></trkpt>
      <trkpt lat="45.8411181" lon="6.8436548"><ele>4427.2</ele></trkpt>
      <trkpt lat="45.8411858" lon="6.8440298"><ele>4425.4</ele></trkpt>
      <trkpt lat="45.8411897" lon="6.8440555"><ele>4422.9</ele></trkpt>
      <trkpt lat="45.8412501" lon="6.8444457"><ele>4419.6</ele></trkpt>
      <trkpt lat="45.8413072" lon="6.8448221"><ele>4415.5</ele></trkpt>
      <trkpt lat="45.8413653" lon="6.8451985"><ele>4411.7</ele></trkpt>
      <trkpt lat="45.8413755" lon="6.8454459"><ele>4407.6</ele></trkpt>
      <trkpt lat="45.8413922" lon="6.8458392"><ele>4403.1</ele></trkpt>
      <trkpt lat="45.8414131" lon="6.8462205"><ele>4398.2</ele></trkpt>
      <trkpt lat="45.8414090" lon="6.8462555"><ele>4393.2</ele></trkpt>
      <trkpt lat="45.8413735" lon="6.8466409"><ele>4387.2</ele></trkpt>
      <trkpt lat="45.8413423" lon="6.8470179"><ele>4384.2</ele></trkpt>
      <trkpt lat="45.8413069" lon="6.8473994"><ele>4382.1</ele></trkpt>
      <trkpt lat="45.8411986" lon="6.8476398"><ele>4380.8</ele></trkpt>
      <trkpt lat="45.8410498" lon="6.8479629"><ele>4379.1</ele></trkpt>
      <trkpt lat="45.8409059" lon="6.8482769"><ele>4377.5</ele></trkpt>
      <trkpt lat="45.8407590" lon="6.8486019"><ele>4377.0</ele></trkpt>
      <trkpt lat="45.8406121" lon="6.8489269"><ele>4377.5</ele></trkpt>
      <trkpt lat="45.8404584" lon="6.8492695"><ele>4380.6</ele></trkpt>
      <trkpt lat="45.8404259" lon="6.8493812"><ele>4385.8</ele></trkpt>
      <trkpt lat="45.8403187" lon="6.8497378"><ele>4388.6</ele></trkpt>
      <trkpt lat="45.8402100" lon="6.8500979"><ele>4391.7</ele></trkpt>
      <trkpt lat="45.8402223" lon="6.8504643"><ele>4394.7</ele></trkpt>
      <trkpt lat="45.8402111" lon="6.8505982"><ele>4398.3</ele></trkpt>
      <trkpt lat="45.8402096" lon="6.8506263"><ele>4403.1</ele></trkpt>
      <trkpt lat="45.8401776" lon="6.8510136"><ele>4407.9</ele></trkpt>
      <trkpt lat="45.8401547" lon="6.8510299"><ele>4413.5</ele></trkpt>
      <trkpt lat="45.8398938" lon="6.8511375"><ele>4417.6</ele></trkpt>
      <trkpt lat="45.8396604" lon="6.8512498"><ele>4420.6</ele></trkpt>
      <trkpt lat="45.8395685" lon="6.8513752"><ele>4424.3</ele></trkpt>
      <trkpt lat="45.8395043" lon="6.8514243"><ele>4429.3</ele></trkpt>
      <trkpt lat="45.8395142" lon="6.8515999"><ele>4435.2</ele></trkpt>
      <trkpt lat="45.8395491" lon="6.8518553"><ele>4440.6</ele></trkpt>
      <trkpt lat="45.8395375" lon="6.8518645"><ele>4445.7</ele></trkpt>
      <trkpt lat="45.8394627" lon="6.8518975"><ele>4451.3</ele></trkpt>
      <trkpt lat="45.8392021" lon="6.8519864"><ele>4455.8</ele></trkpt>
      <trkpt lat="45.8391433" lon="6.8520195"><ele>4460.4</ele></trkpt>
      <trkpt lat="45.8391314" lon="6.8520201"><ele>4465.0</ele></trkpt>
      <trkpt lat="45.8390785" lon="6.8520126"><ele>4468.5</ele></trkpt>
      <trkpt lat="45.8388118" lon="6.8519732"><ele>4472.6</ele></trkpt>
      <trkpt lat="45.8386601" lon="6.8520287"><ele>4477.0</ele></trkpt>
      <trkpt lat="45.8384001" lon="6.8521237"><ele>4482.6</ele></trkpt>
      <trkpt lat="45.8383716" lon="6.8521420"><ele>4487.6</ele></trkpt>
      <trkpt lat="45.8381316" lon="6.8523085"><ele>4493.1</ele></trkpt>
      <trkpt lat="45.8380100" lon="6.8524757"><ele>4498.6</ele></trkpt>
      <trkpt lat="45.8378188" lon="6.8527496"><ele>4503.3</ele></trkpt>
      <trkpt lat="45.8377736" lon="6.8527733"><ele>4508.8</ele></trkpt>
      <trkpt lat="45.8375153" lon="6.8528978"><ele>4514.9</ele></trkpt>
      <trkpt lat="45.8375102" lon="6.8529252"><ele>4521.0</ele></trkpt>
      <trkpt lat="45.8374312" lon="6.8532759"><ele>4522.7</ele></trkpt>
      <trkpt lat="45.8373965" lon="6.8533612"><ele>4530.0</ele></trkpt>
      <trkpt lat="45.8373838" lon="6.8533875"><ele>4537.7</ele></trkpt>
      <trkpt lat="45.8372364" lon="6.8536972"><ele>4542.2</ele></trkpt>
      <trkpt lat="45.8371705" lon="6.8539001"><ele>4548.6</ele></trkpt>
      <trkpt lat="45.8370450" lon="6.8540215"><ele>4555.4</ele></trkpt>
      <trkpt lat="45.8369133" lon="6.8542257"><ele>4563.3</ele></trkpt>
      <trkpt lat="45.8368255" lon="6.8543154"><ele>4571.0</ele></trkpt>
      <trkpt lat="45.8367477" lon="6.8543809"><ele>4577.8</ele></trkpt>
      <trkpt lat="45.8367317" lon="6.8543916"><ele>4587.7</ele></trkpt>
      <trkpt lat="45.8364878" lon="6.8545491"><ele>4590.8</ele></trkpt>
      <trkpt lat="45.8364727" lon="6.8545511"><ele>4592.8</ele></trkpt>
      <trkpt lat="45.8362001" lon="6.8545943"><ele>4595.8</ele></trkpt>
      <trkpt lat="45.8360491" lon="6.8546839"><ele>4599.7</ele></trkpt>
      <trkpt lat="45.8359929" lon="6.8547638"><ele>4605.0</ele></trkpt>
      <trkpt lat="45.8357897" lon="6.8550355"><ele>4608.8</ele></trkpt>
      <trkpt lat="45.8357783" lon="6.8550449"><ele>4614.4</ele></trkpt>
      <trkpt lat="45.8355642" lon="6.8552576"><ele>4619.7</ele></trkpt>
      <trkpt lat="45.8354414" lon="6.8553689"><ele>4624.0</ele></trkpt>
      <trkpt lat="45.8354107" lon="6.8554117"><ele>4628.1</ele></trkpt>
      <trkpt lat="45.8352456" lon="6.8557054"><ele>4633.4</ele></trkpt>
      <trkpt lat="45.8350706" lon="6.8559976"><ele>4640.2</ele></trkpt>
      <trkpt lat="45.8348879" lon="6.8561815"><ele>4646.8</ele></trkpt>
      <trkpt lat="45.8347981" lon="6.8565343"><ele>4651.3</ele></trkpt>
      <trkpt lat="45.8347072" lon="6.8568977"><ele>4658.1</ele></trkpt>
      <trkpt lat="45.8346735" lon="6.8569536"><ele>4664.0</ele></trkpt>
      <trkpt lat="45.8344937" lon="6.8572659"><ele>4670.2</ele></trkpt>
      <trkpt lat="45.8344741" lon="6.8572972"><ele>4680.1</ele></trkpt>
      <trkpt lat="45.8343147" lon="6.8576005"><ele>4691.7</ele></trkpt>
      <trkpt lat="45.8342979" lon="6.8576920"><ele>4704.1</ele></trkpt>
      <trkpt lat="45.8342121" lon="6.8580807"><ele>4715.7</ele></trkpt>
      <trkpt lat="45.8341092" lon="6.8584322"><ele>4725.5</ele></trkpt>
      <trkpt lat="45.8339563" lon="6.8587074"><ele>4734.0</ele></trkpt>
      <trkpt lat="45.8337819" lon="6.8588879"><ele>4744.1</ele></trkpt>
      <trkpt lat="45.8337502" lon="6.8589355"><ele>4753.0</ele></trkpt>
      <trkpt lat="45.8335440" lon="6.8591919"><ele>4760.0</ele></trkpt>
      <trkpt lat="45.8334048" lon="6.8592242"><ele>4765.4</ele></trkpt>
      <trkpt lat="45.8332814" lon="6.8595441"><ele>4772.8</ele></trkpt>
      <trkpt lat="45.8332797" lon="6.8595464"><ele>4779.2</ele></trkpt>
      <trkpt lat="45.8331076" lon="6.8597987"><ele>4786.4</ele></trkpt>
      <trkpt lat="45.8330545" lon="6.8599489"><ele>4794.1</ele></trkpt>
      <trkpt lat="45.8329992" lon="6.8602424"><ele>4804.6</ele></trkpt>
      <trkpt lat="45.8329975" lon="6.8602515"><ele>4813.2</ele></trkpt>
      <trkpt lat="45.8329314" lon="6.8606147"><ele>4822.9</ele></trkpt>
      <trkpt lat="45.8328626" lon="6.8610695"><ele>4833.7</ele></trkpt>
      <trkpt lat="45.8327893" lon="6.8614783"><ele>4842.8</ele></trkpt>
      <trkpt lat="45.8327248" lon="6.8618711"><ele>4849.7</ele></trkpt>
      <trkpt lat="45.8327280" lon="6.8622759"><ele>4857.5</ele></trkpt>
      <trkpt lat="45.8327360" lon="6.8626380"><ele>4864.0</ele></trkpt>
      <trkpt lat="45.8327218" lon="6.8627624"><ele>4867.6</ele></trkpt>
      <trkpt lat="45.8326752" lon="6.8631429"><ele>4869.5</ele></trkpt>
      <trkpt lat="45.8326312" lon="6.8635108"><ele>4868.9</ele></trkpt>
      <trkpt lat="45.8326305" lon="6.8635320"><ele>4866.9</ele></trkpt>
      <trkpt lat="45.8326316" lon="6.8638827"><ele>4863.0</ele></trkpt>
      <trkpt lat="45.8326330" lon="6.8642160"><ele>4862.6</ele></trkpt>
      <trkpt lat="45.8326400" lon="6.8645820"><ele>4861.1</ele></trkpt>
      <trkpt lat="45.8326530" lon="6.8648578"><ele>4858.1</ele></trkpt>
      <trkpt lat="45.8327000" lon="6.8651881"><ele>4854.7</ele></trkpt>
      <trkpt lat="45.8327185" lon="6.8653402"><ele>4852.9</ele></trkpt>
      <trkpt lat="45.8327126" lon="6.8653724"><ele>4852.0</ele></trkpt>
    </trkseg>
  </trk>
</gpx>