<gpx xmlns="http://www.topografix.com/GPX/1/1" xmlns:xsi="http://www.w3.org/2001/XMLSchema-instance" xsi:schemaLocation="http://www.topografix.com/GPX/1/1 http://www.topografix.com/GPX/1/1/gpx.xsd" version="1.1" creator="OpenLayers"><rte><name>Aiguille Verte : Couloir Whymper</name><rtept lat="45.910358000001" lon="6.965500000004069"><ele>2677.8</ele><time>2025-05-30T22:55:23Z</time></rtept><rtept lat="45.91059400000259" lon="6.96597199999819"><ele>2679.7</ele><time>2025-05-30T22:56:28Z</time></rtept><rtept lat="45.91064299999931" lon="6.965877999999399"><ele>2682.8</ele><time>2025-05-30T22:56:47Z</time></rtept><rtept lat="45.911285000002664" lon="6.966366999999416"><ele>2705.6</ele><time>2025-05-30T23:00:46Z</time></rtept><rtept lat="45.91160600000089" lon="6.966735999998495"><ele>2713.4</ele><time>2025-05-30T23:01:45Z</time></rtept><rtept lat="45.911853999997305" lon="6.967149000001211"><ele>2713.6</ele><time>2025-05-30T23:02:46Z</time></rtept><rtept lat="45.9122649999982" lon="6.967206999997024"><ele>2726.8</ele><time>2025-05-30T23:04:13Z</time></rtept><rtept lat="45.912514000000556" lon="6.967143000000714"><ele>2736.4</ele><time>2025-05-30T23:04:59Z</time></rtept><rtept lat="45.91262300000295" lon="6.967214000002095"><ele>2741.4</ele><time>2025-05-30T23:05:19Z</time></rtept><rtept lat="45.912704999999505" lon="6.9667030000002566"><ele>2749.4</ele><time>2025-05-30T23:06:39Z</time></rtept><rtept lat="45.91298799999959" lon="6.966861000004341"><ele>2765.6</ele><time>2025-05-30T23:07:27Z</time></rtept><rtept lat="45.91309900000118" lon="6.967018000003851"><ele>2769.4</ele><time>2025-05-30T23:07:55Z</time></rtept><rtept lat="45.9131189999988" lon="6.9666780000026804"><ele>2776.8</ele><time>2025-05-30T23:09:03Z</time></rtept><rtept lat="45.91323300000144" lon="6.966768000001141"><ele>2780.7</ele><time>2025-05-30T23:09:24Z</time></rtept><rtept lat="45.91320799999838" lon="6.966796000003456"><ele>2778.4</ele><time>2025-05-30T23:09:30Z</time></rtept><rtept lat="45.91320599999713" lon="6.966709999996343"><ele>2780.3</ele><time>2025-05-30T23:09:50Z</time></rtept><rtept lat="45.91330100000107" lon="6.9666860000033415"><ele>2786.1</ele><time>2025-05-30T23:10:02Z</time></rtept><rtept lat="45.91346099999794" lon="6.966859000004177"><ele>2790.5</ele><time>2025-05-30T23:10:35Z</time></rtept><rtept lat="45.913950000000455" lon="6.9669359999970695"><ele>2819</ele><time>2025-05-30T23:11:28Z</time></rtept><rtept lat="45.91413499999797" lon="6.967045999997183"><ele>2827</ele><time>2025-05-30T23:11:50Z</time></rtept><rtept lat="45.91439899999932" lon="6.967018999999443"><ele>2843</ele><time>2025-05-30T23:12:19Z</time></rtept><rtept lat="45.914848999998924" lon="6.967397999999347"><ele>2837.8</ele><time>2025-05-30T23:13:38Z</time></rtept><rtept lat="45.915109000000825" lon="6.967357999996039"><ele>2844.3</ele><time>2025-05-30T23:14:29Z</time></rtept><rtept lat="45.915133999997494" lon="6.967086000000492"><ele>2856.9</ele><time>2025-05-30T23:15:18Z</time></rtept><rtept lat="45.91521999999759" lon="6.967088000000657"><ele>2857.5</ele><time>2025-05-30T23:15:31Z</time></rtept><rtept lat="45.91525899999948" lon="6.967000999997954"><ele>2860.8</ele><time>2025-05-30T23:15:44Z</time></rtept><rtept lat="45.9156750000017" lon="6.966735000002903"><ele>2877.7</ele><time>2025-05-30T23:16:58Z</time></rtept><rtept lat="45.915886999999" lon="6.966843000002853"><ele>2872.8</ele><time>2025-05-30T23:17:58Z</time></rtept><rtept lat="45.91596500000031" lon="6.966741999998992"><ele>2880.6</ele><time>2025-05-30T23:18:48Z</time></rtept><rtept lat="45.91597500000236" lon="6.966452999997547"><ele>2893.4</ele><time>2025-05-30T23:19:28Z</time></rtept><rtept lat="45.916329000002605" lon="6.966423000004048"><ele>2896.8</ele><time>2025-05-30T23:20:32Z</time></rtept><rtept lat="45.91622400000202" lon="6.96606199999665"><ele>2910.1</ele><time>2025-05-30T23:21:18Z</time></rtept><rtept lat="45.91600999999832" lon="6.965794999997026"><ele>2923.4</ele><time>2025-05-30T23:22:31Z</time></rtept><rtept lat="45.91603900000007" lon="6.965704000002974"><ele>2928.3</ele><time>2025-05-30T23:22:41Z</time></rtept><rtept lat="45.91611399999934" lon="6.965696000002311"><ele>2928.3</ele><time>2025-05-30T23:22:55Z</time></rtept><rtept lat="45.91600100000289" lon="6.965547000003465"><ele>2936.4</ele><time>2025-05-30T23:23:44Z</time></rtept><rtept lat="45.91602199999832" lon="6.965494999999164"><ele>2942.4</ele><time>2025-05-30T23:23:50Z</time></rtept><rtept lat="45.91614300000299" lon="6.965401999995964"><ele>2948.1</ele><time>2025-05-30T23:24:19Z</time></rtept><rtept lat="45.916207999997226" lon="6.965439999999107"><ele>2944.9</ele><time>2025-05-30T23:24:38Z</time></rtept><rtept lat="45.916102000000535" lon="6.965246999996619"><ele>2958.7</ele><time>2025-05-30T23:25:16Z</time></rtept><rtept lat="45.91612099999904" lon="6.965181999995735"><ele>2963.5</ele><time>2025-05-30T23:25:28Z</time></rtept><rtept lat="45.916281000002726" lon="6.96520999999805"><ele>2960.8</ele><time>2025-05-30T23:25:58Z</time></rtept><rtept lat="45.916400000000266" lon="6.965315999997833"><ele>2956.1</ele><time>2025-05-30T23:26:30Z</time></rtept><rtept lat="45.91664500000084" lon="6.965337999999654"><ele>2954</ele><time>2025-05-30T23:27:26Z</time></rtept><rtept lat="45.91655299999891" lon="6.965013000004215"><ele>2971.5</ele><time>2025-05-30T23:28:32Z</time></rtept><rtept lat="45.91673400000161" lon="6.9649730000009065"><ele>2972.7</ele><time>2025-05-30T23:29:22Z</time></rtept><rtept lat="45.916762999999975" lon="6.965032000001295"><ele>2968.7</ele><time>2025-05-30T23:29:44Z</time></rtept><rtept lat="45.91715100000036" lon="6.9647650000016705"><ele>2979.9</ele><time>2025-05-30T23:31:21Z</time></rtept><rtept lat="45.91722899999985" lon="6.964594999996593"><ele>2987.3</ele><time>2025-05-30T23:31:48Z</time></rtept><rtept lat="45.917531000000366" lon="6.964357000003859"><ele>2995.4</ele><time>2025-05-30T23:33:05Z</time></rtept><rtept lat="45.91765500000088" lon="6.964329000001544"><ele>2996.3</ele><time>2025-05-30T23:33:26Z</time></rtept><rtept lat="45.91823499999825" lon="6.9637389999976635"><ele>3017.3</ele><time>2025-05-30T23:36:29Z</time></rtept><rtept lat="45.91880199999932" lon="6.9633989999964925"><ele>3042.4</ele><time>2025-05-30T23:38:09Z</time></rtept><rtept lat="45.91936299999941" lon="6.963347999996767"><ele>3050</ele><time>2025-05-30T23:39:27Z</time></rtept><rtept lat="45.92057500000254" lon="6.964056999997014"><ele>3053.8</ele><time>2025-05-30T23:42:43Z</time></rtept><rtept lat="45.9211449999988" lon="6.9642370000029175"><ele>3066.7</ele><time>2025-05-30T23:43:52Z</time></rtept><rtept lat="45.92156699999998" lon="6.964551000001937"><ele>3073.9</ele><time>2025-05-30T23:44:59Z</time></rtept><rtept lat="45.921792000000295" lon="6.964610000002326"><ele>3080.8</ele><time>2025-05-30T23:45:22Z</time></rtept><rtept lat="45.92229299999764" lon="6.965058000003444"><ele>3090.6</ele><time>2025-05-30T23:46:29Z</time></rtept><rtept lat="45.922432000003084" lon="6.965305999997007"><ele>3091.4</ele><time>2025-05-30T23:46:58Z</time></rtept><rtept lat="45.92259099999981" lon="6.965419999997453"><ele>3099.1</ele><time>2025-05-30T23:47:24Z</time></rtept><rtept lat="45.92278699999986" lon="6.965735000001047"><ele>3104.1</ele><time>2025-05-30T23:48:26Z</time></rtept><rtept lat="45.92280199999837" lon="6.965861999998076"><ele>3103.2</ele><time>2025-05-30T23:51:50Z</time></rtept><rtept lat="45.92286500000034" lon="6.965861999998076"><ele>3106.2</ele><time>2025-05-30T23:51:59Z</time></rtept><rtept lat="45.92295699999761" lon="6.9657029999984"><ele>3114</ele><time>2025-05-30T23:52:31Z</time></rtept><rtept lat="45.923101999998096" lon="6.966075999997807"><ele>3113.2</ele><time>2025-05-30T23:54:10Z</time></rtept><rtept lat="45.92319499999789" lon="6.965810999998349"><ele>3122.2</ele><time>2025-05-30T23:55:00Z</time></rtept><rtept lat="45.92336299999761" lon="6.96621800000057"><ele>3121.2</ele><time>2025-05-30T23:56:41Z</time></rtept><rtept lat="45.92378799999864" lon="6.966554999997"><ele>3135.6</ele><time>2025-05-30T23:58:44Z</time></rtept><rtept lat="45.923941999997965" lon="6.966599999996229"><ele>3142.5</ele><time>2025-05-30T23:59:15Z</time></rtept><rtept lat="45.924119000002605" lon="6.9668709999961855"><ele>3148.9</ele><time>2025-05-31T00:00:40Z</time></rtept><rtept lat="45.92422999999752" lon="6.966845999998609"><ele>3155.6</ele><time>2025-05-31T00:00:58Z</time></rtept><rtept lat="45.92429499999787" lon="6.966988999996961"><ele>3157.4</ele><time>2025-05-31T00:01:20Z</time></rtept><rtept lat="45.92442699999816" lon="6.967047000001759"><ele>3163.8</ele><time>2025-05-31T00:02:00Z</time></rtept><rtept lat="45.92443900000248" lon="6.967277000002813"><ele>3164.1</ele><time>2025-05-31T00:02:35Z</time></rtept><rtept lat="45.92452900000225" lon="6.9672919999995635"><ele>3169.2</ele><time>2025-05-31T00:02:56Z</time></rtept><rtept lat="45.9248300000024" lon="6.967976000002235"><ele>3181.2</ele><time>2025-05-31T00:05:24Z</time></rtept><rtept lat="45.925510000001765" lon="6.968581000002865"><ele>3215.5</ele><time>2025-05-31T00:07:55Z</time></rtept><rtept lat="45.92568400000039" lon="6.969243000003716"><ele>3227.8</ele><time>2025-05-31T00:10:02Z</time></rtept><rtept lat="45.92565300000061" lon="6.9692700000014565"><ele>3226.1</ele><time>2025-05-31T00:14:40Z</time></rtept><rtept lat="45.92576799999745" lon="6.969382000001737"><ele>3233.3</ele><time>2025-05-31T00:16:56Z</time></rtept><rtept lat="45.9264900000008" lon="6.969494000002018"><ele>3278.1</ele><time>2025-05-31T00:19:47Z</time></rtept><rtept lat="45.92665299999763" lon="6.969575000004225"><ele>3290.4</ele><time>2025-05-31T00:20:26Z</time></rtept><rtept lat="45.92683500000052" lon="6.96941700000014"><ele>3305.1</ele><time>2025-05-31T00:21:26Z</time></rtept><rtept lat="45.926863000001305" lon="6.969217000001565"><ele>3309.8</ele><time>2025-05-31T00:22:23Z</time></rtept><rtept lat="45.92703199999815" lon="6.969372999996501"><ele>3320.1</ele><time>2025-05-31T00:23:23Z</time></rtept><rtept lat="45.92705399999994" lon="6.969508999998767"><ele>3320.7</ele><time>2025-05-31T00:29:03Z</time></rtept><rtept lat="45.927064000002986" lon="6.96943599999722"><ele>3321.8</ele><time>2025-05-31T00:29:33Z</time></rtept><rtept lat="45.92708299999694" lon="6.969502999998269"><ele>3322.8</ele><time>2025-05-31T00:31:53Z</time></rtept><rtept lat="45.92701599999819" lon="6.969480000000859"><ele>3319</ele><time>2025-05-31T00:35:07Z</time></rtept><rtept lat="45.92709700000211" lon="6.969463000003945"><ele>3325.6</ele><time>2025-05-31T00:37:27Z</time></rtept><rtept lat="45.92702399999874" lon="6.969480000000859"><ele>3319</ele><time>2025-05-31T00:38:15Z</time></rtept><rtept lat="45.927070000001436" lon="6.96948099999645"><ele>3323.4</ele><time>2025-05-31T00:38:57Z</time></rtept><rtept lat="45.927051000003075" lon="6.969429999996724"><ele>3321.8</ele><time>2025-05-31T00:39:23Z</time></rtept><rtept lat="45.927183999998846" lon="6.969484999996781"><ele>3330.2</ele><time>2025-05-31T00:40:14Z</time></rtept><rtept lat="45.92721400000099" lon="6.969384999997494"><ele>3333.9</ele><time>2025-05-31T00:40:55Z</time></rtept><rtept lat="45.927383999998284" lon="6.969461000003779"><ele>3345.8</ele><time>2025-05-31T00:42:37Z</time></rtept><rtept lat="45.92735200000308" lon="6.969486000001356"><ele>3343.9</ele><time>2025-05-31T00:42:38Z</time></rtept><rtept lat="45.92749199999804" lon="6.969653999997283"><ele>3350.6</ele><time>2025-05-31T00:43:51Z</time></rtept><rtept lat="45.92747999999804" lon="6.96973000000357"><ele>3347.2</ele><time>2025-05-31T00:44:05Z</time></rtept><rtept lat="45.92763200000206" lon="6.970050000003086"><ele>3351.7</ele><time>2025-05-31T00:45:20Z</time></rtept><rtept lat="45.9276630000019" lon="6.970232999995763"><ele>3352.1</ele><time>2025-05-31T00:45:55Z</time></rtept><rtept lat="45.92773500000041" lon="6.970278000003975"><ele>3355.1</ele><time>2025-05-31T00:46:13Z</time></rtept><rtept lat="45.92777100000208" lon="6.970505999995884"><ele>3354.6</ele><time>2025-05-31T00:47:06Z</time></rtept><rtept lat="45.927832999997776" lon="6.97057899999743"><ele>3357.7</ele><time>2025-05-31T00:47:25Z</time></rtept><rtept lat="45.92782999999926" lon="6.97069099999771"><ele>3356.8</ele><time>2025-05-31T00:47:48Z</time></rtept><rtept lat="45.92788000000306" lon="6.970729999996443"><ele>3359.8</ele><time>2025-05-31T00:47:58Z</time></rtept><rtept lat="45.927848999999526" lon="6.970753999998428"><ele>3357.7</ele><time>2025-05-31T00:48:03Z</time></rtept><rtept lat="45.92801799999779" lon="6.971006999996893"><ele>3363.4</ele><time>2025-05-31T00:49:10Z</time></rtept><rtept lat="45.92803000000018" lon="6.971110000000921"><ele>3364.5</ele><time>2025-05-31T00:49:36Z</time></rtept><rtept lat="45.92817500000021" lon="6.971297000002913"><ele>3372.3</ele><time>2025-05-31T00:50:40Z</time></rtept><rtept lat="45.92838599999865" lon="6.971409999998785"><ele>3385.6</ele><time>2025-05-31T00:51:49Z</time></rtept><rtept lat="45.928397000000814" lon="6.971497999997079"><ele>3384.5</ele><time>2025-05-31T00:52:08Z</time></rtept><rtept lat="45.9284459999987" lon="6.971483999995922"><ele>3388.1</ele><time>2025-05-31T00:52:37Z</time></rtept><rtept lat="45.92871399999714" lon="6.971737000003371"><ele>3402.3</ele><time>2025-05-31T00:54:21Z</time></rtept><rtept lat="45.92884599999829" lon="6.971912999999961"><ele>3407.3</ele><time>2025-05-31T00:55:17Z</time></rtept><rtept lat="45.92885800000269" lon="6.972053000002556"><ele>3407.4</ele><time>2025-05-31T00:55:49Z</time></rtept><rtept lat="45.92891199999977" lon="6.972043000001729"><ele>3409.6</ele><time>2025-05-31T00:56:09Z</time></rtept><rtept lat="45.928991999999454" lon="6.972181999999751"><ele>3414.1</ele><time>2025-05-31T00:56:39Z</time></rtept><rtept lat="45.92904000000016" lon="6.9723870000032315"><ele>3414.7</ele><time>2025-05-31T00:57:19Z</time></rtept><rtept lat="45.92911000000163" lon="6.9724029999955714"><ele>3418.9</ele><time>2025-05-31T00:57:40Z</time></rtept><rtept lat="45.92909299999948" lon="6.972497000003345"><ele>3415.4</ele><time>2025-05-31T00:57:54Z</time></rtept><rtept lat="45.92919099999693" lon="6.972601000002963"><ele>3422.4</ele><time>2025-05-31T00:58:39Z</time></rtept><rtept lat="45.92916200000235" lon="6.972622000000209"><ele>3419.9</ele><time>2025-05-31T00:58:40Z</time></rtept><rtept lat="45.92930200000271" lon="6.972748999997238"><ele>3426.3</ele><time>2025-05-31T01:00:01Z</time></rtept><rtept lat="45.92928600000144" lon="6.972693000001589"><ele>3427.2</ele><time>2025-05-31T01:00:11Z</time></rtept><rtept lat="45.92927999999904" lon="6.9727580000024725"><ele>3425.5</ele><time>2025-05-31T01:00:24Z</time></rtept><rtept lat="45.92933099999911" lon="6.972719000003739"><ele>3428.3</ele><time>2025-05-31T01:00:27Z</time></rtept><rtept lat="45.92932500000154" lon="6.972778000004127"><ele>3427.5</ele><time>2025-05-31T01:00:35Z</time></rtept><rtept lat="45.92947000000285" lon="6.972921000002479"><ele>3437</ele><time>2025-05-31T01:01:40Z</time></rtept><rtept lat="45.92959300000172" lon="6.972958999996639"><ele>3445.2</ele><time>2025-05-31T01:02:26Z</time></rtept><rtept lat="45.92956299999909" lon="6.973015999996862"><ele>3441.4</ele><time>2025-05-31T01:02:31Z</time></rtept><rtept lat="45.92966899999735" lon="6.973009999996365"><ele>3451.7</ele><time>2025-05-31T01:02:55Z</time></rtept><rtept lat="45.92969299999737" lon="6.973092999998738"><ele>3452.8</ele><time>2025-05-31T01:03:32Z</time></rtept><rtept lat="45.92974200000003" lon="6.972917000002149"><ele>3458.1</ele><time>2025-05-31T01:04:09Z</time></rtept><rtept lat="45.9298089999989" lon="6.972872000002918"><ele>3463.8</ele><time>2025-05-31T01:04:55Z</time></rtept><rtept lat="45.9297849999991" lon="6.972789999996136"><ele>3465.3</ele><time>2025-05-31T01:05:19Z</time></rtept><rtept lat="45.92994000000067" lon="6.9728689999981786"><ele>3474.5</ele><time>2025-05-31T01:06:52Z</time></rtept><rtept lat="45.929961999998795" lon="6.972801999997129"><ele>3477.6</ele><time>2025-05-31T01:07:27Z</time></rtept><rtept lat="45.930096000002635" lon="6.972793999996467"><ele>3488.4</ele><time>2025-05-31T01:08:11Z</time></rtept><rtept lat="45.9300709999992" lon="6.97284699999636"><ele>3484.4</ele><time>2025-05-31T01:08:31Z</time></rtept><rtept lat="45.93009300000156" lon="6.972789000000545"><ele>3488.4</ele><time>2025-05-31T01:08:51Z</time></rtept><rtept lat="45.93014200000076" lon="6.972852000001265"><ele>3490.7</ele><time>2025-05-31T01:09:14Z</time></rtept><rtept lat="45.93013699999889" lon="6.972791000000711"><ele>3490.5</ele><time>2025-05-31T01:09:49Z</time></rtept><rtept lat="45.93043900000026" lon="6.972797999996798"><ele>3521.1</ele><time>2025-05-31T01:21:19Z</time></rtept><rtept lat="45.930468999997686" lon="6.972766999998726"><ele>3524.4</ele><time>2025-05-31T01:21:50Z</time></rtept><rtept lat="45.930423999998624" lon="6.9727460000014805"><ele>3519.3</ele><time>2025-05-31T01:22:02Z</time></rtept><rtept lat="45.93066400000089" lon="6.972605000003294"><ele>3560.9</ele><time>2025-05-31T01:27:13Z</time></rtept><rtept lat="45.9305990000031" lon="6.972630999996462"><ele>3551.7</ele><time>2025-05-31T01:27:21Z</time></rtept><rtept lat="45.93072800000016" lon="6.972546000002906"><ele>3569.7</ele><time>2025-05-31T01:30:33Z</time></rtept><rtept lat="45.9307320000016" lon="6.972481000002021"><ele>3572.7</ele><time>2025-05-31T01:30:57Z</time></rtept><rtept lat="45.93077399999899" lon="6.9725540000035675"><ele>3576.9</ele><time>2025-05-31T01:32:07Z</time></rtept><rtept lat="45.93077899999969" lon="6.97246199999596"><ele>3579.8</ele><time>2025-05-31T01:32:36Z</time></rtept><rtept lat="45.93099000000177" lon="6.972353000000418"><ele>3608.8</ele><time>2025-05-31T01:38:46Z</time></rtept><rtept lat="45.93108499999903" lon="6.972410000000642"><ele>3618.5</ele><time>2025-05-31T01:41:59Z</time></rtept><rtept lat="45.9310889999997" lon="6.972522000000921"><ele>3615.3</ele><time>2025-05-31T01:43:13Z</time></rtept><rtept lat="45.93105600000129" lon="6.972481999997612"><ele>3612.5</ele><time>2025-05-31T01:43:29Z</time></rtept><rtept lat="45.93103600000194" lon="6.972552000003401"><ele>3610.3</ele><time>2025-05-31T01:43:46Z</time></rtept><rtept lat="45.931189999998736" lon="6.972701000002251"><ele>3626.1</ele><time>2025-05-31T01:55:17Z</time></rtept><rtept lat="45.9310990000001" lon="6.972683999996352"><ele>3615</ele><time>2025-05-31T01:55:47Z</time></rtept><rtept lat="45.93123700000237" lon="6.972728999995582"><ele>3628.3</ele><time>2025-05-31T01:57:25Z</time></rtept><rtept lat="45.93117799999902" lon="6.972725999999826"><ele>3621.7</ele><time>2025-05-31T01:58:38Z</time></rtept><rtept lat="45.93121900000145" lon="6.972713999998834"><ele>3628.3</ele><time>2025-05-31T01:59:17Z</time></rtept><rtept lat="45.931202000002145" lon="6.972770999999057"><ele>3624.1</ele><time>2025-05-31T01:59:28Z</time></rtept><rtept lat="45.931222999998624" lon="6.9727099999985045"><ele>3629.3</ele><time>2025-05-31T02:01:51Z</time></rtept><rtept lat="45.93142499999959" lon="6.972770000003465"><ele>3652.7</ele><time>2025-05-31T02:02:40Z</time></rtept><rtept lat="45.93130799999835" lon="6.972713999998834"><ele>3638.8</ele><time>2025-05-31T02:03:46Z</time></rtept><rtept lat="45.93133800000055" lon="6.972734999996079"><ele>3642.5</ele><time>2025-05-31T02:03:59Z</time></rtept><rtept lat="45.93128800000241" lon="6.972778000004127"><ele>3634.2</ele><time>2025-05-31T02:04:45Z</time></rtept><rtept lat="45.931389000001474" lon="6.972760000002639"><ele>3645.4</ele><time>2025-05-31T02:05:20Z</time></rtept><rtept lat="45.931367999999054" lon="6.972711999998669"><ele>3647.3</ele><time>2025-05-31T02:05:39Z</time></rtept><rtept lat="45.931411999997096" lon="6.972748999997238"><ele>3650.1</ele><time>2025-05-31T02:05:48Z</time></rtept><rtept lat="45.93136499999807" lon="6.972687999996683"><ele>3647.3</ele><time>2025-05-31T02:06:27Z</time></rtept><rtept lat="45.93147499999918" lon="6.972695999997345"><ele>3658.1</ele><time>2025-05-31T02:08:35Z</time></rtept><rtept lat="45.93143199999824" lon="6.972662000003517"><ele>3655.6</ele><time>2025-05-31T02:09:32Z</time></rtept><rtept lat="45.931633000000545" lon="6.972756000002307"><ele>3675</ele><time>2025-05-31T02:12:52Z</time></rtept><rtept lat="45.93158500000084" lon="6.972666999999438"><ele>3671</ele><time>2025-05-31T02:13:24Z</time></rtept><rtept lat="45.93153100000072" lon="6.972691999997014"><ele>3664.3</ele><time>2025-05-31T02:15:05Z</time></rtept><rtept lat="45.93166099999732" lon="6.972717000003574"><ele>3675</ele><time>2025-05-31T02:19:20Z</time></rtept><rtept lat="45.93159800000029" lon="6.972640000001697"><ele>3671</ele><time>2025-05-31T02:20:01Z</time></rtept><rtept lat="45.931682000001274" lon="6.972638999997122"><ele>3680.4</ele><time>2025-05-31T02:21:55Z</time></rtept><rtept lat="45.93162600000227" lon="6.972577999996569"><ele>3676</ele><time>2025-05-31T02:22:49Z</time></rtept><rtept lat="45.93183300000308" lon="6.972624000000374"><ele>3697.1</ele><time>2025-05-31T02:24:14Z</time></rtept><rtept lat="45.93174899999963" lon="6.97258500000164"><ele>3688.2</ele><time>2025-05-31T02:25:16Z</time></rtept><rtept lat="45.93183200000075" lon="6.972581000001309"><ele>3698.3</ele><time>2025-05-31T02:27:09Z</time></rtept><rtept lat="45.93177099999872" lon="6.9725129999956845"><ele>3693.5</ele><time>2025-05-31T02:28:12Z</time></rtept><rtept lat="45.93189500000065" lon="6.97258900000197"><ele>3703.9</ele><time>2025-05-31T02:31:20Z</time></rtept><rtept lat="45.93179199999847" lon="6.97255899999949"><ele>3695.3</ele><time>2025-05-31T02:32:00Z</time></rtept><rtept lat="45.93187700000081" lon="6.9725580000038985"><ele>3705</ele><time>2025-05-31T02:33:03Z</time></rtept><rtept lat="45.93181599999829" lon="6.97249199999844"><ele>3700.4</ele><time>2025-05-31T02:33:49Z</time></rtept><rtept lat="45.931962999997864" lon="6.972556000003732"><ele>3717.5</ele><time>2025-05-31T02:35:36Z</time></rtept><rtept lat="45.931902000002424" lon="6.972430000002296"><ele>3712.1</ele><time>2025-05-31T02:38:16Z</time></rtept><rtept lat="45.93196799999757" lon="6.972397000004058"><ele>3721.4</ele><time>2025-05-31T02:39:33Z</time></rtept><rtept lat="45.93191699999801" lon="6.972357000000749"><ele>3713.8</ele><time>2025-05-31T02:39:58Z</time></rtept><rtept lat="45.9320590000012" lon="6.972351000000252"><ele>3733.6</ele><time>2025-05-31T02:42:57Z</time></rtept><rtept lat="45.93201999999917" lon="6.972328999998434"><ele>3726.3</ele><time>2025-05-31T02:43:04Z</time></rtept><rtept lat="45.93206699999919" lon="6.972342999999592"><ele>3733.6</ele><time>2025-05-31T02:43:45Z</time></rtept><rtept lat="45.93204899999898" lon="6.972298999995953"><ele>3731</ele><time>2025-05-31T02:43:54Z</time></rtept><rtept lat="45.93220700000208" lon="6.972336000003503"><ele>3752.9</ele><time>2025-05-31T02:46:33Z</time></rtept><rtept lat="45.9321869999992" lon="6.972281000003447"><ele>3750.8</ele><time>2025-05-31T02:47:22Z</time></rtept><rtept lat="45.93230500000186" lon="6.972338999999261"><ele>3764.7</ele><time>2025-05-31T02:48:08Z</time></rtept><rtept lat="45.932206000000235" lon="6.972283000003612"><ele>3754.9</ele><time>2025-05-31T02:49:13Z</time></rtept><rtept lat="45.93227499999787" lon="6.972334000003339"><ele>3760.9</ele><time>2025-05-31T02:49:24Z</time></rtept><rtept lat="45.932306000001944" lon="6.972273999998376"><ele>3766.7</ele><time>2025-05-31T02:49:44Z</time></rtept><rtept lat="45.932411999999914" lon="6.972359000000916"><ele>3779.4</ele><time>2025-05-31T02:51:35Z</time></rtept><rtept lat="45.93244199999853" lon="6.972340000003834"><ele>3783.2</ele><time>2025-05-31T02:51:54Z</time></rtept><rtept lat="45.93238400000118" lon="6.9723249999981025"><ele>3776.7</ele><time>2025-05-31T02:52:41Z</time></rtept><rtept lat="45.93255799999875" lon="6.972322999997938"><ele>3801</ele><time>2025-05-31T02:56:33Z</time></rtept><rtept lat="45.93250999999984" lon="6.972314999997276"><ele>3792.5</ele><time>2025-05-31T02:57:30Z</time></rtept><rtept lat="45.932564000002714" lon="6.972306000001023"><ele>3801</ele><time>2025-05-31T02:57:49Z</time></rtept><rtept lat="45.93255499999964" lon="6.972247999996227"><ele>3797.8</ele><time>2025-05-31T02:58:08Z</time></rtept><rtept lat="45.93261299999935" lon="6.972316999997441"><ele>3804.9</ele><time>2025-05-31T02:58:35Z</time></rtept><rtept lat="45.93256000000224" lon="6.972273999998376"><ele>3802</ele><time>2025-05-31T02:59:04Z</time></rtept><rtept lat="45.932709000002234" lon="6.972275999998541"><ele>3820.5</ele><time>2025-05-31T03:04:41Z</time></rtept><rtept lat="45.932675999999276" lon="6.972212000002232"><ele>3814</ele><time>2025-05-31T03:05:09Z</time></rtept><rtept lat="45.93271600000128" lon="6.972190000000412"><ele>3822.6</ele><time>2025-05-31T03:05:23Z</time></rtept><rtept lat="45.93280000000212" lon="6.972243999995896"><ele>3833.7</ele><time>2025-05-31T03:06:49Z</time></rtept><rtept lat="45.932814000001315" lon="6.972186999995672"><ele>3835.7</ele><time>2025-05-31T03:08:28Z</time></rtept><rtept lat="45.93276200000065" lon="6.97215900000234"><ele>3826.9</ele><time>2025-05-31T03:08:56Z</time></rtept><rtept lat="45.93292700000046" lon="6.972039999996991"><ele>3853.9</ele><time>2025-05-31T03:11:06Z</time></rtept><rtept lat="45.93285699999916" lon="6.971970000000183"><ele>3848.7</ele><time>2025-05-31T03:12:54Z</time></rtept><rtept lat="45.932933999997005" lon="6.972008000003327"><ele>3854.9</ele><time>2025-05-31T03:13:26Z</time></rtept><rtept lat="45.93291199999689" lon="6.971972000000349"><ele>3852.3</ele><time>2025-05-31T03:13:40Z</time></rtept><rtept lat="45.932979000002604" lon="6.97197600000068"><ele>3863.6</ele><time>2025-05-31T03:14:51Z</time></rtept><rtept lat="45.932939000002875" lon="6.971943999998033"><ele>3855.9</ele><time>2025-05-31T03:15:18Z</time></rtept><rtept lat="45.933038000001886" lon="6.971957999999191"><ele>3871.9</ele><time>2025-05-31T03:16:08Z</time></rtept><rtept lat="45.93300800000077" lon="6.971933999997207"><ele>3868.7</ele><time>2025-05-31T03:16:16Z</time></rtept><rtept lat="45.93305400000165" lon="6.971902000003543"><ele>3872.8</ele><time>2025-05-31T03:16:57Z</time></rtept><rtept lat="45.933096000002536" lon="6.97197600000068"><ele>3879.9</ele><time>2025-05-31T03:18:14Z</time></rtept><rtept lat="45.93315399999881" lon="6.971939999997702"><ele>3884.7</ele><time>2025-05-31T03:18:59Z</time></rtept><rtept lat="45.933131000000856" lon="6.971906000003874"><ele>3884.7</ele><time>2025-05-31T03:19:37Z</time></rtept><rtept lat="45.933166000002075" lon="6.971941000002276"><ele>3887.5</ele><time>2025-05-31T03:20:20Z</time></rtept><rtept lat="45.93313699999905" lon="6.971857000004313"><ele>3885.6</ele><time>2025-05-31T03:21:12Z</time></rtept><rtept lat="45.93320400000158" lon="6.971894999998471"><ele>3892.9</ele><time>2025-05-31T03:21:39Z</time></rtept><rtept lat="45.933295000001465" lon="6.971800000004089"><ele>3905.3</ele><time>2025-05-31T03:23:24Z</time></rtept><rtept lat="45.93334800000221" lon="6.971849000003651"><ele>3912.1</ele><time>2025-05-31T03:25:04Z</time></rtept><rtept lat="45.93331800000013" lon="6.971890999998142"><ele>3907.2</ele><time>2025-05-31T03:25:15Z</time></rtept><rtept lat="45.93337700000109" lon="6.971817000001004"><ele>3916.1</ele><time>2025-05-31T03:26:22Z</time></rtept><rtept lat="45.933357000001564" lon="6.971890999998142"><ele>3911.2</ele><time>2025-05-31T03:26:29Z</time></rtept><rtept lat="45.93342700000278" lon="6.971890999998142"><ele>3922.6</ele><time>2025-05-31T03:27:01Z</time></rtept><rtept lat="45.93355400000232" lon="6.971802999999847"><ele>3937.7</ele><time>2025-05-31T03:28:32Z</time></rtept><rtept lat="45.93350400000267" lon="6.971819999996762"><ele>3930</ele><time>2025-05-31T03:28:45Z</time></rtept><rtept lat="45.9335299999986" lon="6.971758999996207"><ele>3935.1</ele><time>2025-05-31T03:29:00Z</time></rtept><rtept lat="45.93353100000158" lon="6.971912999999961"><ele>3931.5</ele><time>2025-05-31T03:29:46Z</time></rtept><rtept lat="45.9335270000021" lon="6.971819000001171"><ele>3933.3</ele><time>2025-05-31T03:30:27Z</time></rtept><rtept lat="45.93349500000221" lon="6.971833000002327"><ele>3930</ele><time>2025-05-31T03:30:48Z</time></rtept><rtept lat="45.93354700000285" lon="6.971829000001996"><ele>3936.8</ele><time>2025-05-31T03:31:02Z</time></rtept><rtept lat="45.933481999997554" lon="6.971833999997918"><ele>3926.8</ele><time>2025-05-31T03:31:43Z</time></rtept><rtept lat="45.933859999998106" lon="6.971947000002773"><ele>3968.6</ele><time>2025-05-31T03:41:59Z</time></rtept><rtept lat="45.93378200000052" lon="6.971884000002054"><ele>3963.8</ele><time>2025-05-31T03:42:33Z</time></rtept><rtept lat="45.93398599999844" lon="6.972014999999414"><ele>3979.9</ele><time>2025-05-31T03:46:17Z</time></rtept><rtept lat="45.93393700000283" lon="6.9720350000010685"><ele>3976.2</ele><time>2025-05-31T03:46:43Z</time></rtept><rtept lat="45.93404400000105" lon="6.972023000000076"><ele>3985</ele><time>2025-05-31T03:48:32Z</time></rtept><rtept lat="45.93418699999742" lon="6.972147000001347"><ele>3992.9</ele><time>2025-05-31T03:51:49Z</time></rtept><rtept lat="45.9341430000018" lon="6.972096000001622"><ele>3991.8</ele><time>2025-05-31T03:52:14Z</time></rtept><rtept lat="45.934210000001" lon="6.972108999998205"><ele>3996.1</ele><time>2025-05-31T03:52:25Z</time></rtept><rtept lat="45.934156999999345" lon="6.972069999999471"><ele>3991.8</ele><time>2025-05-31T03:52:37Z</time></rtept><rtept lat="45.934353000000385" lon="6.972177999999419"><ele>4002.3</ele><time>2025-05-31T03:55:54Z</time></rtept><rtept lat="45.93430099999955" lon="6.9720800000002985"><ele>4001.6</ele><time>2025-05-31T03:57:50Z</time></rtept><rtept lat="45.93436199999908" lon="6.972149000001513"><ele>4003.5</ele><time>2025-05-31T03:58:07Z</time></rtept><rtept lat="45.934333999997676" lon="6.972059000003053"><ele>4004.1</ele><time>2025-05-31T03:58:14Z</time></rtept><rtept lat="45.93434400000024" lon="6.972128999999859"><ele>4002</ele><time>2025-05-31T03:58:27Z</time></rtept><rtept lat="45.93439399999855" lon="6.972135000000354"><ele>4005.1</ele><time>2025-05-31T03:58:40Z</time></rtept><rtept lat="45.93438699999888" lon="6.972065000003549"><ele>4007.3</ele><time>2025-05-31T03:59:36Z</time></rtept><rtept lat="45.93448400000301" lon="6.9721699999987585"><ele>4008.9</ele><time>2025-05-31T04:01:38Z</time></rtept><rtept lat="45.934421000001464" lon="6.972073999999802"><ele>4007.9</ele><time>2025-05-31T04:02:23Z</time></rtept><rtept lat="45.93445899999699" lon="6.972112000002944"><ele>4009.6</ele><time>2025-05-31T04:02:38Z</time></rtept><rtept lat="45.9344479999975" lon="6.972027999995996"><ele>4010.6</ele><time>2025-05-31T04:02:47Z</time></rtept><rtept lat="45.93451099999962" lon="6.972100999997543"><ele>4012.7</ele><time>2025-05-31T04:03:23Z</time></rtept><rtept lat="45.934488000002204" lon="6.9720390000013985"><ele>4012.3</ele><time>2025-05-31T04:03:52Z</time></rtept><rtept lat="45.93457199999935" lon="6.972131000000024"><ele>4014.1</ele><time>2025-05-31T04:04:16Z</time></rtept><rtept lat="45.934531999999024" lon="6.9720350000010685"><ele>4015.1</ele><time>2025-05-31T04:04:37Z</time></rtept><rtept lat="45.93463899999881" lon="6.972183000004325"><ele>4015.1</ele><time>2025-05-31T04:05:50Z</time></rtept><rtept lat="45.93469599999881" lon="6.972181999999751"><ele>4017.1</ele><time>2025-05-31T04:06:09Z</time></rtept><rtept lat="45.93467499999903" lon="6.972120000003605"><ele>4017.3</ele><time>2025-05-31T04:06:42Z</time></rtept><rtept lat="45.934724999998735" lon="6.972236000004218"><ele>4016.7</ele><time>2025-05-31T04:07:29Z</time></rtept><rtept lat="45.934749999997365" lon="6.972165000002836"><ele>4018.6</ele><time>2025-05-31T04:09:02Z</time></rtept><rtept lat="45.93480399999956" lon="6.97227100000262"><ele>4016.8</ele><time>2025-05-31T04:09:34Z</time></rtept><rtept lat="45.93482800000169" lon="6.972186000000081"><ele>4019.4</ele><time>2025-05-31T04:11:16Z</time></rtept><rtept lat="45.93485799999911" lon="6.972220999998485"><ele>4018.1</ele><time>2025-05-31T04:11:36Z</time></rtept><rtept lat="45.934840999996936" lon="6.972169000003167"><ele>4019.4</ele><time>2025-05-31T04:11:49Z</time></rtept><rtept lat="45.93488399999754" lon="6.972226000003391"><ele>4018.1</ele><time>2025-05-31T04:12:42Z</time></rtept><rtept lat="45.934786999999574" lon="6.971558999997633"><ele>4033.4</ele><time>2025-05-31T04:24:09Z</time></rtept><rtept lat="45.93473399999954" lon="6.971511000002646"><ele>4033.6</ele><time>2025-05-31T04:26:00Z</time></rtept><rtept lat="45.93475999999987" lon="6.971254999999438"><ele>4038.3</ele><time>2025-05-31T04:28:16Z</time></rtept><rtept lat="45.93459999999925" lon="6.97035800000161"><ele>4054.2</ele><time>2025-05-31T04:36:38Z</time></rtept><rtept lat="45.93462599999992" lon="6.970183999996203"><ele>4059.9</ele><time>2025-05-31T04:38:09Z</time></rtept><rtept lat="45.934556000000185" lon="6.969989000002532"><ele>4062</ele><time>2025-05-31T04:41:01Z</time></rtept><rtept lat="45.93462400000223" lon="6.970054000003417"><ele>4063</ele><time>2025-05-31T04:43:26Z</time></rtept><rtept lat="45.934589000002745" lon="6.970370999998193"><ele>4054.2</ele><time>2025-05-31T04:48:11Z</time></rtept><rtept lat="45.93467499999903" lon="6.970855000002291"><ele>4044.5</ele><time>2025-05-31T04:52:47Z</time></rtept><rtept lat="45.93465399999758" lon="6.970975999998822"><ele>4041.5</ele><time>2025-05-31T04:53:17Z</time></rtept><rtept lat="45.934739999999266" lon="6.971102000000261"><ele>4041.6</ele><time>2025-05-31T04:55:16Z</time></rtept><rtept lat="45.934711000000874" lon="6.971126999997836"><ele>4040.1</ele><time>2025-05-31T04:56:11Z</time></rtept><rtept lat="45.93476499999733" lon="6.97127799999685"><ele>4038.3</ele><time>2025-05-31T04:56:59Z</time></rtept><rtept lat="45.93471300000169" lon="6.971454999998015"><ele>4034.4</ele><time>2025-05-31T04:57:58Z</time></rtept><rtept lat="45.93476600000301" lon="6.971564000002537"><ele>4032.8</ele><time>2025-05-31T04:58:34Z</time></rtept><rtept lat="45.934738999999354" lon="6.971707000000889"><ele>4030.1</ele><time>2025-05-31T04:59:33Z</time></rtept><rtept lat="45.93484299999932" lon="6.972049000002225"><ele>4023</ele><time>2025-05-31T05:01:28Z</time></rtept><rtept lat="45.93481299999999" lon="6.972108999998205"><ele>4021.7</ele><time>2025-05-31T05:01:41Z</time></rtept><rtept lat="45.93489099999695" lon="6.972135999995946"><ele>4020.3</ele><time>2025-05-31T05:14:21Z</time></rtept><rtept lat="45.934744999998514" lon="6.972296999995787"><ele>4015</ele><time>2025-05-31T05:24:53Z</time></rtept><rtept lat="45.934787999998576" lon="6.972259999997219"><ele>4016.6</ele><time>2025-05-31T05:25:31Z</time></rtept><rtept lat="45.93485299999756" lon="6.972503000003841"><ele>4009.9</ele><time>2025-05-31T05:27:50Z</time></rtept><rtept lat="45.93480200000201" lon="6.972497000003345"><ele>4011.1</ele><time>2025-05-31T05:27:53Z</time></rtept><rtept lat="45.93475500000196" lon="6.972228999999147"><ele>4017.3</ele><time>2025-05-31T05:28:57Z</time></rtept><rtept lat="45.9347540000023" lon="6.972302999996283"><ele>4015</ele><time>2025-05-31T05:30:04Z</time></rtept><rtept lat="45.934753000002644" lon="6.972249999996391"><ele>4016.1</ele><time>2025-05-31T05:30:19Z</time></rtept><rtept lat="45.93469300000288" lon="6.9723080000011874"><ele>4013.5</ele><time>2025-05-31T05:30:55Z</time></rtept><rtept lat="45.934474000000705" lon="6.9721730000034965"><ele>4008.9</ele><time>2025-05-31T05:32:32Z</time></rtept><rtept lat="45.93450700000213" lon="6.972157999997765"><ele>4010.4</ele><time>2025-05-31T05:32:34Z</time></rtept><rtept lat="45.93454099999988" lon="6.9722269999989805"><ele>4010.5</ele><time>2025-05-31T05:32:48Z</time></rtept><rtept lat="45.93442000000206" lon="6.972212000002232"><ele>4004.4</ele><time>2025-05-31T05:33:41Z</time></rtept><rtept lat="45.9345130000014" lon="6.971996000002334"><ele>4014.8</ele><time>2025-05-31T05:37:13Z</time></rtept><rtept lat="45.93447499999914" lon="6.9720639999989755"><ele>4012.3</ele><time>2025-05-31T05:37:19Z</time></rtept><rtept lat="45.93450599999801" lon="6.972208999997493"><ele>4009.2</ele><time>2025-05-31T05:38:15Z</time></rtept><rtept lat="45.93457199999935" lon="6.972092999996881"><ele>4015.3</ele><time>2025-05-31T05:39:15Z</time></rtept><rtept lat="45.934469000002" lon="6.972078000000133"><ele>4011.2</ele><time>2025-05-31T05:39:33Z</time></rtept><rtept lat="45.93444599999967" lon="6.972179000003994"><ele>4007.3</ele><time>2025-05-31T05:39:49Z</time></rtept><rtept lat="45.934495999999655" lon="6.972232000003885"><ele>4007.7</ele><time>2025-05-31T05:40:26Z</time></rtept><rtept lat="45.93446400000283" lon="6.972236999999809"><ele>4006.1</ele><time>2025-05-31T05:40:58Z</time></rtept><rtept lat="45.934486999997745" lon="6.972120000003605"><ele>4010.1</ele><time>2025-05-31T05:42:38Z</time></rtept><rtept lat="45.934347999997016" lon="6.972137999996112"><ele>4002</ele><time>2025-05-31T05:44:12Z</time></rtept><rtept lat="45.93445199999928" lon="6.972037000001234"><ele>4010.6</ele><time>2025-05-31T05:45:19Z</time></rtept><rtept lat="45.93446699999865" lon="6.972157000002175"><ele>4007.3</ele><time>2025-05-31T05:47:10Z</time></rtept><rtept lat="45.93438099999844" lon="6.972108000002613"><ele>4006.2</ele><time>2025-05-31T05:47:28Z</time></rtept><rtept lat="45.93441299999944" lon="6.972049999997816"><ele>4008.9</ele><time>2025-05-31T05:47:36Z</time></rtept><rtept lat="45.93446100000065" lon="6.972151000001678"><ele>4008.4</ele><time>2025-05-31T05:48:06Z</time></rtept><rtept lat="45.93447800000061" lon="6.972108000002613"><ele>4011.2</ele><time>2025-05-31T05:48:10Z</time></rtept><rtept lat="45.93443600000296" lon="6.972167999998593"><ele>4005.6</ele><time>2025-05-31T05:49:09Z</time></rtept><rtept lat="45.934475999997574" lon="6.97218100000416"><ele>4008.9</ele><time>2025-05-31T05:49:35Z</time></rtept><rtept lat="45.93443100000084" lon="6.972155000002009"><ele>4006.7</ele><time>2025-05-31T05:50:33Z</time></rtept><rtept lat="45.93447800000061" lon="6.972165000002836"><ele>4008.9</ele><time>2025-05-31T05:51:00Z</time></rtept><rtept lat="45.934475999997574" lon="6.972094999997047"><ele>4011.2</ele><time>2025-05-31T05:51:34Z</time></rtept><rtept lat="45.934510000001836" lon="6.97218100000416"><ele>4010.4</ele><time>2025-05-31T05:53:20Z</time></rtept><rtept lat="45.93444599999967" lon="6.972208999997493"><ele>4006.1</ele><time>2025-05-31T05:53:50Z</time></rtept><rtept lat="45.93454599999836" lon="6.972027999995996"><ele>4015.1</ele><time>2025-05-31T05:54:25Z</time></rtept><rtept lat="45.934461999999314" lon="6.97210699999804"><ele>4009.6</ele><time>2025-05-31T05:54:47Z</time></rtept><rtept lat="45.93444400000172" lon="6.972055000002721"><ele>4010.6</ele><time>2025-05-31T05:54:57Z</time></rtept><rtept lat="45.934554999996976" lon="6.971843999998745"><ele>4020.1</ele><time>2025-05-31T05:55:07Z</time></rtept><rtept lat="45.93439899999774" lon="6.972126999999694"><ele>4005.1</ele><time>2025-05-31T05:55:52Z</time></rtept><rtept lat="45.934505000000115" lon="6.9721249999995285"><ele>4011.6</ele><time>2025-05-31T05:56:33Z</time></rtept><rtept lat="45.934470000000545" lon="6.972161999998096"><ele>4008.9</ele><time>2025-05-31T05:56:48Z</time></rtept><rtept lat="45.9345010000022" lon="6.9722309999993115"><ele>4009.2</ele><time>2025-05-31T05:57:17Z</time></rtept><rtept lat="45.934417999996924" lon="6.972179999999585"><ele>4005.6</ele><time>2025-05-31T05:57:56Z</time></rtept><rtept lat="45.93438499999877" lon="6.97227100000262"><ele>4001.6</ele><time>2025-05-31T05:58:03Z</time></rtept><rtept lat="45.934456999999526" lon="6.972153999997436"><ele>4008.4</ele><time>2025-05-31T05:58:05Z</time></rtept><rtept lat="45.9345010000022" lon="6.972145999996772"><ele>4011.6</ele><time>2025-05-31T05:58:15Z</time></rtept><rtept lat="45.934474000000705" lon="6.972224999998816"><ele>4007.7</ele><time>2025-05-31T05:59:19Z</time></rtept><rtept lat="45.934531999999024" lon="6.972183000004325"><ele>4011.7</ele><time>2025-05-31T06:00:08Z</time></rtept><rtept lat="45.934474000000705" lon="6.9723040000008565"><ele>4005.4</ele><time>2025-05-31T06:01:02Z</time></rtept><rtept lat="45.9344479999975" lon="6.9722519999965575"><ele>4004.9</ele><time>2025-05-31T06:01:17Z</time></rtept><rtept lat="45.934502999998074" lon="6.97220000000124"><ele>4009.2</ele><time>2025-05-31T06:01:55Z</time></rtept><rtept lat="45.93446400000283" lon="6.972181999999751"><ele>4007.3</ele><time>2025-05-31T06:02:20Z</time></rtept><rtept lat="45.93444300000269" lon="6.972259999997219"><ele>4004.9</ele><time>2025-05-31T06:02:43Z</time></rtept><rtept lat="45.934452999998115" lon="6.972212000002232"><ele>4006.1</ele><time>2025-05-31T06:02:56Z</time></rtept><rtept lat="45.93430300000264" lon="6.972153000001844"><ele>4000.4</ele><time>2025-05-31T06:05:07Z</time></rtept><rtept lat="45.93432399999955" lon="6.972108999998205"><ele>4003.1</ele><time>2025-05-31T06:05:24Z</time></rtept><rtept lat="45.93424700000111" lon="6.972161000002505"><ele>3995.8</ele><time>2025-05-31T06:05:37Z</time></rtept><rtept lat="45.934225999999995" lon="6.972098000001787"><ele>3996.1</ele><time>2025-05-31T06:05:50Z</time></rtept><rtept lat="45.9341240000021" lon="6.972090000001125"><ele>3989.6</ele><time>2025-05-31T06:06:08Z</time></rtept><rtept lat="45.934159000001415" lon="6.972075999999967"><ele>3991.8</ele><time>2025-05-31T06:06:13Z</time></rtept><rtept lat="45.93412999999907" lon="6.972143999996607"><ele>3988.5</ele><time>2025-05-31T06:06:35Z</time></rtept><rtept lat="45.93416299999902" lon="6.972157000002175"><ele>3989.6</ele><time>2025-05-31T06:06:58Z</time></rtept><rtept lat="45.93398499999745" lon="6.972135999995946"><ele>3976.9</ele><time>2025-05-31T06:07:56Z</time></rtept><rtept lat="45.93401999999699" lon="6.972104999997874"><ele>3980.5</ele><time>2025-05-31T06:08:12Z</time></rtept><rtept lat="45.933950000000806" lon="6.972122999999363"><ele>3974.1</ele><time>2025-05-31T06:09:03Z</time></rtept><rtept lat="45.933974999998895" lon="6.972163999998262"><ele>3975.8</ele><time>2025-05-31T06:09:42Z</time></rtept><rtept lat="45.933955000002584" lon="6.972114000003109"><ele>3974.1</ele><time>2025-05-31T06:09:57Z</time></rtept><rtept lat="45.9340239999984" lon="6.972126000004103"><ele>3981.9</ele><time>2025-05-31T06:10:15Z</time></rtept><rtept lat="45.93400600000234" lon="6.972188000000247"><ele>3978.4</ele><time>2025-05-31T06:11:57Z</time></rtept><rtept lat="45.93402099999739" lon="6.9721410000008515"><ele>3981.9</ele><time>2025-05-31T06:12:05Z</time></rtept><rtept lat="45.933971000000184" lon="6.972128999999859"><ele>3976.9</ele><time>2025-05-31T06:12:27Z</time></rtept><rtept lat="45.93406700000148" lon="6.972253999996722"><ele>3980.9</ele><time>2025-05-31T06:13:11Z</time></rtept><rtept lat="45.934065000002335" lon="6.972122000003772"><ele>3984.2</ele><time>2025-05-31T06:13:20Z</time></rtept><rtept lat="45.93402799999953" lon="6.972171000003332"><ele>3980.8</ele><time>2025-05-31T06:14:06Z</time></rtept><rtept lat="45.93409300000209" lon="6.972133999995781"><ele>3986.4</ele><time>2025-05-31T06:14:26Z</time></rtept><rtept lat="45.93402199999775" lon="6.972194000000744"><ele>3980.8</ele><time>2025-05-31T06:15:31Z</time></rtept><rtept lat="45.93409799999725" lon="6.9721209999991975"><ele>3986.4</ele><time>2025-05-31T06:16:12Z</time></rtept><rtept lat="45.93403500000076" lon="6.972194000000744"><ele>3980.8</ele><time>2025-05-31T06:16:52Z</time></rtept><rtept lat="45.934066000001934" lon="6.972082999996055"><ele>3985.3</ele><time>2025-05-31T06:18:00Z</time></rtept><rtept lat="45.933978000002384" lon="6.972188999995836"><ele>3975.8</ele><time>2025-05-31T06:19:05Z</time></rtept><rtept lat="45.9340500000005" lon="6.972131999995615"><ele>3984.2</ele><time>2025-05-31T06:19:19Z</time></rtept><rtept lat="45.93389899999951" lon="6.972045999997486"><ele>3970</ele><time>2025-05-31T06:20:51Z</time></rtept><rtept lat="45.93379300000089" lon="6.972094000001456"><ele>3959</ele><time>2025-05-31T06:23:01Z</time></rtept><rtept lat="45.93386599999866" lon="6.9720390000013985"><ele>3966.7</ele><time>2025-05-31T06:23:20Z</time></rtept><rtept lat="45.93380399999907" lon="6.9721000000019515"><ele>3959</ele><time>2025-05-31T06:23:35Z</time></rtept><rtept lat="45.933831000001874" lon="6.972047999997652"><ele>3963.4</ele><time>2025-05-31T06:24:08Z</time></rtept><rtept lat="45.93387199999859" lon="6.9721000000019515"><ele>3969</ele><time>2025-05-31T06:24:27Z</time></rtept><rtept lat="45.93376099999827" lon="6.972018999999745"><ele>3957.9</ele><time>2025-05-31T06:25:19Z</time></rtept><rtept lat="45.93381599999918" lon="6.972010999999083"><ele>3964.3</ele><time>2025-05-31T06:25:34Z</time></rtept><rtept lat="45.93380600000137" lon="6.972088999996551"><ele>3959</ele><time>2025-05-31T06:26:27Z</time></rtept><rtept lat="45.93373000000156" lon="6.972018999999745"><ele>3954.8</ele><time>2025-05-31T06:28:28Z</time></rtept><rtept lat="45.93377099999796" lon="6.972135999995946"><ele>3954.8</ele><time>2025-05-31T06:29:56Z</time></rtept><rtept lat="45.933752000002016" lon="6.972061000003218"><ele>3956.9</ele><time>2025-05-31T06:30:01Z</time></rtept><rtept lat="45.93396999999891" lon="6.972094000001456"><ele>3977.9</ele><time>2025-05-31T06:31:35Z</time></rtept><rtept lat="45.93374700000069" lon="6.972023999995667"><ele>3954.8</ele><time>2025-05-31T06:32:07Z</time></rtept><rtept lat="45.93383299999692" lon="6.971955000003434"><ele>3965.3</ele><time>2025-05-31T06:33:26Z</time></rtept><rtept lat="45.93379499999733" lon="6.9720710000040444"><ele>3959</ele><time>2025-05-31T06:33:34Z</time></rtept><rtept lat="45.933789999999846" lon="6.971986000001507"><ele>3961</ele><time>2025-05-31T06:33:35Z</time></rtept><rtept lat="45.93371199999751" lon="6.972037999996824"><ele>3950.7</ele><time>2025-05-31T06:33:57Z</time></rtept><rtept lat="45.93372800000276" lon="6.972106000002449"><ele>3952.8</ele><time>2025-05-31T06:34:07Z</time></rtept><rtept lat="45.933689999999956" lon="6.972033999996493"><ele>3947.4</ele><time>2025-05-31T06:34:53Z</time></rtept><rtept lat="45.933715000002735" lon="6.97206900000388"><ele>3950.7</ele><time>2025-05-31T06:35:27Z</time></rtept><rtept lat="45.93372599999768" lon="6.971749999999954"><ele>3960.4</ele><time>2025-05-31T06:36:04Z</time></rtept><rtept lat="45.93371399999688" lon="6.971890000002551"><ele>3954.5</ele><time>2025-05-31T06:36:09Z</time></rtept><rtept lat="45.93375100000304" lon="6.971772999997366"><ele>3959.4</ele><time>2025-05-31T06:36:37Z</time></rtept><rtept lat="45.93379699999991" lon="6.9719689999956085"><ele>3962</ele><time>2025-05-31T06:37:37Z</time></rtept><rtept lat="45.93378399999736" lon="6.9717809999980265"><ele>3965.7</ele><time>2025-05-31T06:38:13Z</time></rtept><rtept lat="45.93376900000064" lon="6.972153000001844"><ele>3954.8</ele><time>2025-05-31T06:40:41Z</time></rtept><rtept lat="45.93375300000099" lon="6.972018000004153"><ele>3957.9</ele><time>2025-05-31T06:41:14Z</time></rtept><rtept lat="45.93372800000276" lon="6.972088999996551"><ele>3952.8</ele><time>2025-05-31T06:42:03Z</time></rtept><rtept lat="45.93370399999941" lon="6.972043000001729"><ele>3950.7</ele><time>2025-05-31T06:42:20Z</time></rtept><rtept lat="45.93374299999809" lon="6.9721699999987585"><ele>3950.7</ele><time>2025-05-31T06:46:09Z</time></rtept><rtept lat="45.933712999997226" lon="6.971970999995774"><ele>3952.6</ele><time>2025-05-31T06:50:14Z</time></rtept><rtept lat="45.93375399999994" lon="6.972108999998205"><ele>3955.9</ele><time>2025-05-31T06:51:57Z</time></rtept><rtept lat="45.93361399999736" lon="6.9719490000029385"><ele>3941.8</ele><time>2025-05-31T06:55:59Z</time></rtept><rtept lat="45.933591000002764" lon="6.972000999998255"><ele>3936.9</ele><time>2025-05-31T06:56:58Z</time></rtept><rtept lat="45.93364899999989" lon="6.97203599999666"><ele>3943.8</ele><time>2025-05-31T06:59:18Z</time></rtept><rtept lat="45.93364400000178" lon="6.971986000001507"><ele>3944.8</ele><time>2025-05-31T07:00:05Z</time></rtept><rtept lat="45.93365800000035" lon="6.97204399999732"><ele>3943.8</ele><time>2025-05-31T07:00:28Z</time></rtept><rtept lat="45.93359899999845" lon="6.971974000000514"><ele>3937.9</ele><time>2025-05-31T07:01:35Z</time></rtept><rtept lat="45.9336569999997" lon="6.972069999999471"><ele>3942.8</ele><time>2025-05-31T07:05:46Z</time></rtept><rtept lat="45.93362299999728" lon="6.971967000004427"><ele>3941.8</ele><time>2025-05-31T07:07:03Z</time></rtept><rtept lat="45.93360999999763" lon="6.972041000001563"><ele>3939.9</ele><time>2025-05-31T07:08:35Z</time></rtept><rtept lat="45.933626000001055" lon="6.971915999995717"><ele>3942.8</ele><time>2025-05-31T07:09:49Z</time></rtept><rtept lat="45.93360699999923" lon="6.972004000002996"><ele>3940.9</ele><time>2025-05-31T07:10:14Z</time></rtept><rtept lat="45.933689999999956" lon="6.972059999998643"><ele>3947.4</ele><time>2025-05-31T07:10:55Z</time></rtept><rtept lat="45.933651000001504" lon="6.971963000004096"><ele>3945.7</ele><time>2025-05-31T07:11:31Z</time></rtept><rtept lat="45.9336610000023" lon="6.972012000003656"><ele>3944.8</ele><time>2025-05-31T07:11:45Z</time></rtept><rtept lat="45.93358100000185" lon="6.971965000004262"><ele>3937.9</ele><time>2025-05-31T07:12:27Z</time></rtept><rtept lat="45.93361600000023" lon="6.972037999996824"><ele>3939.9</ele><time>2025-05-31T07:12:43Z</time></rtept><rtept lat="45.93357299999735" lon="6.971941999997867"><ele>3937.9</ele><time>2025-05-31T07:12:58Z</time></rtept><rtept lat="45.93351900000232" lon="6.971947999998364"><ele>3930.5</ele><time>2025-05-31T07:16:16Z</time></rtept><rtept lat="45.933559000002305" lon="6.971996000002334"><ele>3933.1</ele><time>2025-05-31T07:16:58Z</time></rtept><rtept lat="45.9334939999986" lon="6.971560000002206"><ele>3935.9</ele><time>2025-05-31T07:17:22Z</time></rtept><rtept lat="45.93354299999825" lon="6.9719689999956085"><ele>3934.1</ele><time>2025-05-31T07:17:28Z</time></rtept><rtept lat="45.933597000001186" lon="6.971998000002499"><ele>3936.9</ele><time>2025-05-31T07:18:31Z</time></rtept><rtept lat="45.93353700000023" lon="6.97197600000068"><ele>3930.5</ele><time>2025-05-31T07:19:29Z</time></rtept><rtept lat="45.933591999998356" lon="6.971982999996767"><ele>3937.9</ele><time>2025-05-31T07:19:59Z</time></rtept><rtept lat="45.933540000002466" lon="6.971912999999961"><ele>3931.5</ele><time>2025-05-31T07:20:19Z</time></rtept><rtept lat="45.9335490000019" lon="6.971970999995774"><ele>3934.1</ele><time>2025-05-31T07:21:42Z</time></rtept><rtept lat="45.933507999997545" lon="6.971968000000018"><ele>3927.3</ele><time>2025-05-31T07:22:19Z</time></rtept><rtept lat="45.933509000000925" lon="6.9719080000040385"><ele>3928.2</ele><time>2025-05-31T07:23:31Z</time></rtept><rtept lat="45.933273000000895" lon="6.972016000003987"><ele>3897.1</ele><time>2025-05-31T07:25:12Z</time></rtept><rtept lat="45.93323000000072" lon="6.971951000003103"><ele>3894.6</ele><time>2025-05-31T07:25:26Z</time></rtept><rtept lat="45.933260000000445" lon="6.972033999996493"><ele>3896.1</ele><time>2025-05-31T07:25:37Z</time></rtept><rtept lat="45.93335400000194" lon="6.972049000002225"><ele>3907.4</ele><time>2025-05-31T07:26:08Z</time></rtept><rtept lat="45.933283000001126" lon="6.972008000003327"><ele>3900.7</ele><time>2025-05-31T07:26:22Z</time></rtept><rtept lat="45.93333400000034" lon="6.972128000004267"><ele>3905.3</ele><time>2025-05-31T07:27:42Z</time></rtept><rtept lat="45.933369999998035" lon="6.972037000001234"><ele>3911.4</ele><time>2025-05-31T07:27:58Z</time></rtept><rtept lat="45.933307999999954" lon="6.9719900000018376"><ele>3904.4</ele><time>2025-05-31T07:28:18Z</time></rtept><rtept lat="45.9332940000005" lon="6.972045000001894"><ele>3899.7</ele><time>2025-05-31T07:28:59Z</time></rtept><rtept lat="45.93326800000011" lon="6.9719729999959394"><ele>3898</ele><time>2025-05-31T07:29:09Z</time></rtept><rtept lat="45.933322000002164" lon="6.9720800000002985"><ele>3902.4</ele><time>2025-05-31T07:32:17Z</time></rtept><rtept lat="45.933270000003006" lon="6.972002999998421"><ele>3897.1</ele><time>2025-05-31T07:38:07Z</time></rtept><rtept lat="45.933295000001465" lon="6.972157999997765"><ele>3896.6</ele><time>2025-05-31T07:39:36Z</time></rtept><rtept lat="45.93329699999711" lon="6.9720470000020605"><ele>3899.7</ele><time>2025-05-31T07:39:59Z</time></rtept><rtept lat="45.93337400000257" lon="6.972208999997493"><ele>3907.2</ele><time>2025-05-31T07:43:16Z</time></rtept><rtept lat="45.93332899999879" lon="6.97220000000124"><ele>3899.3</ele><time>2025-05-31T07:43:29Z</time></rtept><rtept lat="45.93337900000006" lon="6.9721559999976"><ele>3908.3</ele><time>2025-05-31T07:43:38Z</time></rtept><rtept lat="45.93338899999989" lon="6.972218999998319"><ele>3907.2</ele><time>2025-05-31T07:43:42Z</time></rtept><rtept lat="45.93331299999713" lon="6.972088000000959"><ele>3902.4</ele><time>2025-05-31T07:46:03Z</time></rtept><rtept lat="45.933303000002326" lon="6.972143000001016"><ele>3897.6</ele><time>2025-05-31T07:46:11Z</time></rtept><rtept lat="45.93334400000205" lon="6.972061999998809"><ele>3907.4</ele><time>2025-05-31T07:47:47Z</time></rtept><rtept lat="45.93328699999944" lon="6.971974000000514"><ele>3901.6</ele><time>2025-05-31T07:47:58Z</time></rtept><rtept lat="45.933129999996936" lon="6.9720100000034915"><ele>3882.8</ele><time>2025-05-31T07:49:14Z</time></rtept><rtept lat="45.933168000002354" lon="6.972029999996162"><ele>3885.5</ele><time>2025-05-31T07:49:15Z</time></rtept><rtept lat="45.933070000003084" lon="6.971974999996105"><ele>3876</ele><time>2025-05-31T07:50:04Z</time></rtept><rtept lat="45.93299900000105" lon="6.9720470000020605"><ele>3861.7</ele><time>2025-05-31T07:50:39Z</time></rtept><rtept lat="45.932983999998214" lon="6.971992999997595"><ele>3862.7</ele><time>2025-05-31T07:50:40Z</time></rtept><rtept lat="45.93305699999874" lon="6.972155000002009"><ele>3867.9</ele><time>2025-05-31T07:52:00Z</time></rtept><rtept lat="45.93304199999912" lon="6.97206599999914"><ele>3869.9</ele><time>2025-05-31T07:53:12Z</time></rtept><rtept lat="45.93305300000259" lon="6.9721370000005205"><ele>3867.9</ele><time>2025-05-31T07:54:08Z</time></rtept><rtept lat="45.93300800000077" lon="6.972043000001729"><ele>3865.8</ele><time>2025-05-31T07:54:25Z</time></rtept><rtept lat="45.93303399999806" lon="6.972096000001622"><ele>3864.8</ele><time>2025-05-31T07:54:32Z</time></rtept><rtept lat="45.93298999999982" lon="6.972090000001125"><ele>3860.6</ele><time>2025-05-31T07:54:59Z</time></rtept><rtept lat="45.93307399999799" lon="6.972190000000412"><ele>3870.9</ele><time>2025-05-31T07:56:02Z</time></rtept><rtept lat="45.93301300000002" lon="6.972112999998536"><ele>3863.7</ele><time>2025-05-31T07:56:45Z</time></rtept><rtept lat="45.93307600000162" lon="6.972116999998867"><ele>3872</ele><time>2025-05-31T07:58:00Z</time></rtept><rtept lat="45.93304299999838" lon="6.972045000001894"><ele>3869.9</ele><time>2025-05-31T07:58:13Z</time></rtept><rtept lat="45.93297700000173" lon="6.972100999997543"><ele>3860.6</ele><time>2025-05-31T07:58:49Z</time></rtept><rtept lat="45.933021999997464" lon="6.972157999997765"><ele>3862.7</ele><time>2025-05-31T07:59:25Z</time></rtept><rtept lat="45.93294900000083" lon="6.971996999997924"><ele>3858.7</ele><time>2025-05-31T08:02:03Z</time></rtept><rtept lat="45.932982999997876" lon="6.972147000001347"><ele>3859.6</ele><time>2025-05-31T08:03:16Z</time></rtept><rtept lat="45.9330390000012" lon="6.972067000003715"><ele>3869.9</ele><time>2025-05-31T08:03:48Z</time></rtept><rtept lat="45.933037000002514" lon="6.9721370000005205"><ele>3867.9</ele><time>2025-05-31T08:04:14Z</time></rtept><rtept lat="45.93298000000303" lon="6.972057999998478"><ele>3861.7</ele><time>2025-05-31T08:04:22Z</time></rtept><rtept lat="45.93290999999991" lon="6.972082000000463"><ele>3849.3</ele><time>2025-05-31T08:05:16Z</time></rtept><rtept lat="45.93275599999939" lon="6.972232000003885"><ele>3825.8</ele><time>2025-05-31T08:06:34Z</time></rtept><rtept lat="45.9327850000017" lon="6.97227100000262"><ele>3829.3</ele><time>2025-05-31T08:06:50Z</time></rtept><rtept lat="45.93270699999786" lon="6.972283999999204"><ele>3820.5</ele><time>2025-05-31T08:08:15Z</time></rtept><rtept lat="45.93278899999845" lon="6.972275999998541"><ele>3829.3</ele><time>2025-05-31T08:09:03Z</time></rtept><rtept lat="45.9327480000008" lon="6.972236000004218"><ele>3825.8</ele><time>2025-05-31T08:10:31Z</time></rtept><rtept lat="45.93278000000066" lon="6.972304999996449"><ele>3828.3</ele><time>2025-05-31T08:11:26Z</time></rtept><rtept lat="45.93274599999788" lon="6.972247999996227"><ele>3824.8</ele><time>2025-05-31T08:11:58Z</time></rtept><rtept lat="45.9328100000001" lon="6.972273000002785"><ele>3833.7</ele><time>2025-05-31T08:12:41Z</time></rtept><rtept lat="45.93278399999775" lon="6.972234000004051"><ele>3830.3</ele><time>2025-05-31T08:13:16Z</time></rtept><rtept lat="45.93248299999746" lon="6.972277000003116"><ele>3789.2</ele><time>2025-05-31T08:14:45Z</time></rtept><rtept lat="45.932411000001764" lon="6.972220999998485"><ele>3782.4</ele><time>2025-05-31T08:24:11Z</time></rtept><rtept lat="45.932255000000794" lon="6.972387999998823"><ele>3756</ele><time>2025-05-31T08:25:38Z</time></rtept><rtept lat="45.9321589999993" lon="6.972381000002734"><ele>3743.9</ele><time>2025-05-31T08:26:30Z</time></rtept><rtept lat="45.93217099999919" lon="6.972493999998605"><ele>3746</ele><time>2025-05-31T08:26:53Z</time></rtept><rtept lat="45.9321650000027" lon="6.972422000001633"><ele>3742.9</ele><time>2025-05-31T08:27:09Z</time></rtept><rtept lat="45.93213299999789" lon="6.97251499999585"><ele>3737.1</ele><time>2025-05-31T08:27:48Z</time></rtept><rtept lat="45.93212600000027" lon="6.9724349999982165"><ele>3739</ele><time>2025-05-31T08:27:55Z</time></rtept><rtept lat="45.93218099999817" lon="6.972461000000368"><ele>3746</ele><time>2025-05-31T08:28:00Z</time></rtept><rtept lat="45.93205500000178" lon="6.972344999999756"><ele>3733.6</ele><time>2025-05-31T08:28:56Z</time></rtept><rtept lat="45.9321409999977" lon="6.97246900000103"><ele>3742</ele><time>2025-05-31T08:29:33Z</time></rtept><rtept lat="45.93211700000106" lon="6.972560999999656"><ele>3736.1</ele><time>2025-05-31T08:30:06Z</time></rtept><rtept lat="45.932098999998345" lon="6.972375000002238"><ele>3736.3</ele><time>2025-05-31T08:32:22Z</time></rtept><rtept lat="45.932182000000466" lon="6.97245400000428"><ele>3747</ele><time>2025-05-31T08:35:28Z</time></rtept><rtept lat="45.932096999996986" lon="6.972342999999592"><ele>3737.2</ele><time>2025-05-31T08:36:37Z</time></rtept><rtept lat="45.9321300000008" lon="6.972316999997441"><ele>3741.9</ele><time>2025-05-31T08:36:54Z</time></rtept><rtept lat="45.93211700000106" lon="6.972424000001799"><ele>3739</ele><time>2025-05-31T08:38:03Z</time></rtept><rtept lat="45.93218099999817" lon="6.972446999999209"><ele>3747</ele><time>2025-05-31T08:38:22Z</time></rtept><rtept lat="45.93192499999773" lon="6.972465000000698"><ele>3711.1</ele><time>2025-05-31T08:39:42Z</time></rtept><rtept lat="45.93191799999883" lon="6.972520000000756"><ele>3710.1</ele><time>2025-05-31T08:39:58Z</time></rtept><rtept lat="45.93182899999985" lon="6.972512000000094"><ele>3699.3</ele><time>2025-05-31T08:40:29Z</time></rtept><rtept lat="45.9318490000006" lon="6.97256700000015"><ele>3701.4</ele><time>2025-05-31T08:40:56Z</time></rtept><rtept lat="45.93180600000221" lon="6.972501999999267"><ele>3696.4</ele><time>2025-05-31T08:41:52Z</time></rtept><rtept lat="45.93175399999993" lon="6.9725500000032365"><ele>3686.8</ele><time>2025-05-31T08:46:50Z</time></rtept><rtept lat="45.93179900000078" lon="6.972593000002301"><ele>3688.6</ele><time>2025-05-31T08:48:10Z</time></rtept><rtept lat="45.93159399999885" lon="6.9726200000000444"><ele>3666.4</ele><time>2025-05-31T08:50:19Z</time></rtept><rtept lat="45.931634999999886" lon="6.972701999997841"><ele>3670.4</ele><time>2025-05-31T08:51:57Z</time></rtept><rtept lat="45.93156599999949" lon="6.972634999996792"><ele>3662.6</ele><time>2025-05-31T08:52:52Z</time></rtept><rtept lat="45.93161000000288" lon="6.9726890000012585"><ele>3667.2</ele><time>2025-05-31T08:52:56Z</time></rtept><rtept lat="45.9315360000019" lon="6.972725999999826"><ele>3657.7</ele><time>2025-05-31T08:55:30Z</time></rtept><rtept lat="45.93150300000076" lon="6.9726750000001"><ele>3655.7</ele><time>2025-05-31T08:56:22Z</time></rtept><rtept lat="45.93162200000285" lon="6.9727099999985045"><ele>3667.2</ele><time>2025-05-31T08:59:28Z</time></rtept><rtept lat="45.9316040000019" lon="6.972638000001532"><ele>3668.3</ele><time>2025-05-31T09:02:54Z</time></rtept><rtept lat="45.93159099999761" lon="6.972740999996576"><ele>3663.4</ele><time>2025-05-31T09:03:22Z</time></rtept><rtept lat="45.93158999999713" lon="6.972683999996352"><ele>3664.3</ele><time>2025-05-31T09:03:32Z</time></rtept><rtept lat="45.931504000002775" lon="6.972673999995527"><ele>3655.7</ele><time>2025-05-31T09:03:54Z</time></rtept><rtept lat="45.93131900000208" lon="6.972778000004127"><ele>3632.2</ele><time>2025-05-31T09:05:03Z</time></rtept><rtept lat="45.93120999999877" lon="6.972705000002582"><ele>3620.4</ele><time>2025-05-31T09:06:21Z</time></rtept><rtept lat="45.93124500000019" lon="6.972736000000654"><ele>3626</ele><time>2025-05-31T09:07:05Z</time></rtept><rtept lat="45.93117799999902" lon="6.972780000004294"><ele>3615.1</ele><time>2025-05-31T09:07:18Z</time></rtept><rtept lat="45.93123199999923" lon="6.972707000002747"><ele>3623.7</ele><time>2025-05-31T09:10:19Z</time></rtept><rtept lat="45.931215999998614" lon="6.972780999999885"><ele>3621.8</ele><time>2025-05-31T09:10:55Z</time></rtept><rtept lat="45.93126099999867" lon="6.972791000000711"><ele>3625.1</ele><time>2025-05-31T09:11:02Z</time></rtept><rtept lat="45.931189999998736" lon="6.972750999997403"><ele>3619.4</ele><time>2025-05-31T09:11:15Z</time></rtept><rtept lat="45.93118700000065" lon="6.972836999995532"><ele>3617.6</ele><time>2025-05-31T09:12:10Z</time></rtept><rtept lat="45.93116999999776" lon="6.972770999999057"><ele>3615.1</ele><time>2025-05-31T09:12:19Z</time></rtept><rtept lat="45.93122199999783" lon="6.972736999996245"><ele>3622.7</ele><time>2025-05-31T09:13:28Z</time></rtept><rtept lat="45.931156000002176" lon="6.972807000002034"><ele>3614.2</ele><time>2025-05-31T09:14:17Z</time></rtept><rtept lat="45.9312039999983" lon="6.972734999996079"><ele>3619.4</ele><time>2025-05-31T09:14:52Z</time></rtept><rtept lat="45.931236000001775" lon="6.972744000001316"><ele>3622.7</ele><time>2025-05-31T09:15:02Z</time></rtept><rtept lat="45.93115300000221" lon="6.972811000002365"><ele>3610.5</ele><time>2025-05-31T09:15:46Z</time></rtept><rtept lat="45.93119700000207" lon="6.972772999999221"><ele>3618.5</ele><time>2025-05-31T09:15:53Z</time></rtept><rtept lat="45.931159000002" lon="6.972766000003136"><ele>3615.1</ele><time>2025-05-31T09:16:32Z</time></rtept><rtept lat="45.93116999999776" lon="6.972821000003192"><ele>3614.2</ele><time>2025-05-31T09:17:11Z</time></rtept><rtept lat="45.93120600000057" lon="6.972752000001977"><ele>3619.4</ele><time>2025-05-31T09:17:42Z</time></rtept><rtept lat="45.93112499999887" lon="6.97277200000363"><ele>3611.4</ele><time>2025-05-31T09:19:27Z</time></rtept><rtept lat="45.931223999999474" lon="6.9727580000024725"><ele>3621.8</ele><time>2025-05-31T09:20:38Z</time></rtept><rtept lat="45.9310450000016" lon="6.9728199999986185"><ele>3598.3</ele><time>2025-05-31T09:21:11Z</time></rtept><rtept lat="45.931027999998975" lon="6.972941000004134"><ele>3591.4</ele><time>2025-05-31T09:21:36Z</time></rtept><rtept lat="45.93096999999739" lon="6.9729460000000545"><ele>3584.2</ele><time>2025-05-31T09:22:19Z</time></rtept><rtept lat="45.93098699999908" lon="6.973023000001932"><ele>3585.4</ele><time>2025-05-31T09:22:22Z</time></rtept><rtept lat="45.93095700000069" lon="6.972937999999394"><ele>3584.2</ele><time>2025-05-31T09:23:06Z</time></rtept><rtept lat="45.930920999998705" lon="6.972978000002701"><ele>3579.3</ele><time>2025-05-31T09:23:35Z</time></rtept><rtept lat="45.93095700000069" lon="6.972901999996417"><ele>3585.3</ele><time>2025-05-31T09:26:02Z</time></rtept><rtept lat="45.930908999997" lon="6.973013999996697"><ele>3574</ele><time>2025-05-31T09:28:53Z</time></rtept><rtept lat="45.93094500000052" lon="6.9730079999962005"><ele>3579.3</ele><time>2025-05-31T09:29:12Z</time></rtept><rtept lat="45.930924999998695" lon="6.9729500000003855"><ele>3580.5</ele><time>2025-05-31T09:29:41Z</time></rtept><rtept lat="45.93095300000303" lon="6.973011999996531"><ele>3583</ele><time>2025-05-31T09:30:13Z</time></rtept><rtept lat="45.93090500000213" lon="6.9729339999990625"><ele>3576.5</ele><time>2025-05-31T09:30:37Z</time></rtept><rtept lat="45.93096099999809" lon="6.972984000003199"><ele>3583</ele><time>2025-05-31T09:31:01Z</time></rtept><rtept lat="45.930965000001436" lon="6.972895999995921"><ele>3585.3</ele><time>2025-05-31T09:31:25Z</time></rtept><rtept lat="45.930918999998596" lon="6.97290300000099"><ele>3581.7</ele><time>2025-05-31T09:32:05Z</time></rtept><rtept lat="45.93094600000012" lon="6.972994000004025"><ele>3583</ele><time>2025-05-31T09:33:35Z</time></rtept><rtept lat="45.93087200000045" lon="6.972946999995646"><ele>3572.2</ele><time>2025-05-31T09:34:14Z</time></rtept><rtept lat="45.93069899999696" lon="6.97298800000353"><ele>3546.3</ele><time>2025-05-31T09:35:16Z</time></rtept><rtept lat="45.93062599999794" lon="6.973023000001932"><ele>3537.3</ele><time>2025-05-31T09:35:33Z</time></rtept><rtept lat="45.930685000001176" lon="6.973068999996753"><ele>3543.5</ele><time>2025-05-31T09:37:50Z</time></rtept><rtept lat="45.93064500000267" lon="6.973025000002099"><ele>3537.3</ele><time>2025-05-31T09:42:01Z</time></rtept><rtept lat="45.930523000000875" lon="6.973088000002817"><ele>3520.9</ele><time>2025-05-31T09:42:45Z</time></rtept><rtept lat="45.930556999998146" lon="6.973147000003205"><ele>3522</ele><time>2025-05-31T09:44:08Z</time></rtept><rtept lat="45.93050799999696" lon="6.973090999998574"><ele>3520.9</ele><time>2025-05-31T09:44:22Z</time></rtept><rtept lat="45.93055200000242" lon="6.973135000002212"><ele>3523.2</ele><time>2025-05-31T09:44:55Z</time></rtept><rtept lat="45.93050700000194" lon="6.973161000004363"><ele>3518.4</ele><time>2025-05-31T09:45:42Z</time></rtept><rtept lat="45.93052400000187" lon="6.9730569999957615"><ele>3520.9</ele><time>2025-05-31T09:46:32Z</time></rtept><rtept lat="45.93061300000181" lon="6.973076000001823"><ele>3532.1</ele><time>2025-05-31T09:47:20Z</time></rtept><rtept lat="45.93054199999716" lon="6.973125000001385"><ele>3523.2</ele><time>2025-05-31T09:48:05Z</time></rtept><rtept lat="45.93052400000187" lon="6.973078999997581"><ele>3520.9</ele><time>2025-05-31T09:48:46Z</time></rtept><rtept lat="45.93058300000109" lon="6.9731599999997895"><ele>3525.7</ele><time>2025-05-31T09:55:45Z</time></rtept><rtept lat="45.93052799999924" lon="6.973100999999401"><ele>3523.2</ele><time>2025-05-31T09:57:35Z</time></rtept><rtept lat="45.93017999999785" lon="6.9733430000014485"><ele>3485.3</ele><time>2025-05-31T10:05:54Z</time></rtept><rtept lat="45.93026700000141" lon="6.973373999999521"><ele>3491.9</ele><time>2025-05-31T10:12:30Z</time></rtept><rtept lat="45.93004299999947" lon="6.9734169999985856"><ele>3474.6</ele><time>2025-05-31T10:14:18Z</time></rtept><rtept lat="45.9298559999981" lon="6.973335999996379"><ele>3463.1</ele><time>2025-05-31T10:15:14Z</time></rtept><rtept lat="45.929152999997086" lon="6.972664999999274"><ele>3418.9</ele><time>2025-05-31T10:17:27Z</time></rtept><rtept lat="45.92871800000012" lon="6.971798999999516"><ele>3403.8</ele><time>2025-05-31T10:19:22Z</time></rtept><rtept lat="45.9280870000008" lon="6.971232999997621"><ele>3369.3</ele><time>2025-05-31T10:21:35Z</time></rtept><rtept lat="45.92790500000055" lon="6.970918000003008"><ele>3361.3</ele><time>2025-05-31T10:22:14Z</time></rtept><rtept lat="45.92740099999935" lon="6.969565000003398"><ele>3348.4</ele><time>2025-05-31T10:25:18Z</time></rtept><rtept lat="45.927230000000094" lon="6.9694140000043845"><ele>3337.9</ele><time>2025-05-31T10:26:36Z</time></rtept><rtept lat="45.92704199999892" lon="6.969488000001521"><ele>3323.5</ele><time>2025-05-31T10:30:31Z</time></rtept><rtept lat="45.92708299999694" lon="6.969465999999701"><ele>3325.6</ele><time>2025-05-31T10:37:15Z</time></rtept><rtept lat="45.92702799999856" lon="6.9694430000022916"><ele>3321.8</ele><time>2025-05-31T10:39:27Z</time></rtept><rtept lat="45.92708899999957" lon="6.969455999998876"><ele>3325.6</ele><time>2025-05-31T10:42:15Z</time></rtept><rtept lat="45.92702200000184" lon="6.969469000004441"><ele>3321.3</ele><time>2025-05-31T10:43:31Z</time></rtept><rtept lat="45.92691800000077" lon="6.969249000004212"><ele>3316.7</ele><time>2025-05-31T10:44:07Z</time></rtept><rtept lat="45.92687900000166" lon="6.9692580000004645"><ele>3311.6</ele><time>2025-05-31T10:44:09Z</time></rtept><rtept lat="45.926870999998954" lon="6.96941700000014"><ele>3309.7</ele><time>2025-05-31T10:44:13Z</time></rtept><rtept lat="45.92675400000141" lon="6.969421000000471"><ele>3301</ele><time>2025-05-31T10:44:17Z</time></rtept><rtept lat="45.926625999999544" lon="6.969539000001247"><ele>3290.2</ele><time>2025-05-31T10:44:19Z</time></rtept><rtept lat="45.92655899999869" lon="6.969484999996781"><ele>3286.4</ele><time>2025-05-31T10:44:20Z</time></rtept><rtept lat="45.926540999998" lon="6.969374000001076"><ele>3284.9</ele><time>2025-05-31T10:44:22Z</time></rtept><rtept lat="45.9263149999978" lon="6.969396000002896"><ele>3268.3</ele><time>2025-05-31T10:44:28Z</time></rtept><rtept lat="45.92609499999935" lon="6.969180999998588"><ele>3255.2</ele><time>2025-05-31T10:44:35Z</time></rtept><rtept lat="45.925982000002534" lon="6.969227999997983"><ele>3247.5</ele><time>2025-05-31T10:44:38Z</time></rtept><rtept lat="45.92584599999955" lon="6.969105999996878"><ele>3240.3</ele><time>2025-05-31T10:44:42Z</time></rtept><rtept lat="45.92561800000095" lon="6.968612000000937"><ele>3226.3</ele><time>2025-05-31T10:44:54Z</time></rtept><rtept lat="45.92549600000223" lon="6.968500999996248"><ele>3218.1</ele><time>2025-05-31T10:44:56Z</time></rtept><rtept lat="45.9253809999976" lon="6.968510999997074"><ele>3210.6</ele><time>2025-05-31T10:46:18Z</time></rtept><rtept lat="45.925335000000246" lon="6.968420999998614"><ele>3209.4</ele><time>2025-05-31T10:46:31Z</time></rtept><rtept lat="45.92530200000269" lon="6.9685590000010444"><ele>3205.3</ele><time>2025-05-31T10:46:40Z</time></rtept><rtept lat="45.925219999999285" lon="6.968565000001542"><ele>3201.7</ele><time>2025-05-31T10:46:56Z</time></rtept><rtept lat="45.924990000000804" lon="6.968343999996738"><ele>3189.8</ele><time>2025-05-31T10:47:01Z</time></rtept><rtept lat="45.92485299999964" lon="6.968343999996738"><ele>3182.7</ele><time>2025-05-31T10:47:03Z</time></rtept><rtept lat="45.924820000002796" lon="6.968019000001299"><ele>3182</ele><time>2025-05-31T10:47:18Z</time></rtept><rtept lat="45.92461000000088" lon="6.967897999995784"><ele>3172.1</ele><time>2025-05-31T10:47:22Z</time></rtept><rtept lat="45.92457300000163" lon="6.96766400000338"><ele>3171.2</ele><time>2025-05-31T10:47:25Z</time></rtept><rtept lat="45.924459999997566" lon="6.967662000003215"><ele>3165.3</ele><time>2025-05-31T10:47:27Z</time></rtept><rtept lat="45.924425999999755" lon="6.9675899999972595"><ele>3163.9</ele><time>2025-05-31T10:47:28Z</time></rtept><rtept lat="45.92451499999879" lon="6.967285999999066"><ele>3169.8</ele><time>2025-05-31T10:47:32Z</time></rtept><rtept lat="45.92435199999974" lon="6.967198999996363"><ele>3161.5</ele><time>2025-05-31T10:47:34Z</time></rtept><rtept lat="45.92429800000008" lon="6.967035999996357"><ele>3159.4</ele><time>2025-05-31T10:47:36Z</time></rtept><rtept lat="45.92416999999881" lon="6.967004000002694"><ele>3153.7</ele><time>2025-05-31T10:47:38Z</time></rtept><rtept lat="45.92413000000107" lon="6.966764999996401"><ele>3151.9</ele><time>2025-05-31T10:47:41Z</time></rtept><rtept lat="45.92399100000071" lon="6.966719999997172"><ele>3146.6</ele><time>2025-05-31T10:47:43Z</time></rtept><rtept lat="45.923940999997086" lon="6.966548000000912"><ele>3145.2</ele><time>2025-05-31T10:47:45Z</time></rtept><rtept lat="45.92374599999792" lon="6.96662900000312"><ele>3134.6</ele><time>2025-05-31T10:47:48Z</time></rtept><rtept lat="45.923676000001024" lon="6.966556999997165"><ele>3132.8</ele><time>2025-05-31T10:47:49Z</time></rtept><rtept lat="45.92365500000284" lon="6.966313999999525"><ele>3135</ele><time>2025-05-31T10:48:31Z</time></rtept><rtept lat="45.9235429999992" lon="6.96625200000338"><ele>3131.4</ele><time>2025-05-31T10:48:53Z</time></rtept><rtept lat="45.92349700000247" lon="6.965981999999016"><ele>3133.4</ele><time>2025-05-31T10:48:58Z</time></rtept><rtept lat="45.92345099999886" lon="6.965961000001771"><ele>3132</ele><time>2025-05-31T10:49:00Z</time></rtept><rtept lat="45.92337199999878" lon="6.966114000000951"><ele>3126.3</ele><time>2025-05-31T10:49:02Z</time></rtept><rtept lat="45.923317000001646" lon="6.966120999997038"><ele>3123.5</ele><time>2025-05-31T10:49:03Z</time></rtept><rtept lat="45.92320599999837" lon="6.965720999999889"><ele>3126.5</ele><time>2025-05-31T10:49:07Z</time></rtept><rtept lat="45.92304300000259" lon="6.965606000003853"><ele>3122.4</ele><time>2025-05-31T10:49:10Z</time></rtept><rtept lat="45.922984999999926" lon="6.965460999996352"><ele>3122</ele><time>2025-05-31T10:49:12Z</time></rtept><rtept lat="45.92253099999692" lon="6.965502000004234"><ele>3097.4</ele><time>2025-05-31T10:49:16Z</time></rtept><rtept lat="45.9220380000001" lon="6.964934999997764"><ele>3084.3</ele><time>2025-05-31T10:49:21Z</time></rtept><rtept lat="45.92168499999937" lon="6.964657000001722"><ele>3077.2</ele><time>2025-05-31T10:49:27Z</time></rtept><rtept lat="45.921606000002896" lon="6.964681999999297"><ele>3074.6</ele><time>2025-05-31T10:49:29Z</time></rtept><rtept lat="45.92157299999931" lon="6.964852000004375"><ele>3068.6</ele><time>2025-05-31T10:49:32Z</time></rtept><rtept lat="45.92162399999887" lon="6.965293999996015"><ele>3057.6</ele><time>2025-05-31T10:49:38Z</time></rtept><rtept lat="45.921515999998036" lon="6.9653580000013084"><ele>3053.4</ele><time>2025-05-31T10:49:40Z</time></rtept><rtept lat="45.921355000000034" lon="6.965268000002848"><ele>3049.8</ele><time>2025-05-31T10:49:43Z</time></rtept><rtept lat="45.92132300000148" lon="6.965341999999985"><ele>3046.5</ele><time>2025-05-31T10:49:44Z</time></rtept><rtept lat="45.92136400000197" lon="6.965555000004125"><ele>3043.9</ele><time>2025-05-31T10:49:46Z</time></rtept><rtept lat="45.92147300000039" lon="6.96563599999735"><ele>3045.7</ele><time>2025-05-31T10:50:00Z</time></rtept><rtept lat="45.92145499999921" lon="6.96567699999625"><ele>3044.9</ele><time>2025-05-31T10:50:02Z</time></rtept><rtept lat="45.92130100000156" lon="6.96568400000132"><ele>3038.1</ele><time>2025-05-31T10:50:05Z</time></rtept><rtept lat="45.92091199999956" lon="6.965409999996624"><ele>3031.6</ele><time>2025-05-31T10:50:22Z</time></rtept><rtept lat="45.920873000002445" lon="6.965480999998005"><ele>3028.7</ele><time>2025-05-31T10:50:28Z</time></rtept><rtept lat="45.921002000003114" lon="6.966189000002663"><ele>3018.5</ele><time>2025-05-31T10:50:35Z</time></rtept><rtept lat="45.92117700000003" lon="6.966664999997114"><ele>3016.6</ele><time>2025-05-31T10:50:44Z</time></rtept><rtept lat="45.921126999997426" lon="6.966790999998552"><ele>3014.3</ele><time>2025-05-31T10:50:46Z</time></rtept><rtept lat="45.92096499999718" lon="6.966703999995848"><ele>3009.1</ele><time>2025-05-31T10:50:50Z</time></rtept><rtept lat="45.92106400000284" lon="6.9670710000037435"><ele>3006.3</ele><time>2025-05-31T10:52:03Z</time></rtept><rtept lat="45.920910000001044" lon="6.967059999998343"><ele>3001.2</ele><time>2025-05-31T10:52:28Z</time></rtept><rtept lat="45.92085299999974" lon="6.967143000000714"><ele>2997.9</ele><time>2025-05-31T10:52:53Z</time></rtept><rtept lat="45.92090599999747" lon="6.967149999996803"><ele>3000</ele><time>2025-05-31T10:55:26Z</time></rtept><rtept lat="45.92081100000175" lon="6.967212999997521"><ele>2996.2</ele><time>2025-05-31T10:55:31Z</time></rtept><rtept lat="45.92065800000145" lon="6.967122999999061"><ele>2992.7</ele><time>2025-05-31T10:55:36Z</time></rtept><rtept lat="45.920666000000296" lon="6.967389999998684"><ele>2989.2</ele><time>2025-05-31T10:55:45Z</time></rtept><rtept lat="45.92059999999884" lon="6.967485000002051"><ele>2985.5</ele><time>2025-05-31T10:55:47Z</time></rtept><rtept lat="45.92045500000211" lon="6.967326000002375"><ele>2982.3</ele><time>2025-05-31T10:55:50Z</time></rtept><rtept lat="45.92034599999724" lon="6.9673080000008865"><ele>2978.4</ele><time>2025-05-31T10:55:52Z</time></rtept><rtept lat="45.92006799999689" lon="6.967624000000071"><ele>2964.6</ele><time>2025-05-31T10:55:56Z</time></rtept><rtept lat="45.919974000001105" lon="6.967642999997152"><ele>2961</ele><time>2025-05-31T10:55:57Z</time></rtept><rtept lat="45.919806000000364" lon="6.967357000000447"><ele>2959</ele><time>2025-05-31T10:56:01Z</time></rtept><rtept lat="45.91954500000293" lon="6.967134000004462"><ele>2956.9</ele><time>2025-05-31T10:56:05Z</time></rtept><rtept lat="45.917729999997135" lon="6.966971000004455"><ele>2914.8</ele><time>2025-05-31T10:56:30Z</time></rtept><rtept lat="45.916579999999726" lon="6.967190000000111"><ele>2881.4</ele><time>2025-05-31T10:57:20Z</time></rtept><rtept lat="45.91614499999838" lon="6.966943000002139"><ele>2874.8</ele><time>2025-05-31T10:57:51Z</time></rtept><rtept lat="45.91590399999836" lon="6.96689099999784"><ele>2873.1</ele><time>2025-05-31T10:58:04Z</time></rtept><rtept lat="45.91576800000129" lon="6.966772999997064"><ele>2878.6</ele><time>2025-05-31T10:58:17Z</time></rtept><rtept lat="45.91561999999908" lon="6.966760999996072"><ele>2876.3</ele><time>2025-05-31T10:58:20Z</time></rtept><rtept lat="45.91535100000306" lon="6.9669319999967385"><ele>2865</ele><time>2025-05-31T10:58:28Z</time></rtept><rtept lat="45.91527400000206" lon="6.96690600000357"><ele>2866.4</ele><time>2025-05-31T10:58:31Z</time></rtept><rtept lat="45.91530600000186" lon="6.966900000003075"><ele>2866.5</ele><time>2025-05-31T10:58:37Z</time></rtept><rtept lat="45.915290000001136" lon="6.9672710000023175"><ele>2851.9</ele><time>2025-05-31T10:58:59Z</time></rtept><rtept lat="45.91489499999713" lon="6.9674180000009995"><ele>2841.2</ele><time>2025-05-31T10:59:07Z</time></rtept><rtept lat="45.91479999999689" lon="6.9673859999983545"><ele>2841.4</ele><time>2025-05-31T10:59:09Z</time></rtept><rtept lat="45.91469299999929" lon="6.967232000003584"><ele>2844.4</ele><time>2025-05-31T10:59:15Z</time></rtept><rtept lat="45.91345700000116" lon="6.966902999998832"><ele>2791.7</ele><time>2025-05-31T11:00:19Z</time></rtept><rtept lat="45.91342000000145" lon="6.966776999997394"><ele>2792.4</ele><time>2025-05-31T11:00:26Z</time></rtept><rtept lat="45.91333899999708" lon="6.9667800000021325"><ele>2789.4</ele><time>2025-05-31T11:00:47Z</time></rtept><rtept lat="45.91334600000306" lon="6.966698999999926"><ele>2791.9</ele><time>2025-05-31T11:01:01Z</time></rtept><rtept lat="45.9132870000019" lon="6.966762999996236"><ele>2786.1</ele><time>2025-05-31T11:02:05Z</time></rtept><rtept lat="45.91303200000161" lon="6.966662000001357"><ele>2773.8</ele><time>2025-05-31T11:02:16Z</time></rtept><rtept lat="45.9130420000009" lon="6.966607000001301"><ele>2776.3</ele><time>2025-05-31T11:02:31Z</time></rtept><rtept lat="45.91298799999959" lon="6.966713999996676"><ele>2770.5</ele><time>2025-05-31T11:02:55Z</time></rtept><rtept lat="45.91271999999864" lon="6.966550000001078"><ele>2754</ele><time>2025-05-31T11:03:23Z</time></rtept><rtept lat="45.91281099999733" lon="6.966874000000925"><ele>2756.6</ele><time>2025-05-31T11:03:45Z</time></rtept><rtept lat="45.91277600000251" lon="6.96695799999889"><ele>2753.7</ele><time>2025-05-31T11:03:47Z</time></rtept><rtept lat="45.912563000002194" lon="6.967069000003577"><ele>2742.1</ele><time>2025-05-31T11:03:51Z</time></rtept><rtept lat="45.912351000000456" lon="6.9669849999966305"><ele>2733.7</ele><time>2025-05-31T11:03:55Z</time></rtept><rtept lat="45.91223000000278" lon="6.967249999996088"><ele>2727.5</ele><time>2025-05-31T11:04:20Z</time></rtept><rtept lat="45.91209400000204" lon="6.9671819999994495"><ele>2723.1</ele><time>2025-05-31T11:04:23Z</time></rtept><rtept lat="45.91194200000206" lon="6.9672510000006636"><ele>2717.8</ele><time>2025-05-31T11:04:27Z</time></rtept><rtept lat="45.911847999997036" lon="6.967031000000435"><ele>2717.5</ele><time>2025-05-31T11:04:33Z</time></rtept><rtept lat="45.911700999999795" lon="6.966998000002197"><ele>2713.8</ele><time>2025-05-31T11:04:44Z</time></rtept><rtept lat="45.91116499999967" lon="6.966242000002554"><ele>2704.8</ele><time>2025-05-31T11:04:57Z</time></rtept><rtept lat="45.91098299999925" lon="6.966187999998088"><ele>2698.2</ele><time>2025-05-31T11:05:01Z</time></rtept><rtept lat="45.91083799999774" lon="6.965926000003369"><ele>2695.1</ele><time>2025-05-31T11:05:05Z</time></rtept><rtept lat="45.910686000001846" lon="6.965896000000887"><ele>2687.1</ele><time>2025-05-31T11:05:09Z</time></rtept><rtept lat="45.9106800000003" lon="6.965830000004411"><ele>2688.7</ele><time>2025-05-31T11:05:11Z</time></rtept><rtept lat="45.91060599999864" lon="6.965873000003476"><ele>2683.5</ele><time>2025-05-31T11:05:18Z</time></rtept><rtept lat="45.9106300000017" lon="6.9659380000043605"><ele>2683.5</ele><time>2025-05-31T11:05:20Z</time></rtept><rtept lat="45.91065000000154" lon="6.9658770000038075"><ele>2686.5</ele><time>2025-05-31T11:05:32Z</time></rtept><rtept lat="45.91062699999799" lon="6.965965000002102"><ele>2683.5</ele><time>2025-05-31T11:05:43Z</time></rtept><rtept lat="45.910600000000926" lon="6.9659340000040295"><ele>2682</ele><time>2025-05-31T11:06:49Z</time></rtept><rtept lat="45.91063800000251" lon="6.96593099999929"><ele>2684.3</ele><time>2025-05-31T11:07:11Z</time></rtept><rtept lat="45.910622999996946" lon="6.965981999999016"><ele>2682.8</ele><time>2025-05-31T11:07:20Z</time></rtept><rtept lat="45.910556000002146" lon="6.9659960000001755"><ele>2679.7</ele><time>2025-05-31T11:07:32Z</time></rtept><rtept lat="45.91053699999844" lon="6.965871999998902"><ele>2680.5</ele><time>2025-05-31T11:07:40Z</time></rtept><rtept lat="45.910313999997896" lon="6.965507999995746"><ele>2676.7</ele><time>2025-05-31T11:08:26Z</time></rtept><rtept lat="45.91019900000117" lon="6.965507000000156"><ele>2675.8</ele><time>2025-05-31T11:08:54Z</time></rtept><rtept lat="45.910091000001415" lon="6.965337000004062"><ele>2675.4</ele><time>2025-05-31T11:09:43Z</time></rtept></rte></gpx>