<?xml version="1.0" encoding="UTF-8"?>
<gpx version="1.1" creator="AlpHD-batch" xmlns="http://www.topografix.com/GPX/1/1">
  <trk>
    <name>Voie normale et traversée</name>
    <trkseg>
      <trkpt lat="45.9102990" lon="6.9655200"><ele>2698.1</ele></trkpt>
      <trkpt lat="45.9103448" lon="6.9659021"><ele>2697.0</ele></trkpt>
      <trkpt lat="45.9103273" lon="6.9661248"><ele>2694.7</ele></trkpt>
      <trkpt lat="45.9103045" lon="6.9662887"><ele>2691.9</ele></trkpt>
      <trkpt lat="45.9102866" lon="6.9663481"><ele>2689.7</ele></trkpt>
      <trkpt lat="45.9102814" lon="6.9663587"><ele>2685.1</ele></trkpt>
      <trkpt lat="45.9101241" lon="6.9666737"><ele>2680.9</ele></trkpt>
      <trkpt lat="45.9099367" lon="6.9667638"><ele>2677.0</ele></trkpt>
      <trkpt lat="45.9099066" lon="6.9667385"><ele>2672.7</ele></trkpt>
      <trkpt lat="45.9096738" lon="6.9665424"><ele>2668.3</ele></trkpt>
      <trkpt lat="45.9095774" lon="6.9665132"><ele>2662.6</ele></trkpt>
      <trkpt lat="45.9095500" lon="6.9664947"><ele>2657.1</ele></trkpt>
      <trkpt lat="45.9093059" lon="6.9663295"><ele>2652.1</ele></trkpt>
      <trkpt lat="45.9092529" lon="6.9663224"><ele>2647.3</ele></trkpt>
      <trkpt lat="45.9089843" lon="6.9662863"><ele>2643.5</ele></trkpt>
      <trkpt lat="45.9088016" lon="6.9661227"><ele>2640.3</ele></trkpt>
      <trkpt lat="45.9086587" lon="6.9660687"><ele>2637.5</ele></trkpt>
      <trkpt lat="45.9129517" lon="6.9799121"><ele>2635.9</ele></trkpt>
      <trkpt lat="45.9130081" lon="6.9802913"><ele>2635.3</ele></trkpt>
      <trkpt lat="45.9130151" lon="6.9804388"><ele>2636.4</ele></trkpt>
      <trkpt lat="45.9130334" lon="6.9808257"><ele>2638.9</ele></trkpt>
      <trkpt lat="45.9131638" lon="6.9810189"><ele>2642.3</ele></trkpt>
      <trkpt lat="45.9131769" lon="6.9813252"><ele>2646.2</ele></trkpt>
      <trkpt lat="45.9133260" lon="6.9816154"><ele>2649.8</ele></trkpt>
      <trkpt lat="45.9133818" lon="6.9818852"><ele>2653.3</ele></trkpt>
      <trkpt lat="45.9134586" lon="6.9822569"><ele>2656.3</ele></trkpt>
      <trkpt lat="45.9134993" lon="6.9824785"><ele>2659.6</ele></trkpt>
      <trkpt lat="45.9135000" lon="6.9826692"><ele>2662.8</ele></trkpt>
      <trkpt lat="45.9134955" lon="6.9827551"><ele>2665.7</ele></trkpt>
      <trkpt lat="45.9134953" lon="6.9827620"><ele>2668.6</ele></trkpt>
      <trkpt lat="45.9134787" lon="6.9831491"><ele>2671.3</ele></trkpt>
      <trkpt lat="45.9134622" lon="6.9835361"><ele>2673.6</ele></trkpt>
      <trkpt lat="45.9134887" lon="6.9836311"><ele>2676.1</ele></trkpt>
      <trkpt lat="45.9135892" lon="6.9839910"><ele>2679.0</ele></trkpt>
      <trkpt lat="45.9135890" lon="6.9840553"><ele>2682.4</ele></trkpt>
      <trkpt lat="45.9135923" lon="6.9841862"><ele>2685.4</ele></trkpt>
      <trkpt lat="45.9136217" lon="6.9843048"><ele>2688.3</ele></trkpt>
      <trkpt lat="45.9137121" lon="6.9846702"><ele>2691.4</ele></trkpt>
      <trkpt lat="45.9137052" lon="6.9850495"><ele>2694.2</ele></trkpt>
      <trkpt lat="45.9137284" lon="6.9851440"><ele>2697.2</ele></trkpt>
      <trkpt lat="45.9138183" lon="6.9855096"><ele>2700.1</ele></trkpt>
      <trkpt lat="45.9139082" lon="6.9858752"><ele>2703.2</ele></trkpt>
      <trkpt lat="45.9139193" lon="6.9860430"><ele>2706.1</ele></trkpt>
      <trkpt lat="45.9139669" lon="6.9862425"><ele>2708.6</ele></trkpt>
      <trkpt lat="45.9139804" lon="6.9863938"><ele>2711.3</ele></trkpt>
      <trkpt lat="45.9140147" lon="6.9867784"><ele>2713.9</ele></trkpt>
      <trkpt lat="45.9140580" lon="6.9870425"><ele>2716.1</ele></trkpt>
      <trkpt lat="45.9140953" lon="6.9871681"><ele>2718.4</ele></trkpt>
      <trkpt lat="45.9141022" lon="6.9873154"><ele>2720.4</ele></trkpt>
      <trkpt lat="45.9141333" lon="6.9875080"><ele>2722.1</ele></trkpt>
      <trkpt lat="45.9141394" lon="6.9875493"><ele>2723.6</ele></trkpt>
      <trkpt lat="45.9141310" lon="6.9876834"><ele>2724.9</ele></trkpt>
      <trkpt lat="45.9142295" lon="6.9877817"><ele>2726.3</ele></trkpt>
      <trkpt lat="45.9142337" lon="6.9880286"><ele>2727.3</ele></trkpt>
      <trkpt lat="45.9143532" lon="6.9882834"><ele>2728.2</ele></trkpt>
      <trkpt lat="45.9143659" lon="6.9886326"><ele>2729.0</ele></trkpt>
      <trkpt lat="45.9144330" lon="6.9889191"><ele>2729.5</ele></trkpt>
      <trkpt lat="45.9144363" lon="6.9889279"><ele>2730.1</ele></trkpt>
      <trkpt lat="45.9145626" lon="6.9892706"><ele>2730.9</ele></trkpt>
      <trkpt lat="45.9145901" lon="6.9893996"><ele>2731.6</ele></trkpt>
      <trkpt lat="45.9146161" lon="6.9894749"><ele>2732.1</ele></trkpt>
      <trkpt lat="45.9146247" lon="6.9895181"><ele>2732.5</ele></trkpt>
      <trkpt lat="45.9146995" lon="6.9898907"><ele>2732.8</ele></trkpt>
      <trkpt lat="45.9148166" lon="6.9900223"><ele>2733.1</ele></trkpt>
      <trkpt lat="45.9150292" lon="6.9902611"><ele>2733.4</ele></trkpt>
      <trkpt lat="45.9151403" lon="6.9904384"><ele>2733.7</ele></trkpt>
      <trkpt lat="45.9151782" lon="6.9904248"><ele>2733.9</ele></trkpt>
      <trkpt lat="45.9154399" lon="6.9903306"><ele>2733.8</ele></trkpt>
      <trkpt lat="45.9155160" lon="6.9903512"><ele>2733.7</ele></trkpt>
      <trkpt lat="45.9155343" lon="6.9903526"><ele>2733.5</ele></trkpt>
      <trkpt lat="45.9158038" lon="6.9903731"><ele>2733.4</ele></trkpt>
      <trkpt lat="45.9160732" lon="6.9903936"><ele>2733.4</ele></trkpt>
      <trkpt lat="45.9163426" lon="6.9904141"><ele>2733.7</ele></trkpt>
      <trkpt lat="45.9164420" lon="6.9904324"><ele>2734.3</ele></trkpt>
      <trkpt lat="45.9165361" lon="6.9905067"><ele>2735.1</ele></trkpt>
      <trkpt lat="45.9165782" lon="6.9905253"><ele>2736.2</ele></trkpt>
      <trkpt lat="45.9168361" lon="6.9906392"><ele>2737.6</ele></trkpt>
      <trkpt lat="45.9168927" lon="6.9908957"><ele>2739.9</ele></trkpt>
      <trkpt lat="45.9169133" lon="6.9909616"><ele>2742.9</ele></trkpt>
      <trkpt lat="45.9169487" lon="6.9910465"><ele>2746.2</ele></trkpt>
      <trkpt lat="45.9169686" lon="6.9911143"><ele>2750.0</ele></trkpt>
      <trkpt lat="45.9170736" lon="6.9914715"><ele>2754.1</ele></trkpt>
      <trkpt lat="45.9172207" lon="6.9916597"><ele>2757.9</ele></trkpt>
      <trkpt lat="45.9172865" lon="6.9918074"><ele>2762.8</ele></trkpt>
      <trkpt lat="45.9174192" lon="6.9919527"><ele>2768.9</ele></trkpt>
      <trkpt lat="45.9174966" lon="6.9921392"><ele>2775.8</ele></trkpt>
      <trkpt lat="45.9175050" lon="6.9921482"><ele>2782.1</ele></trkpt>
      <trkpt lat="45.9177216" lon="6.9923796"><ele>2787.9</ele></trkpt>
      <trkpt lat="45.9179381" lon="6.9926109"><ele>2793.4</ele></trkpt>
      <trkpt lat="45.9179470" lon="6.9929933"><ele>2799.1</ele></trkpt>
      <trkpt lat="45.9179925" lon="6.9929717"><ele>2805.2</ele></trkpt>
      <trkpt lat="45.9180243" lon="6.9930412"><ele>2811.4</ele></trkpt>
      <trkpt lat="45.9179578" lon="6.9930725"><ele>2816.4</ele></trkpt>
      <trkpt lat="45.9182134" lon="6.9930288"><ele>2821.5</ele></trkpt>
      <trkpt lat="45.9183750" lon="6.9933199"><ele>2826.4</ele></trkpt>
      <trkpt lat="45.9183822" lon="6.9933426"><ele>2831.1</ele></trkpt>
      <trkpt lat="45.9183950" lon="6.9933625"><ele>2835.9</ele></trkpt>
      <trkpt lat="45.9185787" lon="6.9936464"><ele>2841.5</ele></trkpt>
      <trkpt lat="45.9186986" lon="6.9934609"><ele>2847.1</ele></trkpt>
      <trkpt lat="45.9187163" lon="6.9934627"><ele>2852.2</ele></trkpt>
      <trkpt lat="45.9187473" lon="6.9934700"><ele>2857.6</ele></trkpt>
      <trkpt lat="45.9190136" lon="6.9935326"><ele>2863.4</ele></trkpt>
      <trkpt lat="45.9191134" lon="6.9935670"><ele>2868.3</ele></trkpt>
      <trkpt lat="45.9191855" lon="6.9936900"><ele>2873.2</ele></trkpt>
      <trkpt lat="45.9192490" lon="6.9937593"><ele>2878.2</ele></trkpt>
      <trkpt lat="45.9193254" lon="6.9938048"><ele>2884.5</ele></trkpt>
      <trkpt lat="45.9194124" lon="6.9937937"><ele>2891.3</ele></trkpt>
      <trkpt lat="45.9195602" lon="6.9937324"><ele>2897.5</ele></trkpt>
      <trkpt lat="45.9196062" lon="6.9937158"><ele>2903.6</ele></trkpt>
      <trkpt lat="45.9198680" lon="6.9936217"><ele>2909.6</ele></trkpt>
      <trkpt lat="45.9200955" lon="6.9936241"><ele>2916.7</ele></trkpt>
      <trkpt lat="45.9201058" lon="6.9936076"><ele>2923.9</ele></trkpt>
      <trkpt lat="45.9201826" lon="6.9935331"><ele>2931.2</ele></trkpt>
      <trkpt lat="45.9201945" lon="6.9935178"><ele>2938.7</ele></trkpt>
      <trkpt lat="45.9203960" lon="6.9932599"><ele>2946.0</ele></trkpt>
      <trkpt lat="45.9205019" lon="6.9931715"><ele>2953.1</ele></trkpt>
      <trkpt lat="45.9205845" lon="6.9929729"><ele>2960.7</ele></trkpt>
      <trkpt lat="45.9206281" lon="6.9928805"><ele>2967.8</ele></trkpt>
      <trkpt lat="45.9207797" lon="6.9925596"><ele>2975.7</ele></trkpt>
      <trkpt lat="45.9209312" lon="6.9922387"><ele>2982.2</ele></trkpt>
      <trkpt lat="45.9210543" lon="6.9920920"><ele>2988.9</ele></trkpt>
      <trkpt lat="45.9210858" lon="6.9920306"><ele>2995.2</ele></trkpt>
      <trkpt lat="45.9212463" lon="6.9917189"><ele>3001.4</ele></trkpt>
      <trkpt lat="45.9213264" lon="6.9916090"><ele>3007.1</ele></trkpt>
      <trkpt lat="45.9215216" lon="6.9913413"><ele>3012.4</ele></trkpt>
      <trkpt lat="45.9216075" lon="6.9911889"><ele>3017.5</ele></trkpt>
      <trkpt lat="45.9216835" lon="6.9911083"><ele>3022.6</ele></trkpt>
      <trkpt lat="45.9219005" lon="6.9908779"><ele>3028.2</ele></trkpt>
      <trkpt lat="45.9220325" lon="6.9908059"><ele>3033.9</ele></trkpt>
      <trkpt lat="45.9220721" lon="6.9908671"><ele>3040.0</ele></trkpt>
      <trkpt lat="45.9220927" lon="6.9909027"><ele>3045.6</ele></trkpt>
      <trkpt lat="45.9222651" lon="6.9912011"><ele>3052.2</ele></trkpt>
      <trkpt lat="45.9223836" lon="6.9913121"><ele>3058.2</ele></trkpt>
      <trkpt lat="45.9225025" lon="6.9915522"><ele>3063.9</ele></trkpt>
      <trkpt lat="45.9225303" lon="6.9915849"><ele>3069.7</ele></trkpt>
      <trkpt lat="45.9227393" lon="6.9918303"><ele>3076.2</ele></trkpt>
      <trkpt lat="45.9227822" lon="6.9919234"><ele>3082.0</ele></trkpt>
      <trkpt lat="45.9228319" lon="6.9920237"><ele>3088.9</ele></trkpt>
      <trkpt lat="45.9228991" lon="6.9920861"><ele>3096.0</ele></trkpt>
      <trkpt lat="45.9230040" lon="6.9920479"><ele>3103.4</ele></trkpt>
      <trkpt lat="45.9230552" lon="6.9918835"><ele>3110.5</ele></trkpt>
      <trkpt lat="45.9231655" lon="6.9915295"><ele>3118.2</ele></trkpt>
      <trkpt lat="45.9232758" lon="6.9911756"><ele>3125.6</ele></trkpt>
      <trkpt lat="45.9233726" lon="6.9912122"><ele>3133.1</ele></trkpt>
      <trkpt lat="45.9236335" lon="6.9913110"><ele>3141.4</ele></trkpt>
      <trkpt lat="45.9238944" lon="6.9914098"><ele>3149.6</ele></trkpt>
      <trkpt lat="45.9238631" lon="6.9913965"><ele>3157.2</ele></trkpt>
      <trkpt lat="45.9238924" lon="6.9912465"><ele>3164.0</ele></trkpt>
      <trkpt lat="45.9239653" lon="6.9908731"><ele>3171.1</ele></trkpt>
      <trkpt lat="45.9239983" lon="6.9906518"><ele>3177.4</ele></trkpt>
      <trkpt lat="45.9242215" lon="6.9908042"><ele>3184.3</ele></trkpt>
      <trkpt lat="45.9244652" lon="6.9909706"><ele>3191.2</ele></trkpt>
      <trkpt lat="45.9244743" lon="6.9909221"><ele>3198.4</ele></trkpt>
      <trkpt lat="45.9244851" lon="6.9908644"><ele>3204.6</ele></trkpt>
      <trkpt lat="45.9245552" lon="6.9904899"><ele>3210.5</ele></trkpt>
      <trkpt lat="45.9245656" lon="6.9904899"><ele>3216.8</ele></trkpt>
      <trkpt lat="45.9248354" lon="6.9904887"><ele>3223.3</ele></trkpt>
      <trkpt lat="45.9249482" lon="6.9905597"><ele>3229.8</ele></trkpt>
      <trkpt lat="45.9250029" lon="6.9906438"><ele>3238.6</ele></trkpt>
      <trkpt lat="45.9251870" lon="6.9909274"><ele>3246.3</ele></trkpt>
      <trkpt lat="45.9250495" lon="6.9910735"><ele>3256.3</ele></trkpt>
      <trkpt lat="45.9250780" lon="6.9911355"><ele>3265.5</ele></trkpt>
      <trkpt lat="45.9252268" lon="6.9914591"><ele>3274.4</ele></trkpt>
      <trkpt lat="45.9252357" lon="6.9915296"><ele>3284.2</ele></trkpt>
      <trkpt lat="45.9252838" lon="6.9919112"><ele>3294.2</ele></trkpt>
      <trkpt lat="45.9253032" lon="6.9919331"><ele>3304.6</ele></trkpt>
      <trkpt lat="45.9253549" lon="6.9920094"><ele>3316.0</ele></trkpt>
      <trkpt lat="45.9255432" lon="6.9922871"><ele>3326.3</ele></trkpt>
      <trkpt lat="45.9257255" lon="6.9924888"><ele>3337.1</ele></trkpt>
      <trkpt lat="45.9259393" lon="6.9927253"><ele>3347.9</ele></trkpt>
      <trkpt lat="45.9261531" lon="6.9929619"><ele>3360.8</ele></trkpt>
      <trkpt lat="45.9263670" lon="6.9931984"><ele>3374.0</ele></trkpt>
      <trkpt lat="45.9264685" lon="6.9932574"><ele>3387.6</ele></trkpt>
      <trkpt lat="45.9267186" lon="6.9934028"><ele>3400.9</ele></trkpt>
      <trkpt lat="45.9269687" lon="6.9935482"><ele>3414.9</ele></trkpt>
      <trkpt lat="45.9270234" lon="6.9936478"><ele>3427.7</ele></trkpt>
      <trkpt lat="45.9271907" lon="6.9939521"><ele>3440.5</ele></trkpt>
      <trkpt lat="45.9272238" lon="6.9941048"><ele>3454.1</ele></trkpt>
      <trkpt lat="45.9273039" lon="6.9944752"><ele>3467.2</ele></trkpt>
      <trkpt lat="45.9273184" lon="6.9946656"><ele>3479.4</ele></trkpt>
      <trkpt lat="45.9273996" lon="6.9948918"><ele>3492.6</ele></trkpt>
      <trkpt lat="45.9274929" lon="6.9952242"><ele>3504.4</ele></trkpt>
      <trkpt lat="45.9275939" lon="6.9955839"><ele>3515.3</ele></trkpt>
      <trkpt lat="45.9277097" lon="6.9958506"><ele>3525.3</ele></trkpt>
      <trkpt lat="45.9278527" lon="6.9961795"><ele>3535.0</ele></trkpt>
      <trkpt lat="45.9279233" lon="6.9962720"><ele>3543.4</ele></trkpt>
      <trkpt lat="45.9279270" lon="6.9962774"><ele>3551.6</ele></trkpt>
      <trkpt lat="45.9281139" lon="6.9965571"><ele>3559.0</ele></trkpt>
      <trkpt lat="45.9281208" lon="6.9965796"><ele>3565.1</ele></trkpt>
      <trkpt lat="45.9281270" lon="6.9966030"><ele>3570.2</ele></trkpt>
      <trkpt lat="45.9282236" lon="6.9969652"><ele>3575.0</ele></trkpt>
      <trkpt lat="45.9283838" lon="6.9971724"><ele>3580.5</ele></trkpt>
      <trkpt lat="45.9283593" lon="6.9970810"><ele>3585.0</ele></trkpt>
      <trkpt lat="45.9283775" lon="6.9973906"><ele>3590.0</ele></trkpt>
      <trkpt lat="45.9283893" lon="6.9974409"><ele>3595.0</ele></trkpt>
      <trkpt lat="45.9285129" lon="6.9976039"><ele>3601.5</ele></trkpt>
      <trkpt lat="45.9285250" lon="6.9976334"><ele>3608.6</ele></trkpt>
      <trkpt lat="45.9285516" lon="6.9977522"><ele>3616.8</ele></trkpt>
      <trkpt lat="45.9285516" lon="6.9977535"><ele>3627.9</ele></trkpt>
      <trkpt lat="45.9284689" lon="6.9979648"><ele>3640.6</ele></trkpt>
      <trkpt lat="45.9284282" lon="6.9982040"><ele>3653.3</ele></trkpt>
      <trkpt lat="45.9284409" lon="6.9983235"><ele>3667.9</ele></trkpt>
      <trkpt lat="45.9284818" lon="6.9987069"><ele>3684.0</ele></trkpt>
      <trkpt lat="45.9283819" lon="6.9989929"><ele>3700.3</ele></trkpt>
      <trkpt lat="45.9283282" lon="6.9990880"><ele>3714.9</ele></trkpt>
      <trkpt lat="45.9281581" lon="6.9993890"><ele>3728.8</ele></trkpt>
      <trkpt lat="45.9280421" lon="6.9997401"><ele>3742.0</ele></trkpt>
      <trkpt lat="45.9280429" lon="6.9998126"><ele>3753.3</ele></trkpt>
      <trkpt lat="45.9280473" lon="7.0002003"><ele>3764.6</ele></trkpt>
      <trkpt lat="45.9280500" lon="7.0005098"><ele>3778.5</ele></trkpt>
      <trkpt lat="45.9280441" lon="7.0005936"><ele>3790.5</ele></trkpt>
      <trkpt lat="45.9280168" lon="7.0009794"><ele>3800.9</ele></trkpt>
      <trkpt lat="45.9279415" lon="7.0011139"><ele>3810.9</ele></trkpt>
      <trkpt lat="45.9278406" lon="7.0014020"><ele>3819.6</ele></trkpt>
      <trkpt lat="45.9278941" lon="7.0016208"><ele>3827.9</ele></trkpt>
      <trkpt lat="45.9278562" lon="7.0018446"><ele>3835.9</ele></trkpt>
      <trkpt lat="45.9278422" lon="7.0019542"><ele>3842.7</ele></trkpt>
      <trkpt lat="45.9277932" lon="7.0023353"><ele>3848.3</ele></trkpt>
      <trkpt lat="45.9277191" lon="7.0025091"><ele>3849.4</ele></trkpt>
      <trkpt lat="45.9277105" lon="7.0025323"><ele>3850.5</ele></trkpt>
      <trkpt lat="45.9275902" lon="7.0028652"><ele>3851.3</ele></trkpt>
      <trkpt lat="45.9274608" lon="7.0032034"><ele>3852.4</ele></trkpt>
    </trkseg>
  </trk>
</gpx>