<?xml version="1.0" encoding="UTF-8"?>
<gpx version="1.1" creator="AlpHD-batch" xmlns="http://www.topografix.com/GPX/1/1">
  <trk>
    <name>Voie Contamine - Labrunie (face E)</name>
    <trkseg>
      <trkpt lat="45.9315290" lon="6.9200962"><ele>1758.5</ele></trkpt>
      <trkpt lat="45.9315040" lon="6.9201082"><ele>1758.4</ele></trkpt>
      <trkpt lat="45.9312479" lon="6.9202304"><ele>1758.2</ele></trkpt>
      <trkpt lat="45.9311222" lon="6.9202598"><ele>1757.1</ele></trkpt>
      <trkpt lat="45.9310254" lon="6.9203302"><ele>1756.3</ele></trkpt>
      <trkpt lat="45.9307826" lon="6.9205051"><ele>1755.4</ele></trkpt>
      <trkpt lat="45.9307842" lon="6.9205091"><ele>1754.9</ele></trkpt>
      <trkpt lat="45.9309033" lon="6.9206441"><ele>1754.7</ele></trkpt>
      <trkpt lat="45.9307193" lon="6.9207599"><ele>1754.3</ele></trkpt>
      <trkpt lat="45.9306053" lon="6.9208583"><ele>1753.9</ele></trkpt>
      <trkpt lat="45.9304762" lon="6.9208888"><ele>1753.6</ele></trkpt>
      <trkpt lat="45.9303216" lon="6.9210226"><ele>1753.2</ele></trkpt>
      <trkpt lat="45.9302718" lon="6.9210929"><ele>1752.9</ele></trkpt>
      <trkpt lat="45.9302679" lon="6.9211205"><ele>1752.3</ele></trkpt>
      <trkpt lat="45.9302509" lon="6.9211720"><ele>1751.7</ele></trkpt>
      <trkpt lat="45.9302530" lon="6.9212226"><ele>1750.7</ele></trkpt>
      <trkpt lat="45.9302686" lon="6.9216095"><ele>1749.7</ele></trkpt>
      <trkpt lat="45.9302987" lon="6.9217450"><ele>1749.1</ele></trkpt>
      <trkpt lat="45.9302830" lon="6.9217814"><ele>1748.8</ele></trkpt>
      <trkpt lat="45.9302771" lon="6.9217853"><ele>1749.0</ele></trkpt>
      <trkpt lat="45.9300325" lon="6.9219488"><ele>1750.2</ele></trkpt>
      <trkpt lat="45.9297879" lon="6.9221124"><ele>1752.9</ele></trkpt>
      <trkpt lat="45.9295999" lon="6.9221916"><ele>1756.1</ele></trkpt>
      <trkpt lat="45.9294169" lon="6.9222963"><ele>1760.1</ele></trkpt>
      <trkpt lat="45.9291650" lon="6.9221868"><ele>1764.3</ele></trkpt>
      <trkpt lat="45.9290033" lon="6.9222235"><ele>1768.4</ele></trkpt>
      <trkpt lat="45.9289322" lon="6.9223035"><ele>1772.2</ele></trkpt>
      <trkpt lat="45.9287202" lon="6.9225548"><ele>1775.8</ele></trkpt>
      <trkpt lat="45.9286400" lon="6.9226902"><ele>1779.1</ele></trkpt>
      <trkpt lat="45.9285569" lon="6.9227706"><ele>1781.5</ele></trkpt>
      <trkpt lat="45.9285710" lon="6.9229704"><ele>1783.9</ele></trkpt>
      <trkpt lat="45.9285087" lon="6.9230347"><ele>1786.3</ele></trkpt>
      <trkpt lat="45.9284211" lon="6.9230738"><ele>1788.1</ele></trkpt>
      <trkpt lat="45.9283976" lon="6.9230890"><ele>1789.8</ele></trkpt>
      <trkpt lat="45.9281515" lon="6.9232480"><ele>1791.3</ele></trkpt>
      <trkpt lat="45.9279702" lon="6.9232363"><ele>1793.2</ele></trkpt>
      <trkpt lat="45.9278794" lon="6.9232731"><ele>1795.0</ele></trkpt>
      <trkpt lat="45.9277894" lon="6.9232561"><ele>1796.8</ele></trkpt>
      <trkpt lat="45.9276830" lon="6.9233189"><ele>1798.7</ele></trkpt>
      <trkpt lat="45.9274335" lon="6.9234663"><ele>1800.3</ele></trkpt>
      <trkpt lat="45.9273321" lon="6.9234990"><ele>1801.5</ele></trkpt>
      <trkpt lat="45.9270689" lon="6.9235840"><ele>1802.6</ele></trkpt>
      <trkpt lat="45.9268239" lon="6.9235340"><ele>1803.8</ele></trkpt>
      <trkpt lat="45.9267658" lon="6.9236545"><ele>1805.0</ele></trkpt>
      <trkpt lat="45.9267635" lon="6.9236583"><ele>1806.2</ele></trkpt>
      <trkpt lat="45.9265880" lon="6.9239529"><ele>1807.4</ele></trkpt>
      <trkpt lat="45.9264929" lon="6.9240407"><ele>1808.5</ele></trkpt>
      <trkpt lat="45.9262659" lon="6.9242504"><ele>1809.8</ele></trkpt>
      <trkpt lat="45.9261321" lon="6.9243116"><ele>1811.0</ele></trkpt>
      <trkpt lat="45.9260855" lon="6.9243604"><ele>1812.5</ele></trkpt>
      <trkpt lat="45.9260540" lon="6.9243744"><ele>1813.2</ele></trkpt>
      <trkpt lat="45.9257963" lon="6.9244890"><ele>1814.0</ele></trkpt>
      <trkpt lat="45.9256302" lon="6.9245594"><ele>1814.5</ele></trkpt>
      <trkpt lat="45.9253714" lon="6.9246692"><ele>1814.8</ele></trkpt>
      <trkpt lat="45.9251563" lon="6.9246374"><ele>1815.0</ele></trkpt>
      <trkpt lat="45.9251002" lon="6.9246442"><ele>1815.1</ele></trkpt>
      <trkpt lat="45.9248314" lon="6.9246771"><ele>1815.1</ele></trkpt>
      <trkpt lat="45.9245625" lon="6.9247099"><ele>1815.4</ele></trkpt>
      <trkpt lat="45.9242937" lon="6.9247427"><ele>1815.5</ele></trkpt>
      <trkpt lat="45.9240249" lon="6.9247755"><ele>1816.8</ele></trkpt>
      <trkpt lat="45.9239169" lon="6.9248086"><ele>1818.4</ele></trkpt>
      <trkpt lat="45.9238322" lon="6.9248138"><ele>1820.7</ele></trkpt>
      <trkpt lat="45.9238268" lon="6.9248148"><ele>1823.2</ele></trkpt>
      <trkpt lat="45.9235593" lon="6.9248650"><ele>1826.6</ele></trkpt>
      <trkpt lat="45.9235173" lon="6.9249031"><ele>1830.7</ele></trkpt>
      <trkpt lat="45.9232892" lon="6.9251102"><ele>1834.9</ele></trkpt>
      <trkpt lat="45.9232564" lon="6.9251150"><ele>1839.2</ele></trkpt>
      <trkpt lat="45.9229879" lon="6.9251538"><ele>1844.1</ele></trkpt>
      <trkpt lat="45.9228162" lon="6.9252969"><ele>1848.8</ele></trkpt>
      <trkpt lat="45.9226565" lon="6.9253602"><ele>1854.1</ele></trkpt>
      <trkpt lat="45.9225143" lon="6.9254665"><ele>1858.6</ele></trkpt>
      <trkpt lat="45.9222750" lon="6.9256456"><ele>1863.5</ele></trkpt>
      <trkpt lat="45.9220357" lon="6.9258246"><ele>1868.0</ele></trkpt>
      <trkpt lat="45.9217963" lon="6.9260036"><ele>1872.3</ele></trkpt>
      <trkpt lat="45.9217657" lon="6.9260443"><ele>1876.3</ele></trkpt>
      <trkpt lat="45.9215673" lon="6.9263071"><ele>1880.2</ele></trkpt>
      <trkpt lat="45.9213689" lon="6.9265699"><ele>1883.5</ele></trkpt>
      <trkpt lat="45.9211705" lon="6.9268327"><ele>1886.5</ele></trkpt>
      <trkpt lat="45.9211412" lon="6.9268961"><ele>1888.9</ele></trkpt>
      <trkpt lat="45.9209917" lon="6.9272190"><ele>1891.6</ele></trkpt>
      <trkpt lat="45.9209728" lon="6.9272493"><ele>1894.0</ele></trkpt>
      <trkpt lat="45.9207925" lon="6.9275378"><ele>1896.5</ele></trkpt>
      <trkpt lat="45.9207779" lon="6.9275772"><ele>1898.5</ele></trkpt>
      <trkpt lat="45.9206459" lon="6.9279301"><ele>1900.5</ele></trkpt>
      <trkpt lat="45.9205514" lon="6.9280963"><ele>1902.5</ele></trkpt>
      <trkpt lat="45.9203807" lon="6.9283966"><ele>1904.8</ele></trkpt>
      <trkpt lat="45.9203547" lon="6.9284672"><ele>1907.1</ele></trkpt>
      <trkpt lat="45.9203478" lon="6.9284916"><ele>1909.5</ele></trkpt>
      <trkpt lat="45.9202457" lon="6.9288505"><ele>1911.7</ele></trkpt>
      <trkpt lat="45.9201435" lon="6.9292093"><ele>1913.9</ele></trkpt>
      <trkpt lat="45.9200412" lon="6.9295679"><ele>1915.7</ele></trkpt>
      <trkpt lat="45.9199119" lon="6.9296798"><ele>1917.7</ele></trkpt>
      <trkpt lat="45.9198202" lon="6.9298625"><ele>1919.9</ele></trkpt>
      <trkpt lat="45.9196415" lon="6.9300567"><ele>1921.8</ele></trkpt>
      <trkpt lat="45.9194303" lon="6.9302897"><ele>1923.5</ele></trkpt>
      <trkpt lat="45.9192214" lon="6.9305125"><ele>1924.8</ele></trkpt>
      <trkpt lat="45.9191518" lon="6.9306924"><ele>1925.2</ele></trkpt>
      <trkpt lat="45.9190199" lon="6.9310322"><ele>1925.8</ele></trkpt>
      <trkpt lat="45.9188590" lon="6.9312301"><ele>1926.6</ele></trkpt>
      <trkpt lat="45.9188679" lon="6.9312674"><ele>1927.7</ele></trkpt>
      <trkpt lat="45.9189069" lon="6.9313681"><ele>1928.4</ele></trkpt>
      <trkpt lat="45.9189092" lon="6.9314949"><ele>1928.0</ele></trkpt>
      <trkpt lat="45.9188994" lon="6.9315571"><ele>1928.5</ele></trkpt>
      <trkpt lat="45.9188718" lon="6.9316607"><ele>1927.6</ele></trkpt>
      <trkpt lat="45.9188565" lon="6.9316956"><ele>1928.7</ele></trkpt>
      <trkpt lat="45.9187207" lon="6.9320340"><ele>1930.4</ele></trkpt>
      <trkpt lat="45.9186620" lon="6.9321746"><ele>1932.3</ele></trkpt>
      <trkpt lat="45.9185201" lon="6.9325201"><ele>1933.8</ele></trkpt>
      <trkpt lat="45.9184341" lon="6.9328121"><ele>1935.4</ele></trkpt>
      <trkpt lat="45.9184301" lon="6.9328208"><ele>1937.4</ele></trkpt>
      <trkpt lat="45.9182899" lon="6.9331497"><ele>1940.7</ele></trkpt>
      <trkpt lat="45.9181505" lon="6.9334802"><ele>1942.9</ele></trkpt>
      <trkpt lat="45.9180126" lon="6.9338066"><ele>1946.6</ele></trkpt>
      <trkpt lat="45.9178724" lon="6.9341383"><ele>1948.5</ele></trkpt>
      <trkpt lat="45.9177715" lon="6.9344320"><ele>1950.0</ele></trkpt>
      <trkpt lat="45.9177424" lon="6.9344782"><ele>1951.2</ele></trkpt>
      <trkpt lat="45.9175624" lon="6.9347669"><ele>1952.1</ele></trkpt>
      <trkpt lat="45.9173887" lon="6.9350522"><ele>1952.9</ele></trkpt>
      <trkpt lat="45.9172040" lon="6.9353597"><ele>1954.3</ele></trkpt>
      <trkpt lat="45.9170220" lon="6.9356456"><ele>1955.7</ele></trkpt>
      <trkpt lat="45.9170158" lon="6.9356534"><ele>1956.5</ele></trkpt>
      <trkpt lat="45.9168184" lon="6.9359180"><ele>1958.0</ele></trkpt>
      <trkpt lat="45.9167109" lon="6.9360627"><ele>1959.8</ele></trkpt>
      <trkpt lat="45.9165134" lon="6.9363270"><ele>1962.4</ele></trkpt>
      <trkpt lat="45.9164152" lon="6.9364203"><ele>1965.0</ele></trkpt>
      <trkpt lat="45.9161862" lon="6.9366180"><ele>1968.1</ele></trkpt>
      <trkpt lat="45.9159548" lon="6.9368142"><ele>1971.2</ele></trkpt>
      <trkpt lat="45.9157831" lon="6.9370264"><ele>1973.5</ele></trkpt>
      <trkpt lat="45.9155769" lon="6.9371988"><ele>1975.8</ele></trkpt>
      <trkpt lat="45.9153440" lon="6.9373936"><ele>1978.8</ele></trkpt>
      <trkpt lat="45.9151110" lon="6.9375884"><ele>1981.2</ele></trkpt>
      <trkpt lat="45.9148779" lon="6.9377833"><ele>1983.2</ele></trkpt>
      <trkpt lat="45.9146450" lon="6.9379779"><ele>1985.1</ele></trkpt>
      <trkpt lat="45.9144117" lon="6.9381728"><ele>1987.0</ele></trkpt>
      <trkpt lat="45.9143469" lon="6.9382485"><ele>1988.8</ele></trkpt>
      <trkpt lat="45.9141367" lon="6.9384914"><ele>1990.6</ele></trkpt>
      <trkpt lat="45.9140072" lon="6.9385938"><ele>1992.4</ele></trkpt>
      <trkpt lat="45.9137712" lon="6.9387820"><ele>1994.3</ele></trkpt>
      <trkpt lat="45.9135414" lon="6.9389650"><ele>1996.2</ele></trkpt>
      <trkpt lat="45.9133763" lon="6.9390677"><ele>1998.3</ele></trkpt>
      <trkpt lat="45.9132136" lon="6.9391630"><ele>2000.5</ele></trkpt>
      <trkpt lat="45.9129620" lon="6.9393179"><ele>2002.5</ele></trkpt>
      <trkpt lat="45.9127576" lon="6.9395182"><ele>2004.5</ele></trkpt>
      <trkpt lat="45.9125347" lon="6.9397368"><ele>2006.3</ele></trkpt>
      <trkpt lat="45.9123118" lon="6.9399553"><ele>2007.9</ele></trkpt>
      <trkpt lat="45.9122704" lon="6.9400103"><ele>2009.2</ele></trkpt>
      <trkpt lat="45.9120711" lon="6.9402719"><ele>2010.2</ele></trkpt>
      <trkpt lat="45.9119847" lon="6.9405727"><ele>2011.4</ele></trkpt>
      <trkpt lat="45.9118200" lon="6.9407331"><ele>2012.7</ele></trkpt>
      <trkpt lat="45.9115955" lon="6.9409519"><ele>2014.1</ele></trkpt>
      <trkpt lat="45.9113695" lon="6.9411668"><ele>2015.4</ele></trkpt>
      <trkpt lat="45.9111329" lon="6.9412822"><ele>2016.8</ele></trkpt>
      <trkpt lat="45.9108760" lon="6.9414035"><ele>2018.2</ele></trkpt>
      <trkpt lat="45.9106573" lon="6.9416141"><ele>2019.9</ele></trkpt>
      <trkpt lat="45.9106377" lon="6.9416236"><ele>2021.5</ele></trkpt>
      <trkpt lat="45.9103845" lon="6.9417548"><ele>2023.2</ele></trkpt>
      <trkpt lat="45.9101334" lon="6.9418839"><ele>2024.5</ele></trkpt>
      <trkpt lat="45.9099252" lon="6.9418763"><ele>2025.5</ele></trkpt>
      <trkpt lat="45.9097221" lon="6.9419303"><ele>2026.0</ele></trkpt>
      <trkpt lat="45.9094566" lon="6.9420055"><ele>2026.6</ele></trkpt>
      <trkpt lat="45.9093637" lon="6.9420446"><ele>2026.9</ele></trkpt>
      <trkpt lat="45.9091133" lon="6.9421407"><ele>2027.4</ele></trkpt>
      <trkpt lat="45.9088531" lon="6.9422417"><ele>2028.0</ele></trkpt>
      <trkpt lat="45.9085928" lon="6.9423427"><ele>2028.3</ele></trkpt>
      <trkpt lat="45.9085415" lon="6.9423730"><ele>2029.4</ele></trkpt>
      <trkpt lat="45.9082962" lon="6.9425360"><ele>2031.0</ele></trkpt>
      <trkpt lat="45.9080668" lon="6.9426932"><ele>2032.4</ele></trkpt>
      <trkpt lat="45.9079585" lon="6.9427395"><ele>2034.3</ele></trkpt>
      <trkpt lat="45.9077139" lon="6.9428459"><ele>2036.3</ele></trkpt>
      <trkpt lat="45.9074553" lon="6.9429566"><ele>2038.9</ele></trkpt>
      <trkpt lat="45.9073739" lon="6.9429965"><ele>2041.2</ele></trkpt>
      <trkpt lat="45.9071209" lon="6.9431285"><ele>2043.6</ele></trkpt>
      <trkpt lat="45.9070927" lon="6.9431634"><ele>2046.6</ele></trkpt>
      <trkpt lat="45.9068904" lon="6.9434317"><ele>2048.8</ele></trkpt>
      <trkpt lat="45.9067761" lon="6.9435697"><ele>2050.7</ele></trkpt>
      <trkpt lat="45.9067150" lon="6.9436686"><ele>2052.8</ele></trkpt>
      <trkpt lat="45.9065415" lon="6.9439626"><ele>2054.9</ele></trkpt>
      <trkpt lat="45.9065217" lon="6.9441161"><ele>2057.5</ele></trkpt>
      <trkpt lat="45.9065013" lon="6.9442718"><ele>2059.6</ele></trkpt>
      <trkpt lat="45.9064893" lon="6.9443106"><ele>2061.8</ele></trkpt>
      <trkpt lat="45.9063761" lon="6.9446645"><ele>2064.1</ele></trkpt>
      <trkpt lat="45.9062634" lon="6.9450182"><ele>2066.3</ele></trkpt>
      <trkpt lat="45.9062570" lon="6.9452580"><ele>2069.0</ele></trkpt>
      <trkpt lat="45.9063208" lon="6.9454116"><ele>2072.0</ele></trkpt>
      <trkpt lat="45.9063926" lon="6.9456220"><ele>2075.0</ele></trkpt>
      <trkpt lat="45.9064276" lon="6.9458323"><ele>2077.9</ele></trkpt>
      <trkpt lat="45.9064927" lon="6.9462173"><ele>2080.3</ele></trkpt>
      <trkpt lat="45.9063947" lon="6.9464756"><ele>2082.7</ele></trkpt>
      <trkpt lat="45.9063829" lon="6.9465705"><ele>2084.1</ele></trkpt>
      <trkpt lat="45.9063368" lon="6.9469518"><ele>2085.8</ele></trkpt>
      <trkpt lat="45.9062763" lon="6.9470507"><ele>2087.9</ele></trkpt>
      <trkpt lat="45.9060985" lon="6.9473375"><ele>2089.3</ele></trkpt>
      <trkpt lat="45.9059295" lon="6.9476216"><ele>2091.0</ele></trkpt>
      <trkpt lat="45.9059120" lon="6.9476604"><ele>2092.4</ele></trkpt>
      <trkpt lat="45.9057617" lon="6.9479849"><ele>2093.8</ele></trkpt>
      <trkpt lat="45.9055914" lon="6.9483019"><ele>2095.6</ele></trkpt>
      <trkpt lat="45.9054296" lon="6.9485412"><ele>2097.5</ele></trkpt>
      <trkpt lat="45.9053811" lon="6.9485886"><ele>2100.2</ele></trkpt>
      <trkpt lat="45.9051635" lon="6.9488182"><ele>2102.5</ele></trkpt>
      <trkpt lat="45.9050263" lon="6.9490796"><ele>2103.9</ele></trkpt>
      <trkpt lat="45.9048730" lon="6.9492527"><ele>2105.4</ele></trkpt>
      <trkpt lat="45.9048069" lon="6.9493136"><ele>2107.0</ele></trkpt>
      <trkpt lat="45.9045804" lon="6.9495258"><ele>2108.4</ele></trkpt>
      <trkpt lat="45.9045502" lon="6.9495497"><ele>2110.3</ele></trkpt>
      <trkpt lat="45.9043180" lon="6.9497503"><ele>2111.8</ele></trkpt>
      <trkpt lat="45.9040974" lon="6.9499420"><ele>2112.7</ele></trkpt>
      <trkpt lat="45.9038637" lon="6.9501403"><ele>2113.3</ele></trkpt>
      <trkpt lat="45.9038128" lon="6.9503309"><ele>2113.8</ele></trkpt>
      <trkpt lat="45.9036359" lon="6.9504962"><ele>2115.2</ele></trkpt>
      <trkpt lat="45.9035345" lon="6.9507384"><ele>2117.1</ele></trkpt>
      <trkpt lat="45.9034046" lon="6.9510803"><ele>2118.6</ele></trkpt>
      <trkpt lat="45.9032771" lon="6.9514219"><ele>2120.2</ele></trkpt>
      <trkpt lat="45.9032348" lon="6.9516963"><ele>2121.5</ele></trkpt>
      <trkpt lat="45.9030949" lon="6.9519098"><ele>2122.6</ele></trkpt>
      <trkpt lat="45.9030201" lon="6.9520237"><ele>2124.2</ele></trkpt>
      <trkpt lat="45.9029841" lon="6.9522448"><ele>2126.4</ele></trkpt>
      <trkpt lat="45.9029164" lon="6.9525473"><ele>2128.6</ele></trkpt>
      <trkpt lat="45.9028582" lon="6.9526628"><ele>2130.1</ele></trkpt>
      <trkpt lat="45.9028365" lon="6.9527025"><ele>2131.5</ele></trkpt>
      <trkpt lat="45.9026704" lon="6.9530268"><ele>2132.9</ele></trkpt>
      <trkpt lat="45.9025169" lon="6.9533287"><ele>2135.0</ele></trkpt>
      <trkpt lat="45.9025092" lon="6.9533407"><ele>2137.0</ele></trkpt>
      <trkpt lat="45.9023336" lon="6.9536358"><ele>2138.3</ele></trkpt>
      <trkpt lat="45.9023303" lon="6.9536555"><ele>2138.9</ele></trkpt>
      <trkpt lat="45.9022702" lon="6.9540329"><ele>2140.3</ele></trkpt>
      <trkpt lat="45.9023227" lon="6.9542543"><ele>2143.6</ele></trkpt>
      <trkpt lat="45.9023648" lon="6.9545555"><ele>2146.9</ele></trkpt>
      <trkpt lat="45.9023811" lon="6.9545980"><ele>2151.1</ele></trkpt>
      <trkpt lat="45.9023891" lon="6.9546297"><ele>2156.6</ele></trkpt>
      <trkpt lat="45.9024787" lon="6.9549987"><ele>2162.1</ele></trkpt>
      <trkpt lat="45.9025025" lon="6.9550315"><ele>2168.1</ele></trkpt>
      <trkpt lat="45.9026933" lon="6.9553076"><ele>2175.0</ele></trkpt>
      <trkpt lat="45.9028890" lon="6.9555919"><ele>2184.2</ele></trkpt>
      <trkpt lat="45.9029785" lon="6.9556025"><ele>2192.8</ele></trkpt>
      <trkpt lat="45.9030153" lon="6.9557595"><ele>2199.6</ele></trkpt>
      <trkpt lat="45.9030155" lon="6.9557604"><ele>2206.2</ele></trkpt>
      <trkpt lat="45.9031250" lon="6.9561212"><ele>2212.1</ele></trkpt>
      <trkpt lat="45.9031932" lon="6.9562179"><ele>2218.2</ele></trkpt>
      <trkpt lat="45.9032392" lon="6.9564168"><ele>2225.2</ele></trkpt>
      <trkpt lat="45.9032537" lon="6.9564486"><ele>2232.4</ele></trkpt>
      <trkpt lat="45.9032991" lon="6.9564224"><ele>2240.3</ele></trkpt>
      <trkpt lat="45.9033302" lon="6.9564455"><ele>2247.5</ele></trkpt>
      <trkpt lat="45.9034214" lon="6.9563417"><ele>2254.2</ele></trkpt>
      <trkpt lat="45.9034835" lon="6.9562121"><ele>2262.4</ele></trkpt>
      <trkpt lat="45.9035968" lon="6.9561322"><ele>2271.3</ele></trkpt>
      <trkpt lat="45.9036192" lon="6.9562646"><ele>2279.6</ele></trkpt>
      <trkpt lat="45.9036405" lon="6.9563066"><ele>2286.5</ele></trkpt>
      <trkpt lat="45.9037831" lon="6.9566121"><ele>2291.9</ele></trkpt>
      <trkpt lat="45.9037447" lon="6.9569593"><ele>2296.2</ele></trkpt>
      <trkpt lat="45.9037398" lon="6.9570209"><ele>2301.1</ele></trkpt>
      <trkpt lat="45.9037408" lon="6.9571010"><ele>2305.2</ele></trkpt>
      <trkpt lat="45.9037372" lon="6.9572377"><ele>2309.6</ele></trkpt>
      <trkpt lat="45.9037374" lon="6.9572386"><ele>2312.7</ele></trkpt>
      <trkpt lat="45.9038264" lon="6.9576165"><ele>2315.5</ele></trkpt>
      <trkpt lat="45.9038684" lon="6.9577170"><ele>2318.3</ele></trkpt>
      <trkpt lat="45.9039850" lon="6.9578194"><ele>2321.7</ele></trkpt>
      <trkpt lat="45.9040102" lon="6.9578626"><ele>2325.2</ele></trkpt>
      <trkpt lat="45.9040297" lon="6.9579992"><ele>2328.6</ele></trkpt>
      <trkpt lat="45.9039994" lon="6.9581063"><ele>2331.4</ele></trkpt>
      <trkpt lat="45.9039021" lon="6.9584701"><ele>2334.4</ele></trkpt>
      <trkpt lat="45.9039331" lon="6.9588036"><ele>2337.3</ele></trkpt>
      <trkpt lat="45.9039899" lon="6.9589213"><ele>2340.3</ele></trkpt>
      <trkpt lat="45.9040026" lon="6.9590698"><ele>2343.4</ele></trkpt>
      <trkpt lat="45.9040340" lon="6.9592535"><ele>2347.0</ele></trkpt>
      <trkpt lat="45.9040099" lon="6.9593935"><ele>2351.1</ele></trkpt>
      <trkpt lat="45.9039499" lon="6.9596401"><ele>2355.4</ele></trkpt>
      <trkpt lat="45.9040170" lon="6.9597244"><ele>2360.6</ele></trkpt>
      <trkpt lat="45.9041437" lon="6.9597543"><ele>2365.6</ele></trkpt>
      <trkpt lat="45.9042539" lon="6.9600691"><ele>2370.0</ele></trkpt>
      <trkpt lat="45.9043210" lon="6.9599132"><ele>2375.5</ele></trkpt>
      <trkpt lat="45.9044381" lon="6.9597111"><ele>2380.9</ele></trkpt>
      <trkpt lat="45.9044794" lon="6.9597685"><ele>2386.7</ele></trkpt>
      <trkpt lat="45.9044844" lon="6.9597730"><ele>2391.9</ele></trkpt>
      <trkpt lat="45.9047128" lon="6.9599910"><ele>2396.3</ele></trkpt>
      <trkpt lat="45.9047496" lon="6.9600621"><ele>2400.5</ele></trkpt>
      <trkpt lat="45.9048289" lon="6.9602831"><ele>2405.0</ele></trkpt>
      <trkpt lat="45.9048428" lon="6.9603445"><ele>2409.8</ele></trkpt>
      <trkpt lat="45.9048757" lon="6.9604048"><ele>2414.5</ele></trkpt>
      <trkpt lat="45.9049279" lon="6.9605051"><ele>2418.1</ele></trkpt>
      <trkpt lat="45.9050692" lon="6.9608276"><ele>2422.3</ele></trkpt>
      <trkpt lat="45.9051953" lon="6.9610059"><ele>2426.9</ele></trkpt>
      <trkpt lat="45.9052050" lon="6.9610223"><ele>2432.2</ele></trkpt>
      <trkpt lat="45.9052115" lon="6.9610332"><ele>2438.2</ele></trkpt>
      <trkpt lat="45.9053947" lon="6.9613434"><ele>2444.3</ele></trkpt>
      <trkpt lat="45.9055697" lon="6.9616375"><ele>2450.3</ele></trkpt>
      <trkpt lat="45.9057449" lon="6.9619312"><ele>2455.9</ele></trkpt>
      <trkpt lat="45.9058333" lon="6.9622485"><ele>2462.4</ele></trkpt>
      <trkpt lat="45.9059029" lon="6.9624130"><ele>2469.6</ele></trkpt>
      <trkpt lat="45.9060416" lon="6.9627455"><ele>2476.3</ele></trkpt>
      <trkpt lat="45.9060898" lon="6.9628076"><ele>2482.8</ele></trkpt>
      <trkpt lat="45.9062943" lon="6.9630565"><ele>2488.7</ele></trkpt>
      <trkpt lat="45.9065006" lon="6.9633066"><ele>2494.1</ele></trkpt>
      <trkpt lat="45.9065982" lon="6.9634316"><ele>2499.8</ele></trkpt>
      <trkpt lat="45.9067969" lon="6.9636965"><ele>2505.0</ele></trkpt>
      <trkpt lat="45.9068681" lon="6.9638258"><ele>2510.4</ele></trkpt>
      <trkpt lat="45.9069452" lon="6.9639249"><ele>2516.0</ele></trkpt>
      <trkpt lat="45.9071431" lon="6.9642048"><ele>2521.8</ele></trkpt>
      <trkpt lat="45.9071542" lon="6.9644148"><ele>2527.2</ele></trkpt>
      <trkpt lat="45.9071929" lon="6.9644593"><ele>2532.8</ele></trkpt>
      <trkpt lat="45.9074215" lon="6.9646539"><ele>2539.2</ele></trkpt>
      <trkpt lat="45.9075796" lon="6.9648439"><ele>2546.0</ele></trkpt>
      <trkpt lat="45.9075901" lon="6.9648633"><ele>2551.9</ele></trkpt>
      <trkpt lat="45.9077728" lon="6.9651494"><ele>2558.2</ele></trkpt>
      <trkpt lat="45.9079864" lon="6.9653297"><ele>2563.6</ele></trkpt>
      <trkpt lat="45.9081515" lon="6.9655199"><ele>2569.3</ele></trkpt>
      <trkpt lat="45.9082036" lon="6.9656554"><ele>2574.1</ele></trkpt>
      <trkpt lat="45.9083460" lon="6.9658401"><ele>2579.9</ele></trkpt>
      <trkpt lat="45.9084054" lon="6.9658884"><ele>2585.7</ele></trkpt>
      <trkpt lat="45.9086320" lon="6.9660803"><ele>2590.3</ele></trkpt>
      <trkpt lat="45.9087362" lon="6.9661220"><ele>2595.7</ele></trkpt>
      <trkpt lat="45.9089512" lon="6.9663002"><ele>2601.0</ele></trkpt>
      <trkpt lat="45.9090809" lon="6.9663548"><ele>2606.3</ele></trkpt>
      <trkpt lat="45.9090957" lon="6.9663564"><ele>2612.4</ele></trkpt>
      <trkpt lat="45.9093651" lon="6.9663957"><ele>2617.5</ele></trkpt>
      <trkpt lat="45.9095643" lon="6.9664610"><ele>2622.6</ele></trkpt>
      <trkpt lat="45.9097664" lon="6.9666508"><ele>2627.9</ele></trkpt>
      <trkpt lat="45.9098392" lon="6.9666760"><ele>2632.7</ele></trkpt>
      <trkpt lat="45.9098475" lon="6.9666754"><ele>2638.5</ele></trkpt>
      <trkpt lat="45.9098611" lon="6.9666768"><ele>2642.9</ele></trkpt>
      <trkpt lat="45.9101309" lon="6.9667095"><ele>2647.9</ele></trkpt>
      <trkpt lat="45.9102020" lon="6.9665106"><ele>2652.2</ele></trkpt>
      <trkpt lat="45.9102748" lon="6.9664735"><ele>2656.2</ele></trkpt>
      <trkpt lat="45.9102838" lon="6.9662951"><ele>2660.0</ele></trkpt>
      <trkpt lat="45.9103023" lon="6.9662079"><ele>2664.1</ele></trkpt>
      <trkpt lat="45.9103221" lon="6.9660658"><ele>2666.8</ele></trkpt>
      <trkpt lat="45.9103190" lon="6.9660213"><ele>2670.4</ele></trkpt>
      <trkpt lat="45.9102844" lon="6.9656378"><ele>2671.3</ele></trkpt>
      <trkpt lat="45.9104337" lon="6.9657762"><ele>2673.5</ele></trkpt>
      <trkpt lat="45.9104864" lon="6.9658754"><ele>2677.1</ele></trkpt>
      <trkpt lat="45.9105867" lon="6.9659027"><ele>2680.7</ele></trkpt>
      <trkpt lat="45.9107218" lon="6.9659885"><ele>2685.0</ele></trkpt>
      <trkpt lat="45.9108427" lon="6.9661468"><ele>2689.5</ele></trkpt>
      <trkpt lat="45.9110729" lon="6.9662763"><ele>2694.0</ele></trkpt>
      <trkpt lat="45.9111260" lon="6.9663574"><ele>2698.8</ele></trkpt>
      <trkpt lat="45.9113178" lon="6.9666335"><ele>2702.7</ele></trkpt>
      <trkpt lat="45.9115092" lon="6.9669131"><ele>2708.4</ele></trkpt>
      <trkpt lat="45.9116513" lon="6.9669513"><ele>2712.8</ele></trkpt>
      <trkpt lat="45.9117449" lon="6.9669808"><ele>2715.8</ele></trkpt>
      <trkpt lat="45.9118190" lon="6.9669850"><ele>2719.3</ele></trkpt>
      <trkpt lat="45.9119159" lon="6.9669108"><ele>2723.5</ele></trkpt>
      <trkpt lat="45.9121053" lon="6.9669818"><ele>2727.6</ele></trkpt>
      <trkpt lat="45.9121737" lon="6.9669952"><ele>2731.7</ele></trkpt>
      <trkpt lat="45.9124383" lon="6.9669949"><ele>2737.5</ele></trkpt>
      <trkpt lat="45.9126118" lon="6.9670527"><ele>2743.4</ele></trkpt>
      <trkpt lat="45.9126380" lon="6.9670362"><ele>2751.0</ele></trkpt>
      <trkpt lat="45.9126981" lon="6.9669996"><ele>2759.2</ele></trkpt>
      <trkpt lat="45.9129416" lon="6.9668380"><ele>2767.8</ele></trkpt>
      <trkpt lat="45.9129892" lon="6.9668119"><ele>2775.9</ele></trkpt>
      <trkpt lat="45.9132268" lon="6.9666431"><ele>2783.6</ele></trkpt>
      <trkpt lat="45.9134382" lon="6.9667985"><ele>2791.7</ele></trkpt>
      <trkpt lat="45.9136010" lon="6.9668437"><ele>2800.3</ele></trkpt>
      <trkpt lat="45.9136489" lon="6.9668637"><ele>2807.4</ele></trkpt>
      <trkpt lat="45.9139063" lon="6.9669699"><ele>2814.1</ele></trkpt>
      <trkpt lat="45.9139733" lon="6.9669804"><ele>2820.3</ele></trkpt>
      <trkpt lat="45.9142405" lon="6.9670329"><ele>2825.6</ele></trkpt>
      <trkpt lat="45.9145087" lon="6.9670855"><ele>2832.6</ele></trkpt>
      <trkpt lat="45.9145094" lon="6.9670853"><ele>2840.4</ele></trkpt>
      <trkpt lat="45.9147832" lon="6.9669986"><ele>2847.3</ele></trkpt>
      <trkpt lat="45.9148237" lon="6.9669615"><ele>2855.3</ele></trkpt>
      <trkpt lat="45.9150557" lon="6.9667604"><ele>2862.9</ele></trkpt>
      <trkpt lat="45.9152026" lon="6.9666807"><ele>2872.1</ele></trkpt>
      <trkpt lat="45.9152194" lon="6.9666597"><ele>2882.8</ele></trkpt>
      <trkpt lat="45.9154193" lon="6.9664250"><ele>2892.8</ele></trkpt>
      <trkpt lat="45.9154576" lon="6.9662684"><ele>2903.5</ele></trkpt>
      <trkpt lat="45.9155511" lon="6.9658993"><ele>2913.6</ele></trkpt>
      <trkpt lat="45.9156430" lon="6.9657110"><ele>2922.6</ele></trkpt>
      <trkpt lat="45.9156185" lon="6.9655899"><ele>2933.2</ele></trkpt>
      <trkpt lat="45.9156052" lon="6.9655385"><ele>2943.0</ele></trkpt>
      <trkpt lat="45.9155234" lon="6.9651619"><ele>2952.8</ele></trkpt>
      <trkpt lat="45.9155555" lon="6.9650969"><ele>2961.7</ele></trkpt>
      <trkpt lat="45.9156178" lon="6.9649759"><ele>2969.8</ele></trkpt>
      <trkpt lat="45.9156949" lon="6.9649416"><ele>2978.0</ele></trkpt>
      <trkpt lat="45.9159544" lon="6.9648134"><ele>2986.3</ele></trkpt>
      <trkpt lat="45.9161134" lon="6.9646697"><ele>2993.5</ele></trkpt>
      <trkpt lat="45.9162067" lon="6.9645267"><ele>3002.7</ele></trkpt>
      <trkpt lat="45.9163356" lon="6.9643618"><ele>3010.2</ele></trkpt>
      <trkpt lat="45.9165062" lon="6.9642654"><ele>3016.9</ele></trkpt>
      <trkpt lat="45.9165741" lon="6.9641225"><ele>3022.5</ele></trkpt>
      <trkpt lat="45.9165978" lon="6.9638599"><ele>3026.8</ele></trkpt>
      <trkpt lat="45.9165984" lon="6.9638563"><ele>3029.9</ele></trkpt>
      <trkpt lat="45.9166289" lon="6.9638506"><ele>3031.9</ele></trkpt>
      <trkpt lat="45.9166851" lon="6.9638196"><ele>3032.1</ele></trkpt>
      <trkpt lat="45.9169428" lon="6.9637113"><ele>3032.8</ele></trkpt>
      <trkpt lat="45.9170468" lon="6.9637038"><ele>3033.6</ele></trkpt>
      <trkpt lat="45.9170795" lon="6.9636870"><ele>3036.7</ele></trkpt>
      <trkpt lat="45.9173314" lon="6.9635547"><ele>3036.7</ele></trkpt>
      <trkpt lat="45.9173748" lon="6.9633451"><ele>3036.6</ele></trkpt>
      <trkpt lat="45.9174647" lon="6.9632155"><ele>3037.1</ele></trkpt>
      <trkpt lat="45.9175388" lon="6.9630822"><ele>3037.7</ele></trkpt>
      <trkpt lat="45.9176775" lon="6.9631681"><ele>3043.7</ele></trkpt>
      <trkpt lat="45.9176744" lon="6.9631695"><ele>3050.2</ele></trkpt>
      <trkpt lat="45.9176693" lon="6.9631654"><ele>3058.4</ele></trkpt>
      <trkpt lat="45.9176594" lon="6.9631665"><ele>3058.6</ele></trkpt>
      <trkpt lat="45.9175828" lon="6.9629836"><ele>3058.2</ele></trkpt>
      <trkpt lat="45.9176028" lon="6.9630248"><ele>3060.9</ele></trkpt>
      <trkpt lat="45.9175657" lon="6.9628259"><ele>3064.8</ele></trkpt>
      <trkpt lat="45.9176121" lon="6.9631475"><ele>3071.2</ele></trkpt>
      <trkpt lat="45.9176371" lon="6.9630804"><ele>3079.4</ele></trkpt>
      <trkpt lat="45.9176382" lon="6.9630785"><ele>3082.0</ele></trkpt>
      <trkpt lat="45.9176295" lon="6.9630317"><ele>3085.7</ele></trkpt>
      <trkpt lat="45.9175971" lon="6.9628878"><ele>3087.7</ele></trkpt>
      <trkpt lat="45.9175725" lon="6.9628112"><ele>3097.4</ele></trkpt>
      <trkpt lat="45.9175229" lon="6.9628254"><ele>3105.6</ele></trkpt>
      <trkpt lat="45.9174940" lon="6.9628142"><ele>3113.7</ele></trkpt>
      <trkpt lat="45.9173613" lon="6.9627187"><ele>3121.8</ele></trkpt>
      <trkpt lat="45.9172661" lon="6.9626130"><ele>3128.4</ele></trkpt>
      <trkpt lat="45.9172388" lon="6.9625897"><ele>3135.6</ele></trkpt>
      <trkpt lat="45.9171859" lon="6.9625549"><ele>3143.9</ele></trkpt>
      <trkpt lat="45.9171921" lon="6.9624927"><ele>3152.5</ele></trkpt>
      <trkpt lat="45.9171917" lon="6.9624384"><ele>3160.1</ele></trkpt>
      <trkpt lat="45.9171850" lon="6.9622874"><ele>3166.3</ele></trkpt>
      <trkpt lat="45.9171657" lon="6.9622267"><ele>3172.4</ele></trkpt>
      <trkpt lat="45.9170852" lon="6.9621747"><ele>3178.7</ele></trkpt>
      <trkpt lat="45.9170744" lon="6.9621264"><ele>3184.0</ele></trkpt>
      <trkpt lat="45.9170849" lon="6.9621190"><ele>3188.6</ele></trkpt>
      <trkpt lat="45.9171045" lon="6.9621079"><ele>3191.3</ele></trkpt>
      <trkpt lat="45.9171066" lon="6.9621014"><ele>3193.5</ele></trkpt>
      <trkpt lat="45.9170840" lon="6.9621016"><ele>3196.4</ele></trkpt>
      <trkpt lat="45.9170859" lon="6.9620796"><ele>3199.0</ele></trkpt>
      <trkpt lat="45.9170858" lon="6.9620554"><ele>3201.8</ele></trkpt>
      <trkpt lat="45.9170831" lon="6.9620392"><ele>3205.2</ele></trkpt>
      <trkpt lat="45.9170513" lon="6.9619527"><ele>3208.7</ele></trkpt>
      <trkpt lat="45.9169716" lon="6.9619353"><ele>3213.4</ele></trkpt>
      <trkpt lat="45.9169342" lon="6.9619164"><ele>3219.7</ele></trkpt>
      <trkpt lat="45.9168665" lon="6.9618618"><ele>3226.9</ele></trkpt>
      <trkpt lat="45.9168517" lon="6.9618421"><ele>3234.0</ele></trkpt>
      <trkpt lat="45.9167302" lon="6.9617723"><ele>3237.0</ele></trkpt>
      <trkpt lat="45.9166842" lon="6.9615960"><ele>3240.3</ele></trkpt>
      <trkpt lat="45.9167041" lon="6.9615169"><ele>3244.2</ele></trkpt>
      <trkpt lat="45.9166719" lon="6.9614132"><ele>3248.4</ele></trkpt>
    </trkseg>
  </trk>
</gpx>