<?xml version="1.0" encoding="UTF-8"?>
<gpx version="1.1" creator="AlpHD-batch" xmlns="http://www.topografix.com/GPX/1/1">
  <trk>
    <name>Vzhodni steber (normalka)</name>
    <trkseg>
      <trkpt lat="45.9103896" lon="6.9656661"><ele>2657.6</ele></trkpt>
      <trkpt lat="45.9101870" lon="6.9659063"><ele>2652.7</ele></trkpt>
      <trkpt lat="45.9099788" lon="6.9661537"><ele>2647.9</ele></trkpt>
      <trkpt lat="45.9097850" lon="6.9663960"><ele>2643.2</ele></trkpt>
      <trkpt lat="45.9095491" lon="6.9662705"><ele>2638.6</ele></trkpt>
      <trkpt lat="45.9092978" lon="6.9661316"><ele>2630.2</ele></trkpt>
      <trkpt lat="45.9090396" lon="6.9659892"><ele>2623.4</ele></trkpt>
      <trkpt lat="45.9087918" lon="6.9658487"><ele>2618.1</ele></trkpt>
      <trkpt lat="45.9085421" lon="6.9657057"><ele>2614.0</ele></trkpt>
      <trkpt lat="45.9082228" lon="6.9731868"><ele>2611.1</ele></trkpt>
      <trkpt lat="45.9083665" lon="6.9735150"><ele>2609.4</ele></trkpt>
      <trkpt lat="45.9084442" lon="6.9735820"><ele>2609.0</ele></trkpt>
      <trkpt lat="45.9086754" lon="6.9737818"><ele>2609.7</ele></trkpt>
      <trkpt lat="45.9089066" lon="6.9739815"><ele>2611.5</ele></trkpt>
      <trkpt lat="45.9091379" lon="6.9741813"><ele>2613.3</ele></trkpt>
      <trkpt lat="45.9093776" lon="6.9743851"><ele>2614.9</ele></trkpt>
      <trkpt lat="45.9096089" lon="6.9745844"><ele>2616.6</ele></trkpt>
      <trkpt lat="45.9098402" lon="6.9747837"><ele>2618.2</ele></trkpt>
      <trkpt lat="45.9100716" lon="6.9749828"><ele>2619.9</ele></trkpt>
      <trkpt lat="45.9103029" lon="6.9751815"><ele>2621.5</ele></trkpt>
      <trkpt lat="45.9105342" lon="6.9753798"><ele>2623.2</ele></trkpt>
      <trkpt lat="45.9107652" lon="6.9755771"><ele>2624.8</ele></trkpt>
      <trkpt lat="45.9109954" lon="6.9757730"><ele>2626.5</ele></trkpt>
      <trkpt lat="45.9112236" lon="6.9759683"><ele>2628.1</ele></trkpt>
      <trkpt lat="45.9114549" lon="6.9761681"><ele>2629.6</ele></trkpt>
      <trkpt lat="45.9116861" lon="6.9763678"><ele>2631.1</ele></trkpt>
      <trkpt lat="45.9119197" lon="6.9765707"><ele>2632.9</ele></trkpt>
      <trkpt lat="45.9121524" lon="6.9767758"><ele>2635.0</ele></trkpt>
      <trkpt lat="45.9123825" lon="6.9769828"><ele>2637.3</ele></trkpt>
      <trkpt lat="45.9126003" lon="6.9771707"><ele>2639.9</ele></trkpt>
      <trkpt lat="45.9126530" lon="6.9775304"><ele>2642.7</ele></trkpt>
      <trkpt lat="45.9127102" lon="6.9779144"><ele>2645.8</ele></trkpt>
      <trkpt lat="45.9127680" lon="6.9782956"><ele>2649.1</ele></trkpt>
      <trkpt lat="45.9128253" lon="6.9786713"><ele>2652.8</ele></trkpt>
      <trkpt lat="45.9128827" lon="6.9790503"><ele>2656.8</ele></trkpt>
      <trkpt lat="45.9129424" lon="6.9794366"><ele>2660.6</ele></trkpt>
      <trkpt lat="45.9129999" lon="6.9798155"><ele>2664.2</ele></trkpt>
      <trkpt lat="45.9130558" lon="6.9801903"><ele>2667.9</ele></trkpt>
      <trkpt lat="45.9131138" lon="6.9805709"><ele>2671.6</ele></trkpt>
      <trkpt lat="45.9131714" lon="6.9809498"><ele>2675.5</ele></trkpt>
      <trkpt lat="45.9132297" lon="6.9813216"><ele>2679.2</ele></trkpt>
      <trkpt lat="45.9132865" lon="6.9817014"><ele>2683.0</ele></trkpt>
      <trkpt lat="45.9133437" lon="6.9820808"><ele>2686.9</ele></trkpt>
      <trkpt lat="45.9134006" lon="6.9824594"><ele>2690.8</ele></trkpt>
      <trkpt lat="45.9134735" lon="6.9826313"><ele>2694.7</ele></trkpt>
      <trkpt lat="45.9136155" lon="6.9829615"><ele>2699.1</ele></trkpt>
      <trkpt lat="45.9137574" lon="6.9832916"><ele>2703.3</ele></trkpt>
      <trkpt lat="45.9139005" lon="6.9836248"><ele>2707.5</ele></trkpt>
      <trkpt lat="45.9140412" lon="6.9839507"><ele>2711.7</ele></trkpt>
      <trkpt lat="45.9141831" lon="6.9842807"><ele>2716.1</ele></trkpt>
      <trkpt lat="45.9143255" lon="6.9846123"><ele>2720.0</ele></trkpt>
      <trkpt lat="45.9144675" lon="6.9849420"><ele>2723.8</ele></trkpt>
      <trkpt lat="45.9146094" lon="6.9852718"><ele>2727.4</ele></trkpt>
      <trkpt lat="45.9147514" lon="6.9856016"><ele>2731.0</ele></trkpt>
      <trkpt lat="45.9147661" lon="6.9856201"><ele>2734.5</ele></trkpt>
      <trkpt lat="45.9149684" lon="6.9858730"><ele>2737.8</ele></trkpt>
      <trkpt lat="45.9151713" lon="6.9861292"><ele>2741.1</ele></trkpt>
      <trkpt lat="45.9153748" lon="6.9863875"><ele>2744.2</ele></trkpt>
      <trkpt lat="45.9155777" lon="6.9866433"><ele>2747.3</ele></trkpt>
      <trkpt lat="45.9157807" lon="6.9868991"><ele>2750.6</ele></trkpt>
      <trkpt lat="45.9159830" lon="6.9871529"><ele>2753.9</ele></trkpt>
      <trkpt lat="45.9161855" lon="6.9874070"><ele>2757.2</ele></trkpt>
      <trkpt lat="45.9163884" lon="6.9876627"><ele>2760.5</ele></trkpt>
      <trkpt lat="45.9164838" lon="6.9879472"><ele>2763.8</ele></trkpt>
      <trkpt lat="45.9166010" lon="6.9882966"><ele>2766.7</ele></trkpt>
      <trkpt lat="45.9167182" lon="6.9886459"><ele>2769.3</ele></trkpt>
      <trkpt lat="45.9168377" lon="6.9890013"><ele>2771.7</ele></trkpt>
      <trkpt lat="45.9169549" lon="6.9893506"><ele>2774.1</ele></trkpt>
      <trkpt lat="45.9169134" lon="6.9894054"><ele>2776.3</ele></trkpt>
      <trkpt lat="45.9169081" lon="6.9894829"><ele>2778.5</ele></trkpt>
      <trkpt lat="45.9168835" lon="6.9898705"><ele>2781.0</ele></trkpt>
      <trkpt lat="45.9168583" lon="6.9902571"><ele>2784.1</ele></trkpt>
      <trkpt lat="45.9168318" lon="6.9906425"><ele>2787.8</ele></trkpt>
      <trkpt lat="45.9168056" lon="6.9910281"><ele>2792.4</ele></trkpt>
      <trkpt lat="45.9169490" lon="6.9912825"><ele>2798.0</ele></trkpt>
      <trkpt lat="45.9171188" lon="6.9915840"><ele>2804.3</ele></trkpt>
      <trkpt lat="45.9172886" lon="6.9918855"><ele>2811.2</ele></trkpt>
      <trkpt lat="45.9174659" lon="6.9921834"><ele>2818.7</ele></trkpt>
      <trkpt lat="45.9176436" lon="6.9924863"><ele>2826.9</ele></trkpt>
      <trkpt lat="45.9178109" lon="6.9927867"><ele>2834.4</ele></trkpt>
      <trkpt lat="45.9179815" lon="6.9930862"><ele>2840.9</ele></trkpt>
      <trkpt lat="45.9181541" lon="6.9933676"><ele>2847.4</ele></trkpt>
      <trkpt lat="45.9183149" lon="6.9936632"><ele>2853.9</ele></trkpt>
      <trkpt lat="45.9182631" lon="6.9939372"><ele>2860.4</ele></trkpt>
      <trkpt lat="45.9181922" lon="6.9943202"><ele>2866.4</ele></trkpt>
      <trkpt lat="45.9184020" lon="6.9940701"><ele>2872.5</ele></trkpt>
      <trkpt lat="45.9186108" lon="6.9938263"><ele>2877.8</ele></trkpt>
      <trkpt lat="45.9188199" lon="6.9935818"><ele>2883.3</ele></trkpt>
      <trkpt lat="45.9188783" lon="6.9937725"><ele>2890.1</ele></trkpt>
      <trkpt lat="45.9189874" lon="6.9941275"><ele>2898.1</ele></trkpt>
      <trkpt lat="45.9190149" lon="6.9941102"><ele>2905.3</ele></trkpt>
      <trkpt lat="45.9192599" lon="6.9939569"><ele>2912.4</ele></trkpt>
      <trkpt lat="45.9195067" lon="6.9938043"><ele>2919.2</ele></trkpt>
      <trkpt lat="45.9197261" lon="6.9939933"><ele>2925.7</ele></trkpt>
      <trkpt lat="45.9197683" lon="6.9939144"><ele>2932.7</ele></trkpt>
      <trkpt lat="45.9199316" lon="6.9936089"><ele>2939.7</ele></trkpt>
      <trkpt lat="45.9200948" lon="6.9933032"><ele>2945.8</ele></trkpt>
      <trkpt lat="45.9201001" lon="6.9933050"><ele>2951.2</ele></trkpt>
      <trkpt lat="45.9203626" lon="6.9933957"><ele>2955.8</ele></trkpt>
      <trkpt lat="45.9203969" lon="6.9932748"><ele>2960.6</ele></trkpt>
      <trkpt lat="45.9204979" lon="6.9929174"><ele>2965.2</ele></trkpt>
      <trkpt lat="45.9206032" lon="6.9925606"><ele>2969.6</ele></trkpt>
      <trkpt lat="45.9207130" lon="6.9922000"><ele>2975.0</ele></trkpt>
      <trkpt lat="45.9208086" lon="6.9918612"><ele>2979.1</ele></trkpt>
      <trkpt lat="45.9209178" lon="6.9915051"><ele>2984.3</ele></trkpt>
      <trkpt lat="45.9210235" lon="6.9912789"><ele>2990.4</ele></trkpt>
      <trkpt lat="45.9211775" lon="6.9909591"><ele>2997.5</ele></trkpt>
      <trkpt lat="45.9211965" lon="6.9909759"><ele>3005.4</ele></trkpt>
      <trkpt lat="45.9214236" lon="6.9911776"><ele>3014.2</ele></trkpt>
      <trkpt lat="45.9216541" lon="6.9913796"><ele>3024.0</ele></trkpt>
      <trkpt lat="45.9218847" lon="6.9915814"><ele>3034.4</ele></trkpt>
      <trkpt lat="45.9221157" lon="6.9917831"><ele>3045.3</ele></trkpt>
      <trkpt lat="45.9223452" lon="6.9919649"><ele>3057.5</ele></trkpt>
      <trkpt lat="45.9225778" lon="6.9921634"><ele>3069.6</ele></trkpt>
      <trkpt lat="45.9228035" lon="6.9923665"><ele>3081.7</ele></trkpt>
      <trkpt lat="45.9230354" lon="6.9925674"><ele>3094.0</ele></trkpt>
      <trkpt lat="45.9232639" lon="6.9927704"><ele>3106.8</ele></trkpt>
      <trkpt lat="45.9234933" lon="6.9929731"><ele>3118.4</ele></trkpt>
      <trkpt lat="45.9236560" lon="6.9927956"><ele>3130.2</ele></trkpt>
      <trkpt lat="45.9238707" lon="6.9925610"><ele>3142.7</ele></trkpt>
      <trkpt lat="45.9240856" lon="6.9923263"><ele>3155.6</ele></trkpt>
      <trkpt lat="45.9240866" lon="6.9923244"><ele>3168.9</ele></trkpt>
      <trkpt lat="45.9242508" lon="6.9920112"><ele>3181.8</ele></trkpt>
      <trkpt lat="45.9244198" lon="6.9917004"><ele>3195.8</ele></trkpt>
      <trkpt lat="45.9245841" lon="6.9913923"><ele>3210.4</ele></trkpt>
      <trkpt lat="45.9247461" lon="6.9910828"><ele>3224.1</ele></trkpt>
      <trkpt lat="45.9249087" lon="6.9907810"><ele>3238.5</ele></trkpt>
      <trkpt lat="45.9250681" lon="6.9904794"><ele>3252.4</ele></trkpt>
      <trkpt lat="45.9252300" lon="6.9901639"><ele>3265.6</ele></trkpt>
      <trkpt lat="45.9253300" lon="6.9904070"><ele>3278.1</ele></trkpt>
      <trkpt lat="45.9254683" lon="6.9907325"><ele>3289.8</ele></trkpt>
      <trkpt lat="45.9256151" lon="6.9910500"><ele>3301.5</ele></trkpt>
      <trkpt lat="45.9257310" lon="6.9912472"><ele>3311.0</ele></trkpt>
      <trkpt lat="45.9259017" lon="6.9915510"><ele>3319.5</ele></trkpt>
      <trkpt lat="45.9260704" lon="6.9918529"><ele>3328.5</ele></trkpt>
      <trkpt lat="45.9262352" lon="6.9921618"><ele>3338.2</ele></trkpt>
      <trkpt lat="45.9262392" lon="6.9921737"><ele>3347.8</ele></trkpt>
      <trkpt lat="45.9263600" lon="6.9925209"><ele>3356.6</ele></trkpt>
      <trkpt lat="45.9264758" lon="6.9928638"><ele>3366.3</ele></trkpt>
      <trkpt lat="45.9265952" lon="6.9932105"><ele>3377.2</ele></trkpt>
      <trkpt lat="45.9267142" lon="6.9935575"><ele>3389.7</ele></trkpt>
      <trkpt lat="45.9267470" lon="6.9935391"><ele>3406.1</ele></trkpt>
      <trkpt lat="45.9269928" lon="6.9933872"><ele>3424.9</ele></trkpt>
      <trkpt lat="45.9272412" lon="6.9932355"><ele>3446.2</ele></trkpt>
      <trkpt lat="45.9274117" lon="6.9933162"><ele>3467.3</ele></trkpt>
      <trkpt lat="45.9276653" lon="6.9934384"><ele>3490.0</ele></trkpt>
      <trkpt lat="45.9279218" lon="6.9935604"><ele>3515.6</ele></trkpt>
      <trkpt lat="45.9281759" lon="6.9936833"><ele>3542.1</ele></trkpt>
      <trkpt lat="45.9282671" lon="6.9936628"><ele>3566.8</ele></trkpt>
      <trkpt lat="45.9285338" lon="6.9936038"><ele>3589.8</ele></trkpt>
      <trkpt lat="45.9287995" lon="6.9935451"><ele>3609.3</ele></trkpt>
      <trkpt lat="45.9290662" lon="6.9934860"><ele>3625.6</ele></trkpt>
      <trkpt lat="45.9291734" lon="6.9933712"><ele>3638.5</ele></trkpt>
      <trkpt lat="45.9293869" lon="6.9931269"><ele>3651.4</ele></trkpt>
      <trkpt lat="45.9294116" lon="6.9928941"><ele>3661.7</ele></trkpt>
      <trkpt lat="45.9294484" lon="6.9925110"><ele>3670.0</ele></trkpt>
      <trkpt lat="45.9294989" lon="6.9923214"><ele>3677.1</ele></trkpt>
      <trkpt lat="45.9295883" lon="6.9919589"><ele>3684.6</ele></trkpt>
      <trkpt lat="45.9296007" lon="6.9917633"><ele>3694.6</ele></trkpt>
      <trkpt lat="45.9296265" lon="6.9913874"><ele>3704.3</ele></trkpt>
      <trkpt lat="45.9297353" lon="6.9911057"><ele>3715.6</ele></trkpt>
      <trkpt lat="45.9297778" lon="6.9910227"><ele>3729.2</ele></trkpt>
      <trkpt lat="45.9299390" lon="6.9907168"><ele>3742.6</ele></trkpt>
      <trkpt lat="45.9299422" lon="6.9907106"><ele>3757.9</ele></trkpt>
      <trkpt lat="45.9301042" lon="6.9903883"><ele>3773.0</ele></trkpt>
      <trkpt lat="45.9302550" lon="6.9900698"><ele>3786.1</ele></trkpt>
      <trkpt lat="45.9302915" lon="6.9899363"><ele>3798.5</ele></trkpt>
      <trkpt lat="45.9303762" lon="6.9895684"><ele>3808.1</ele></trkpt>
      <trkpt lat="45.9304405" lon="6.9894382"><ele>3815.3</ele></trkpt>
      <trkpt lat="45.9305317" lon="6.9893649"><ele>3821.8</ele></trkpt>
      <trkpt lat="45.9306090" lon="6.9892514"><ele>3826.2</ele></trkpt>
      <trkpt lat="45.9307166" lon="6.9890794"><ele>3830.9</ele></trkpt>
    </trkseg>
  </trk>
</gpx>